{"type": "FeatureCollection", "coordinate_system": {"kind": "local_game_meters", "not_wgs84": true, "axes": {"geojson_x": "local_east_m", "geojson_y": "local_north_m"}, "projected_crs": "EPSG:32618", "local_origin": {"easting_m": 675122.746698341, "northing_m": 4828077.073251363, "longitude": -72.83080550732299, "latitude": 43.58508675768892}, "note": "1000 ft (305 m) ski-area buffer in local meters matching terrain mesh CRS."}, "attribution": "\u00a9 OpenStreetMap contributors (ODbL)", "layer": "ski-area-buffer", "features": [{"type": "Feature", "geometry": {"type": "Polygon", "coordinates": [[[419.4063620775705, 4499.585864429362], [395.8661085135536, 4555.426444936544], [380.15108983800747, 4650.84552858118], [383.584986711503, 4737.54658599291], [399.46009245014284, 4793.285287674516], [425.5920189835597, 4845.0148175684735], [481.86432503617834, 4911.062471390702], [528.7870730783325, 4945.078314221464], [581.2970768732484, 4969.6042463909835], [1139.7500503531191, 5110.357141859829], [1224.2286262341077, 5121.1200588308275], [1280.7826379586477, 5115.061443978921], [1415.5804406647803, 5074.489343021996], [1485.2852028346388, 5035.256118512712], [1616.5938708957983, 4935.631805192679], [1659.571987491101, 4935.01358647272], [2032.2660806052154, 5030.8284027455375], [2138.6535823992454, 5084.494238352403], [2210.880694944877, 5103.0154810855165], [2256.6515513838967, 5146.863000755198], [2291.4260932665784, 5216.741311513819], [2348.3004719178425, 5280.987236858346], [2420.8184099611826, 5326.849885405041], [2503.240654300782, 5350.6995711112395], [2621.679607243859, 5349.007649303414], [2715.1657921769656, 5325.800061561167], [2771.35260287486, 5298.918808628805], [2820.9068830716424, 5261.183774909005], [2877.745987260132, 5195.9931317595765], [2922.239419436548, 5102.323687305674], [3016.326407282264, 5033.22906264849], [3364.133288432029, 4862.883957455866], [3424.742551283911, 4919.793566539884], [3542.255315221846, 5285.049032512121], [3567.512402701541, 5342.482641836628], [3603.9871508851647, 5393.532937554643], [3676.2418796651764, 5453.510678280145], [3839.2529066446004, 5529.40322916396], [3928.9813301056856, 5546.183396655135], [3989.834052822902, 5542.193360815756], [4048.676590535906, 5526.17680676654], [4103.156523115933, 5498.774047890678], [4151.09583964129, 5461.080597803928], [4190.578011392849, 5414.60337368492], [4274.8920298171, 5253.678403372876], [4287.486659328919, 5197.688406442292], [4289.369937064243, 5140.3302534576505], [4280.475186499651, 5083.634681660682], [4261.117321910919, 5029.608969936147], [4127.80317139742, 4764.572516372427], [4120.225822718465, 4672.175473785959], [4177.338280366384, 4428.806137856096], [4174.983692380134, 4369.307971953414], [4161.113702582195, 4311.401157040149], [4136.25695489184, 4257.2927665207535], [3974.572526930715, 3983.971213296056], [3837.6212242089678, 3833.6670871358365], [5354.337159058545, 3784.0263557843864], [5535.312150680693, 3858.2890999009833], [5738.704750544508, 3918.663606976159], [5797.7228422422195, 3929.666071360931], [5887.419455009862, 3924.085670790635], [5971.595890287659, 3892.6062972778454], [6042.9437755791005, 3837.9610552424565], [6080.260074778926, 3790.9325193921104], [6153.977362297941, 3648.4765591351315], [6249.346419526613, 3534.1671920055524], [6277.473779993481, 3480.7865823237225], [6294.5423231665045, 3422.9134216113016], [6299.884052431793, 3362.812641040422], [6293.289913213113, 3302.836352185346], [6245.308417895576, 3167.229977041483], [6179.472665167763, 3086.5129283107817], [6151.538023511181, 2920.302119399421], [6129.818036694196, 2862.5676800990477], [6096.925583796925, 2810.384255037643], [6029.693374345894, 2747.1026037530974], [5975.61604787095, 2717.426585322246], [5916.6736152919475, 2699.2383212381974], [5810.3708650036715, 2679.377364871092], [5751.187343200552, 2679.160786085762], [5665.110467560007, 2700.1595402741805], [5602.063674333389, 2731.536262460053], [5513.239673008677, 2749.4510796600953], [5450.517887879629, 2781.1773079382256], [5424.457038509543, 2707.6815447779372], [5397.1858285981, 2658.722661915235], [5321.123545708368, 2549.9965806994587], [5280.3491265894845, 2509.506953938864], [5232.703942197491, 2477.383760855533], [5179.879179226817, 2454.7672282587737], [5041.804851367022, 2410.5095364563167], [4972.132144204341, 2397.200116894208], [4940.052682808484, 2331.742879105732], [4882.143357498338, 2266.261192650534], [4585.824397474178, 2052.513578995131], [4664.390920139733, 1962.7228242037818], [4697.104707000544, 1903.401822523214], [4738.849153536721, 1855.3404432144016], [4813.832580460934, 1785.2309463303536], [4928.139382859343, 1709.0067310752347], [4969.015920317848, 1669.8044028710574], [5001.939506163006, 1623.7202261285856], [5025.77486017812, 1572.343288205564], [5060.109691883321, 1387.1984285777435], [5060.637624454801, 1296.2659686459228], [5045.986523753381, 1237.3105790093541], [5019.941925644758, 1182.4282355075702], [4983.537044804427, 1133.7961743753403], [4938.216098453966, 1093.3436770383269], [4885.777012858656, 1062.675533618778], [4828.300097820465, 1043.008379360661], [4526.401765421499, 1001.9544915976003], [4183.340287784813, 925.8524067178369], [4126.583061825717, 786.9293280662969], [4092.1653218184365, 740.3579243440181], [4049.5655446395976, 701.1312056938186], [3973.751091143582, 659.0705680921674], [3621.6943370884983, 526.4889910910279], [3564.118706082809, 516.4871460320428], [3505.69235214754, 517.6496244361624], [3273.5315395276994, 566.1321704955772], [3165.2238742023474, 555.2982109896839], [2966.5321467031026, 471.0259508257732], [2788.5281349070137, 428.33646568190306], [2732.898849318386, 425.0294646555558], [2677.5964242279297, 431.89935912843794], [2430.43665099144, 508.79695962835103], [2374.934654441895, 532.639861847274], [2303.1537080854177, 587.6309712342918], [2265.6847594986903, 635.0127556975931], [2239.067186963279, 687.1117233121768], [1813.043503998313, 829.4863043604419], [1706.4733757015783, 874.6114196460694], [1604.2688915607287, 896.4403042336926], [1526.6875874978723, 938.2538972832263], [1443.479909106507, 1003.7871780693531], [1227.0917815478751, 1217.1655118418857], [1045.4933718737448, 1450.995974842459], [1014.4772902092664, 1505.4474793281406], [976.3551152868895, 1622.3294586557895], [969.0889825768536, 1703.0984605615959], [979.5311508279992, 1790.5546212363988], [817.776286891778, 1783.6289927791804], [731.634173719096, 1797.453623314388], [677.9222068891395, 1820.0565344104543], [629.4894324707566, 1852.4622952062637], [588.103883348289, 1893.4879371225834], [555.2763342518592, 1941.6358237946406], [511.83335941669066, 2047.3707679426298], [507.97846335498616, 2150.6626912709326], [438.3000248376047, 2282.2100655380636], [402.17568179871887, 2436.5832123579457], [394.74533235037234, 2500.190325281583], [407.88258873147424, 2637.664707952179], [517.9596319198608, 3012.191495061852], [522.1869723787531, 3105.7444017631933], [547.325860826415, 3221.5676126657054], [491.8104779677233, 3314.5263293674216], [451.2182647221489, 3464.9317982252687], [449.4229888371192, 3524.477447400801], [469.8191325449152, 3624.8031466528773], [433.35626087279525, 3731.5755812218413], [428.9333235101076, 3837.2270689625293], [410.2253000169294, 3903.331817522645], [406.7205765971448, 3966.951667509973], [418.0954438925255, 4082.3169915117323], [480.7632287000306, 4295.48152994737], [438.2569531077752, 4384.9578843275085], [423.4855178842554, 4443.209778569639], [419.4063620775705, 4499.585864429362]]]}, "properties": {"winter_sports_id": "1228774360", "kind": "ski_area_1000ft_buffer", "buffer_m": 305, "name": "Killington Resort"}}]}