{"type": "FeatureCollection", "coordinate_system": {"kind": "local_game_meters", "not_wgs84": true, "axes": {"geojson_x": "local_east_m", "geojson_y": "local_north_m"}, "projected_crs": "EPSG:32618", "local_origin": {"easting_m": 675122.746698341, "northing_m": 4828077.073251363, "longitude": -72.83080550732299, "latitude": 43.58508675768892}, "note": "OSM water shifted into terrain mesh local CRS."}, "attribution": "\u00a9 OpenStreetMap contributors (ODbL)", "layer": "water", "features": [{"type": "Feature", "geometry": {"type": "LineString", "coordinates": [[2508.406260001473, 12258.023233435117], [2525.1873790432, 12122.495608614758], [2550.4131398898317, 12019.70227923058], [2590.908351015416, 11899.243112172931], [2644.985155897448, 11803.074842074886], [2674.8265052222414, 11749.997253444977], [2714.3527594959596, 11679.105480947532], [2746.95993395627, 11620.633478392847], [2800.5534498550696, 11510.971587832086], [2881.425669631455, 11391.9336402677], [2913.780505597242, 11327.89837829955], [2957.5035161996493, 11241.348231690936], [2988.218003494665, 11229.829771592282], [3027.6207414056407, 11240.949795279652], [3078.618770616129, 11241.898328675888], [3178.5433553165058, 11199.005571788177], [3209.234859304619, 11181.118891687132], [3254.3568579069106, 11111.53510920424], [3270.8872754726326, 11073.331347959116], [3275.3559564306634, 11028.303659961559], [3277.709757931414, 11016.574041689746], [3307.4393505392363, 11003.941452526487], [3339.9571342183044, 10993.828629023395], [3365.531158614089, 10968.881621838547], [3367.171847298974, 10953.053967892192], [3358.602370655979, 10937.77610214334], [3369.2112645959714, 10922.599198061973], [3392.444920640555, 10908.581989297643], [3406.099901785259, 10886.573296292685], [3424.877064421191, 10871.203438157216], [3451.8844912814675, 10853.619460550137], [3462.0407477483386, 10839.69764347095], [3472.856984323007, 10823.11488540005], [3492.430800066795, 10810.545109746046], [3510.151759653003, 10802.416117196903], [3519.1938424488762, 10804.836238120683], [3523.955935723032, 10811.965654412284], [3533.3290469223866, 10810.148908938281], [3542.290563639137, 10806.831831603311], [3552.2410727074603, 10805.141692248173], [3561.670674306806, 10805.738340441138], [3565.6400266335113, 10803.899428330362], [3568.3797699153656, 10796.159190932289], [3565.281186178676, 10791.37491635885], [3565.6589584252797, 10785.994487935677], [3569.440893237712, 10782.416705875657], [3574.8714579023654, 10777.51592288725], [3572.4675145164365, 10772.394554433413], [3565.1266343729803, 10769.097343057394], [3564.06372835394, 10759.97727173008], [3571.2028313386254, 10748.798018260859], [3577.8372011311585, 10744.429574119858], [3589.2853902146453, 10730.775876184925], [3599.3052781157894, 10722.574561822228], [3601.837193279527, 10720.497169627808], [3613.8573147598654, 10714.416659607552], [3621.1026556877187, 10701.984355991706], [3631.474240736221, 10693.303453395143], [3642.935901074321, 10669.502662203275], [3635.2460984186037, 10638.532067022286], [3636.68633316888, 10619.064647352323], [3636.2571869720705, 10609.17238380108], [3630.133577499306, 10596.84935377352], [3619.543307145941, 10588.063548499718], [3612.3911256606225, 10562.620160370134], [3629.2290405597305, 10544.70930344332], [3632.8448005468817, 10538.604115211405], [3623.9340182611486, 10527.340235413983], [3606.3240995020606, 10513.787569885142], [3606.0908988806186, 10496.564989287406], [3592.531693392084, 10481.753600481898], [3601.73065085744, 10459.014800619334], [3615.0212254059734, 10427.160395090468], [3636.2591927397298, 10402.487330778502], [3650.234091460239, 10395.425485550426], [3667.405542545137, 10387.68226806447], [3682.3125808645273, 10371.409274294972], [3694.6535631846637, 10366.326647064649], [3716.255641592201, 10353.389346772805], [3716.015456833178, 10328.597592751496], [3709.3331472477876, 10291.018535784446], [3712.632093236898, 10269.022292194888], [3722.1624793871306, 10250.804979360662], [3724.5545035878895, 10229.240169715136], [3704.174482600647, 10213.368045667186], [3676.671344671515, 10227.0478359228], [3660.524211429758, 10222.11458550673], [3647.3150161453523, 10174.891518754885], [3644.3178148566512, 10151.826606788673], [3641.4868470475776, 10139.135958863422], [3664.3962034224533, 10077.340791106224], [3665.4618543713586, 10071.278553054668], [3658.652304933523, 10055.324980233796], [3649.6758221752243, 10035.934664214961], [3649.2635999071645, 10026.00952038262], [3665.739482522127, 10010.222991374321], [3669.236706946045, 9997.701582286507], [3659.4416334532434, 9975.132851364091], [3648.0346532253316, 9966.380794825032], [3649.800037817098, 9955.269062963314], [3660.3448668153724, 9949.804868623614], [3686.663409420871, 9938.227253255434], [3696.509976380272, 9941.980575139634], [3700.9191928639775, 9959.003651982173], [3711.03660372633, 9961.074840116315], [3721.1029971033568, 9956.60935913492], [3731.4267809806624, 9938.302123791538], [3755.448417358217, 9908.857903302647], [3780.2482869788073, 9854.560348560102], [3780.445636778488, 9847.185606353916], [3776.615547740017, 9838.069260067306], [3757.0728312755236, 9824.931387451477], [3740.6042079045437, 9797.904908042401], [3731.037632969441, 9783.678061855026], [3731.579885866726, 9763.408629814163], [3743.442548407591, 9749.71062379051], [3743.58695973875, 9744.31284643989], [3773.023907152121, 9718.136710171588], [3781.8875504098833, 9698.034372435883], [3774.3673394190846, 9683.306504636072], [3767.5301022350322, 9674.409798986278], [3769.5456716838526, 9661.193030513823], [3778.206718903384, 9648.965437958948], [3806.328695635544, 9640.59299368877], [3829.096809298382, 9629.998951523565], [3838.1688652193407, 9617.79354421515], [3844.919540295028, 9598.879541496746], [3854.0136646844912, 9585.852270484902], [3872.9080822813557, 9580.133964287117], [3908.2091121709673, 9568.208539184183], [3937.7587047424167, 9537.87924848497], [3960.755053857458, 9472.097116546705], [3970.4049795087194, 9438.334094506688], [3982.829513408942, 9425.385067805648], [4007.112189248437, 9420.633920416236], [4030.8753844137536, 9419.614529198967], [4054.738594669034, 9414.86342674587], [4079.9404825214297, 9406.825046536513], [4090.782475841581, 9390.921789551154], [4099.413753728266, 9379.538470877334], [4113.26605407882, 9375.34171635285], [4131.3386460830225, 9384.962326952256], [4164.108174413093, 9389.575396928936], [4186.085197099252, 9408.8371151248], [4201.8362662133295, 9427.098342907615], [4212.225122686359, 9427.799328657798], [4217.980021200492, 9399.733905885369], [4223.274295481155, 9372.900958454236], [4231.165039882879, 9342.81441681832], [4226.800384799601, 9319.045636392199], [4202.376284542144, 9298.062106234021], [4186.88102159102, 9270.249271590263], [4184.718758460134, 9226.622375979088], [4198.4822498824215, 9132.784806159325], [4207.147817706922, 9104.797432512045], [4220.370480274316, 9093.115023817867], [4239.91137105308, 9078.701216487214], [4241.772968129488, 9055.921924888156], [4231.6093858842505, 9015.814885172993], [4225.2571904475335, 8957.537823220715], [4257.172685867292, 8901.120732534677], [4322.428710102686, 8875.062907774933], [4363.403174258536, 8853.344378321432], [4374.691721552168, 8820.859503654763], [4375.901264406042, 8791.427356203087], [4380.788985052961, 8748.812074630521], [4425.691425631987, 8713.661809180863], [4491.267059351783, 8714.855806447566], [4523.557741592289, 8707.076001473702], [4534.809896185063, 8697.008396874182], [4556.691166180419, 8667.931523470208], [4592.704222937464, 8618.327981632203], [4605.008316541207, 8601.553335120901], [4607.125486712088, 8591.229245301336], [4607.776443752577, 8567.005917135626], [4597.249631729559, 8540.45937237423], [4587.56038724212, 8528.384259032086], [4582.941128922743, 8502.396605714224], [4579.0404374430655, 8480.296125092544], [4583.526610218338, 8450.274029103108], [4596.493765288033, 8424.147613826208], [4602.947310732678, 8416.407471928746], [4621.407338117482, 8394.274330622517], [4654.749380449648, 8351.64587975759], [4666.298096868442, 8324.87015312165], [4679.725451785023, 8304.458004890941], [4701.370527339866, 8282.43290524371], [4720.409462045762, 8281.110887371935], [4730.314184799441, 8270.173741827719], [4740.462651663693, 8227.066541101784], [4752.481687914464, 8191.823182608001], [4770.929083453375, 8161.498635443859], [4796.125644285348, 8095.0666494220495], [4793.842543335049, 8072.542731293477], [4769.2423059731955, 8052.28616069071], [4765.427579984884, 8009.5926242135465], [4778.430591983837, 7956.081211425364], [4780.856789891375, 7897.97291886434], [4774.750249100616, 7888.583623170853], [4768.637716408004, 7862.611271493137], [4783.7850541368825, 7838.599960294552], [4808.515893171076, 7826.127702482976], [4840.584967594943, 7804.861265104264], [4844.497888388461, 7773.401205454022], [4853.3249272401445, 7741.662111239508], [4850.260322601884, 7703.490102923475], [4846.644343825756, 7693.612023529597], [4834.857988651027, 7691.060940253548], [4830.776519910665, 7698.486814743839], [4828.8275777028175, 7710.037977910601], [4821.518348919228, 7715.954372671433], [4808.63049972197, 7716.252373415045], [4803.510328677599, 7709.190301916562], [4804.571254694951, 7700.04933584854], [4808.025224258192, 7678.146546725184], [4805.014051722013, 7645.477716022171], [4793.267931587063, 7626.422697768547], [4764.118244327023, 7608.122328063473], [4756.479135465226, 7595.690936744213], [4758.56473832787, 7579.052975873463], [4766.029935698607, 7567.6390055967495], [4768.64932206634, 7553.660659611225], [4764.092595555703, 7548.447678692639], [4740.146008154959, 7549.426571646705], [4725.618684780551, 7550.058568012901], [4722.849775186158, 7538.980745346285], [4730.549104342121, 7526.361546822824], [4740.103882993222, 7513.169823410921], [4756.719726714189, 7518.306878485717], [4770.0240141910035, 7517.842121521011], [4777.317841468379, 7505.000891317613], [4771.867332312628, 7479.602102046832], [4773.223577174242, 7459.476798205636], [4776.217893028283, 7454.666914847679], [4792.164496952784, 7454.684482054785], [4813.926236537402, 7458.737454720773], [4829.410490987939, 7452.840854286216], [4834.597906462965, 7427.105725593865], [4838.993161321967, 7415.820426851511], [4843.106830635807, 7391.901435627602], [4836.93057342642, 7378.486773543991], [4829.008150127716, 7361.579646141268], [4834.161825867719, 7344.601868103258], [4826.8734606435755, 7334.424982924946], [4809.815725968103, 7330.098370433785], [4793.603544419981, 7317.436408303678], [4795.525304808631, 7306.895931963809], [4810.0238899252145, 7299.55010368675], [4825.5924235364655, 7298.334963041358], [4830.5895980765345, 7287.477084022015], [4828.434543739655, 7268.880071970634], [4835.2033182360465, 7252.768207741901], [4853.857051172992, 7220.27087337058], [4849.065115764039, 7200.991627691314], [4842.69956882624, 7194.307293085381], [4837.009059816599, 7193.131702662446], [4827.49848748662, 7197.155012367293], [4815.449581443099, 7196.830975690857], [4809.5839934678515, 7179.356791520491], [4823.564011210343, 7160.9936419148], [4828.00329270435, 7148.075679797679], [4811.06631249981, 7131.737528002821], [4802.447850646335, 7125.392778084613], [4805.402266221936, 7114.268773097545], [4818.985398820951, 7088.159220901318], [4811.116612599813, 7076.744167199358], [4795.947448080522, 7063.087750266306], [4795.006163547281, 7052.470292168669], [4818.006095449557, 7033.338234692812], [4836.06463377527, 6992.677875066176], [4830.373274094658, 6953.412772963755], [4840.502787246485, 6926.387897083536], [4856.175565939629, 6906.025240201503], [4842.360129005276, 6887.937107084319], [4848.811114076409, 6868.348963380791], [4882.921888501267, 6846.659486055374], [4900.298033115221, 6812.494024979882], [4894.613881508587, 6791.2679530521855], [4917.826098468271, 6777.487983555533], [4920.984528991976, 6767.492074204609], [4917.802973079379, 6756.747635280713], [4913.46028304717, 6746.260938054882], [4920.55132132303, 6740.694384665228], [4927.4947547345655, 6740.314355740324], [4937.457873512525, 6746.19526703842], [4949.218330018222, 6754.869849401526], [4961.635755544179, 6755.626351466402], [4972.788907003938, 6743.9783669495955], [4985.2059559777845, 6733.653702386655], [4997.48132175894, 6744.787429442629], [4993.239066631882, 6752.164449047297], [4988.187934350804, 6757.207875173539], [4980.284072831622, 6760.885240230709], [4982.904250065563, 6770.892160372809], [4987.515747798025, 6776.7847238136455], [5008.238921304117, 6780.221181307919], [5020.967932300526, 6752.910838633776], [5027.07913632656, 6703.0932365441695], [5024.534757439047, 6684.874689524062], [5016.414809672977, 6675.286548888311], [5003.31826834532, 6673.066783674061], [4991.907577078207, 6678.0835268059745], [4982.484368191101, 6679.130313604139], [4975.455257765949, 6671.594430655241], [4979.699711870984, 6659.0380823183805], [4979.398169807508, 6648.648986226879], [4967.964297275641, 6644.028841738589], [4952.028869850445, 6645.322781221941], [4932.694898475544, 6643.935631256551], [4929.08735372487, 6627.422400971875], [4945.220764441532, 6607.972579249181], [4942.798393007717, 6578.9095769329], [4930.64503136382, 6536.825281029567], [4930.278559103259, 6527.645931281149], [4937.415905890404, 6513.16677384451], [4954.844401247683, 6510.990450654179], [4973.727729017963, 6508.442084187642], [4978.402379834442, 6456.207298733294], [5010.439383207704, 6435.4850762449205], [5026.088903378579, 6416.344714218751], [5040.0841407368425, 6382.499772507697], [5033.155603255727, 6366.419473191723], [5051.8191826393595, 6326.175978673622], [5067.346081656404, 6326.593988511711], [5110.018420045497, 6336.301184875891], [5121.252700056066, 6328.868000361137], [5124.60963670176, 6310.619403319433], [5123.597386492183, 6287.3627393106], [5125.327712217928, 6268.670213167556], [5122.046714430791, 6238.839328889735], [5111.732592853135, 6181.521735405549], [5095.576626972412, 6143.597355071455], [5072.143570772372, 6118.114341254346], [5060.9278912792215, 6109.254211003892], [5052.5448894187575, 6086.621640732512], [5061.760866651195, 6078.311534796841], [5066.343776855967, 6060.095921898261], [5057.737465031096, 6011.871678009629], [5055.620557275135, 5993.953636854887], [5076.9442097187275, 5932.2973806113005], [5085.2871176168555, 5912.349102212116], [5096.060870392481, 5887.864860425703], [5116.934228604892, 5885.826072784141], [5133.030297341291, 5889.427146613598], [5150.063678211416, 5879.804970294237], [5169.706555764074, 5859.016316532157], [5183.2414451300865, 5828.838115938008], [5174.730491113849, 5790.574908957817], [5171.130976401037, 5773.761689901352], [5172.973582588485, 5769.787854442373], [5195.229034623597, 5770.098339034244], [5202.995142961503, 5760.793491505086], [5200.165747815277, 5747.757715815678], [5201.15762398392, 5732.513052876107], [5211.671915411134, 5728.472735242918], [5220.661627394147, 5716.900157248601], [5204.225205879542, 5704.64261240419], [5183.065408652998, 5695.714508999139], [5200.951206242782, 5675.745525706559], [5243.714361168444, 5655.5687721269205], [5251.825228158501, 5644.261527978815], [5256.024197013932, 5595.681844489649], [5237.722082877648, 5566.668804988265], [5231.9162700905, 5546.050516341813], [5236.942813703092, 5509.596865101717], [5261.02464913053, 5399.311451458372], [5272.884173798491, 5377.724240371957], [5286.27277906856, 5353.021720954217], [5285.2954334343085, 5314.094485163689], [5293.012349258061, 5296.1523874485865], [5304.121710481471, 5259.273622327484], [5312.22151158622, 5184.290912862867], [5315.714833794162, 5161.911453451961], [5349.878863447928, 5138.913762112148], [5398.647246131091, 5110.54152885545], [5419.361276426236, 5092.949991486967], [5438.771216533962, 5070.132848423906], [5474.942364621558, 5037.108973757364], [5492.02226906782, 5015.084941375069], [5507.100399148534, 4992.151123625226], [5531.9812828692375, 4970.059769883752], [5549.048684898065, 4959.283462149091], [5555.034865147434, 4951.6647987170145], [5553.75107119896, 4934.913858899847], [5542.106741484837, 4916.44958853256], [5536.711183181498, 4902.1774063352495], [5521.607942082104, 4893.711872267537], [5500.894909853232, 4889.685356806032], [5481.6054525013315, 4897.234208961949], [5468.943585593719, 4916.487651656382], [5461.567311338265, 4921.76818493288], [5438.476915409206, 4920.278546996415], [5427.345994926407, 4914.799017093144], [5428.644081019447, 4898.695696745068], [5450.847021412221, 4869.029511573724], [5469.679954852792, 4856.855717680417], [5483.301467155921, 4845.130477843806], [5484.804749082774, 4832.20034371037], [5483.795594466967, 4816.034796414897], [5470.41945126222, 4808.182819374837], [5447.359530369053, 4805.249103941955], [5439.56255667645, 4794.091021914035], [5440.578298177454, 4777.980090914294], [5448.226070952835, 4762.336977452971], [5473.30191940919, 4733.337386573665], [5487.320291064098, 4706.907183276489], [5507.223166514072, 4677.834866921417], [5548.026552654337, 4643.480217388831], [5568.173206073116, 4647.280375792645], [5574.131955327233, 4653.5541713330895], [5573.199910165044, 4665.354908381589], [5572.159974180278, 4673.673878178], [5580.462213560124, 4691.836807765067], [5587.8351155093405, 4698.960143570788], [5598.7911053594435, 4694.776651688851], [5605.134176265798, 4664.3716907715425], [5617.33988279046, 4628.8455519406125], [5638.059436392388, 4618.601462580264], [5643.462671538931, 4611.356133782305], [5645.147595543065, 4602.476624310948], [5641.297156144632, 4584.500470642932], [5631.459533982095, 4573.865039211698], [5600.993553011562, 4556.326471652836], [5589.836019824375, 4541.042946472764], [5588.505692207138, 4526.013512216508], [5598.020468247705, 4510.620984672569], [5621.708847498521, 4496.589081214741], [5645.188365698326, 4490.298466051929], [5657.803654383053, 4477.601629819721], [5692.714532672311, 4295.531777547672], [5714.522956438479, 4260.253927972168], [5717.247859155294, 4227.517321660183], [5720.830726088723, 4207.263306308538], [5730.313895592233, 4189.180355180055], [5752.494691341883, 4170.628962815739], [5773.536605391535, 4118.614267121069], [5776.672476853244, 4032.7055897619575], [5784.378907985636, 4004.78278057836], [5822.164652339765, 3938.560365933925], [5841.885233712965, 3889.766706882976], [5820.115244984976, 3817.445176027715], [5789.753746021423, 3790.539191273041], [5811.347568186466, 3748.331399696879], [5831.279652989819, 3737.455180642195], [5879.827809149516, 3726.9409828735515], [5914.833254689467, 3703.023703164421], [5936.120108866016, 3672.2115117311478], [5945.340126824798, 3633.7375710522756], [5959.078965515597, 3503.6794784981757], [5967.208937056246, 3475.3681531250477], [5990.5092744010035, 3460.915598015301], [6027.683342145872, 3447.649638036266], [6045.728283771779, 3415.527464464307], [6053.14280624385, 3383.52906250488], [6050.443510846118, 3347.178088606335], [6021.994103936362, 3310.1307938471437], [6018.178204127937, 3299.8355528293177], [6013.5472365338355, 3259.3533352399245], [5990.899965452263, 3217.361503995955], [5953.2428843764355, 3155.235714485869], [5941.723476377199, 3110.5439383154735], [5945.093488563201, 3050.094013802707], [5965.269498261507, 2945.7178819207475], [5941.226663408917, 2829.1988562168553], [5945.208870450617, 2767.609584700316], [5978.716547282529, 2662.4378570122644], [6004.272182935034, 2594.529580936767], [6079.000200544135, 2484.1150754587725], [6151.309152969159, 2399.021510925144], [6181.399291843292, 2377.3507859008387], [6197.7920073996065, 2370.291986857541], [6225.012742249877, 2369.305821859278], [6274.081716068205, 2394.841454467736], [6316.895487152971, 2394.8557399902493], [6376.629648345057, 2304.222310692072], [6473.601428182214, 2184.611123071052], [6527.017258705106, 2135.3206461127847], [6545.239559122827, 2124.866710452363], [6562.062422327115, 2101.6820117319003], [6559.427930113976, 2071.0454497253522], [6539.495951115387, 1994.98147035297], [6534.365570664057, 1943.1817852100357], [6541.233504196745, 1901.3770129261538], [6547.922894308227, 1880.7629322530702], [6570.801230655285, 1852.0294708628207], [6634.2959479212295, 1788.9196095597], [6645.268510043039, 1776.579875071533], [6666.382182997535, 1767.37165554706], [6689.104103819351, 1774.5122465286404], [6727.624116658582, 1797.7753570023924], [6786.206780355424, 1825.2510184794664], [6847.0958812244935, 1865.6383399255574], [6890.156778681674, 1892.0822588056326], [6973.715366689488, 1916.7924372879788], [7013.47114532569, 1951.8835014030337], [7083.614292001934, 1968.2057766122743], [7112.9655937273055, 1974.1943450225517], [7221.1785058968235, 2059.0082170115784], [7386.643815989373, 2194.0541013926268], [7435.843823460513, 2236.0405773893], [7476.19414818252, 2262.792598567903], [7540.703554659965, 2284.156963297166], [7662.420069490676, 2297.8568966919556], [7782.118767905631, 2300.544880080968], [7863.784266599105, 2297.58375404682], [7927.987367408117, 2298.1812492962927], [7991.014140099403, 2278.573969753459], [8124.307068952243, 2215.095515716821], [8263.018944697804, 2149.678277865052], [8309.295452980674, 2145.7430437766016], [8393.622957404004, 2174.86053059157], [8418.660864530597, 2184.337997203693], [8480.813886000891, 2172.847264382988], [8523.833299753955, 2156.0200457340106], [8554.62359455286, 2131.2553959358484], [8584.669874856132, 2104.469818607904], [8607.239706045599, 2072.2776716193184], [8629.996945580584, 2047.6932459622622], [8637.999047181918, 2019.5032423194498], [8685.13356663147, 1955.1740291565657], [8738.037943894393, 1900.2064365390688], [8767.954315533978, 1878.2196194790304], [8776.438071413431, 1861.6468130173162], [8771.654094723403, 1831.1054542148486], [8737.033324974356, 1761.3328221840784], [8726.030242498382, 1737.8233083672822], [8727.923846973223, 1712.6668947031721], [8740.254093545023, 1687.7967644184828], [8774.554249413894, 1681.5353606669232], [8817.397190848482, 1700.716932461597], [8890.341498190886, 1705.9201993374154], [9053.232110786135, 1710.7942864056677], [9065.953209305182, 1715.5453223772347], [9076.77936671325, 1745.4527374552563], [9104.301769937389, 1810.6307292692363], [9147.194607952377, 1857.0250038737431], [9175.038170896354, 1881.3984981207177], [9217.881718308781, 1900.1826529847458], [9281.861661969102, 1909.9453786406666], [9347.29787822836, 1896.1408490724862], [9426.844234106946, 1850.7146453000605], [9469.531782801496, 1817.0784206725657], [9485.648879691842, 1785.9116370128468], [9512.023328034324, 1732.2197227794677], [9550.293893725728, 1698.8624150333926], [9588.16010317381, 1679.8990414887667], [9650.286302159773, 1684.0121970828623], [9714.886238863459, 1715.0032599568367], [9755.827071784879, 1730.1371700232849], [9804.565464562387, 1724.6793859088793], [9848.762749408837, 1694.6883052401245], [9865.113635978429, 1655.1259059878066], [9861.847720910446, 1599.016669635661], [9848.88874303631, 1544.6406349614263], [9827.036431927467, 1507.2139982581139], [9791.51183711947, 1470.2216565711424], [9779.115009393427, 1439.06921261549], [9798.451514706365, 1393.1868354156613], [9833.29048511677, 1338.5179721219465], [9868.181959094363, 1325.8761300714687], [9906.033648665412, 1336.5240785703063], [9978.29793514614, 1322.9137848354876], [10055.776231383788, 1280.2382909692824], [10141.318309850642, 1250.9910104628652], [10219.075155138853, 1227.5315895155072], [10252.635764626786, 1190.0352371772751], [10345.400047051604, 1044.9391008066013], [10364.106053057592, 1023.4823984187096], [10456.585898461752, 1027.1643472723663], [10517.929843962076, 1067.9206621665508], [10619.879502303083, 1160.1644060490653], [10707.579756369, 1233.3305820934474], [10796.243038348854, 1292.3864728659391], [10930.66993055155, 1327.2380674844608], [10951.931833317387, 1330.1623704191297], [10980.997399136308, 1330.4690593248233], [11084.00762017304, 1313.2114797085524], [11097.465759082232, 1323.9889796394855], [11143.405823706067, 1389.1766930976883], [11155.753041760181, 1416.0846972605214], [11166.784697008552, 1454.2823787629604], [11167.90350700845, 1480.5893874112517], [11196.30380560155, 1514.6904694763944], [11217.11263285519, 1533.308596931398], [11240.655302208965, 1548.3126138206571], [11267.426777455374, 1560.2053724247962], [11297.272521849955, 1569.3160632122308], [11324.235591118457, 1573.7339654611424], [11358.738347346312, 1573.4044241188094], [11415.200289730215, 1563.1046024858952], [11511.439064506325, 1532.5050450470299], [11544.177206401713, 1538.6963122496381], [11639.229085906758, 1571.8993297973648], [11662.209758285317, 1572.5396693861112], [11690.040946421912, 1572.4705248568207], [11701.554291384644, 1577.0373727139086], [11724.332339099958, 1607.2606211500242], [11782.657429807354, 1715.2803307222202], [11826.54912727105, 1749.8941410845146], [11884.475293021067, 1770.4835441596806], [11909.28402272507, 1774.7770678205416], [11934.01596306602, 1777.1900893766433], [11960.652318506152, 1775.3325829626992], [11992.06668598717, 1770.1517680101097], [12198.339346381952, 1714.3022791817784], [12255.112317124032, 1690.8801131127402], [12307.525051157805, 1669.1371301049367], [12316.698057739995, 1666.9594262344763], [12428.339609380579, 1664.580346731469], [12472.737872834667, 1668.5904761152342], [12490.51537443872, 1669.832766151987], [12554.633218712639, 1669.7715214099735], [12592.318408572464, 1680.7081913333386], [12641.928080949816, 1716.1101477891207], [12670.846303918981, 1751.3328861128539], [12686.078868534067, 1779.1030231425539], [12718.201594131766, 1836.012588984333], [12726.856299556908, 1864.1431416645646], [12733.300714997342, 1874.0050889570266], [12755.1314424366, 1894.8911024322733], [12815.79043952073, 1898.8481407416984], [12867.899775081314, 1883.3366283662617], [12918.742791307974, 1852.506576959975], [12979.44341927953, 1812.6834451491013], [13017.52786350029, 1782.8743222337216], [13046.685248809517, 1753.3927637469023], [13105.728634475148, 1671.6753698820248], [13123.223820975516, 1645.2900993134826], [13139.92535753618, 1613.8029218735173], [13171.968831299106, 1538.852731081657], [13205.1697602903, 1481.3860773192719], [13303.546408979804, 1332.3166796443984], [13331.425536215072, 1283.470877581276], [13359.721676202142, 1248.2530551645905], [13452.586099701584, 1202.0354445893317], [13501.331060138531, 1182.59906333033], [13531.347450013156, 1143.4288057927042], [13548.723647556384, 1096.6891226395965], [13587.200873722672, 1042.5404208647087], [13633.18803209439, 978.210582128726], [13634.428598413127, 957.1042988644913], [13634.738583953585, 951.8332813726738], [13617.852439129725, 895.3259028187022], [13619.304488381487, 872.1581390351057], [13632.610167312087, 827.7049236958846], [13658.481429644278, 793.2202135166153], [13701.187051693792, 759.9988541053608], [13764.314605709398, 714.5593722872436], [13839.04969086533, 656.6316540976986], [13946.444181617931, 608.4288441129029], [14201.204058464733, 518.7586878882721], [14309.622822238714, 491.39818848110735], [14342.41658274259, 496.32624170091003], [14436.809061141452, 539.0203412463889], [14504.987397505553, 578.9514366779476], [14586.159656247706, 626.4981064926833], [14747.951290032943, 699.9151172693819], [15062.890848753857, 726.4478510897607], [15178.64400024095, 752.1520072054118], [15274.808560004225, 788.4951329529285], [15340.995097047533, 805.5808910634369], [15482.433928736136, 775.1869548913091], [15594.105583338882, 746.3389525031671], [15613.713129684911, 744.9737432124093], [15740.596870368696, 736.1018464714289], [15822.92922481685, 722.4398068394512], [15845.691200410132, 710.7499115336686], [15901.186404291191, 682.2411793535575], [16028.658094320912, 606.6206809831783], [16110.50477992359, 581.7437796192244], [16196.251123511582, 588.9917385177687], [16261.4560771439, 640.4832878112793], [16359.597008312354, 692.1157374447212], [16465.00033885066, 714.3343532076105], [16557.597339418135, 706.5767531171441], [16689.923896602704, 686.3514410881326], [17113.586952413083, 563.1970077455044], [17149.38115414721, 547.4165379581973], [17234.5153654085, 464.2014884771779], [17307.013136695372, 429.45561271719635], [17359.325310596847, 454.17754461988807], [17447.265957267373, 552.7636741185561], [17507.163493150147, 648.9336484475061], [17855.824226749013, 1011.1704776594415], [17907.624802872422, 1081.501111802645], [17953.297831323114, 1141.2514629131183], [18002.162175992504, 1313.151391970925], [18028.71946074837, 1450.7840944044292], [18048.618120101397, 1484.9824776183814], [18109.013009227696, 1535.5433563981205], [18390.535469105584, 1633.3130955239758], [18502.09588554676, 1691.7577836308628], [18619.823295725277, 1787.2092247689143], [18843.620555579662, 2019.3768571596593], [18930.59200452466, 2094.725165943615], [19025.113407383324, 2131.0768585484475], [19243.043017480173, 2149.3986776052043], [19318.525495967246, 2149.98752877675], [19408.41943942546, 2179.807807656005], [19462.944093115744, 2182.991370666772], [19532.51242669241, 2165.8034107582644], [19619.445642955485, 2131.5131703084335], [19691.92528738093, 2124.815863427706], [19954.2070233688, 2082.0233265422285], [20078.606331065996, 2057.6332585662603], [20147.827038802556, 2107.6704779481515], [20313.371730478015, 2297.376202574931], [20372.96722990251, 2347.1353292660788], [20435.140034743934, 2363.3555938899517], [20507.78195876698, 2351.069478699006], [20634.724419418606, 2321.9620156511664], [20741.638572094962, 2318.6830899026245], [20985.691774523235, 2349.8309597475454], [21052.38668452052, 2321.369568639435], [21125.80336092168, 2282.701039562933], [21328.31029594282, 2142.169194713235], [21484.018244644278, 2145.9348238008097], [21588.837295577046, 2159.415222907439], [21666.65595615597, 2162.5001205801964], [21738.31609189429, 2156.601081699133], [21779.0979917231, 2162.601271423511], [21852.184549953905, 2217.572641012259], [22025.139751431416, 2399.53792280145], [22060.26149821526, 2461.3986862581223], [22089.395782663603, 2563.0904226871207], [22083.59588572674, 2623.747202264145], [22036.609449681593, 2691.996001135558], [21954.79272745631, 2743.202245971188], [21924.206384332036, 2772.716427523643], [21913.97406237491, 2820.4371600877494], [21961.316157125868, 2876.2428932813928], [22019.829913981375, 2907.577619089745], [22089.969532241463, 2925.6489148745313], [22195.505673317704, 2914.3494869787246], [22311.717069282196, 2949.7873326288536], [22681.436166501488, 3103.1348781874403], [22710.15578457166, 3163.9992271075025], [22755.67835231335, 3281.385710417293], [23003.48378994444, 3483.1658408781514], [23077.502558477107, 3614.1926919016987], [23140.445398246753, 3766.4916393077], [23151.171074934537, 3895.2909000022337], [23146.49843841768, 3969.1091141412035], [23149.253493291442, 4001.2722165305167], [23165.35370370513, 4036.064749739133], [23191.365944264457, 4080.866427742876], [23225.10391018854, 4126.5862238956615], [23254.11041855032, 4145.798258991912], [23283.36434896069, 4156.925103583373], [23357.26305452257, 4172.987723443657], [23402.03143532388, 4194.190474567004], [23468.240345736383, 4236.149751597084], [23496.215185856097, 4251.986309821717], [23534.929890268133, 4264.873346114531], [23636.31024144939, 4289.6469424320385], [23668.315309152356, 4297.0220574736595], [23696.091642488143, 4298.847025915049], [23769.087666005013, 4294.377899267711], [23804.489214934525, 4290.993872005492], [23830.297122045537, 4297.641006492078], [23858.20218253834, 4311.987480317242], [23872.445327034686, 4330.307981017977], [23882.252430668566, 4350.875603414141], [23884.923647805117, 4369.152444195002], [23878.37337322894, 4413.745591672137], [23876.752045237692, 4443.0334702227265], [23883.6663344017, 4466.094147500582], [23892.497297188966, 4481.997278119437], [23910.062657327857, 4500.472200835124], [23930.004116465105, 4516.438803953119], [23959.519694036106, 4532.534447239712], [24012.114711186965, 4548.404916362837], [24043.9078146565, 4559.0549549991265], [24074.39455717965, 4574.524149688892], [24135.00267546298, 4594.658103296533], [24189.1400939686, 4615.389306318015], [24227.550158753642, 4625.925932944752], [24273.291626496473, 4645.729822413996], [24322.731102754595, 4667.989737209864], [24354.442846066435, 4684.864079699852], [24384.47461191693, 4699.843208105303], [24411.461107924, 4707.795099365525], [24439.12998576823, 4716.423306975514], [24469.381890485995, 4737.012072654441], [24499.283447749796, 4769.618513748981], [24517.332673025434, 4797.24731273111], [24544.093792438158, 4848.491547371261], [24620.187625000137, 4918.971358079463], [24722.88541550713, 4983.331657078117], [24762.410863716737, 4999.6964975539595], [24847.683514699107, 5018.494808925316], [24879.07038474118, 5036.418189082295], [24902.42747691681, 5059.026448279619], [24929.946070306818, 5103.703053511679], [24936.846932983957, 5114.903430770151], [24945.335039261845, 5140.54708151985], [24948.5889575287, 5171.370255280286], [24945.460000180756, 5215.008988443762], [24934.794124224572, 5246.850266499445], [24919.334129111492, 5268.610188868828], [24898.878886634368, 5309.18561820779], [24893.724268789636, 5334.955250744708], [24898.386499133077, 5378.915685520507], [24907.39983015263, 5409.132760401815], [24923.888580273022, 5442.3856815528125], [24950.87566823815, 5489.381092422642], [24974.221416479675, 5518.247978340834], [25022.756427856628, 5561.563472774811], [25043.27501315181, 5573.160014141351], [25067.51540429576, 5574.785247375257], [25094.078050972195, 5572.200164955109], [25149.761628305423, 5553.044458583929], [25360.165719823563, 5492.442583267577], [25413.413075543707, 5489.435048057698], [25509.727608520538, 5485.50621215906], [25555.71518224955, 5479.825488581322], [25599.9105043608, 5467.132380114868], [25649.792883311748, 5451.40852485504], [25677.18417160376, 5427.417827704921], [25700.81463027466, 5417.8993526482955], [25716.915760282776, 5415.225225395523], [25746.05972181016, 5425.1484239837155], [25775.82369374542, 5442.393945734017], [25815.23701087106, 5459.106579300016], [25834.057552974205, 5475.056803820655], [25867.07202157448, 5511.5097299497575], [25898.906582983327, 5540.990666269325], [25927.16861617507, 5571.920809540898], [25946.86939427047, 5614.466477957554], [25950.036988443346, 5651.22413541656], [25945.798292320687, 5674.864103923552], [25929.239220239804, 5696.566618103534], [25896.58862113289, 5724.411449615844], [25868.43814210128, 5739.54075818602], [25818.358345590415, 5751.666313063353], [25775.688580400194, 5758.500777014531], [25718.342755212914, 5789.4405815619975], [25674.053792222054, 5810.967660686001], [25651.606908829068, 5819.298822706565], [25630.65402090957, 5846.472967769951], [25618.364628829644, 5873.128798274323], [25612.559809993836, 5896.799756807275], [25611.674042399623, 5946.2641347190365], [25611.14627485152, 5998.329411488026], [25614.160061784438, 6046.1876693936065], [25627.818269037292, 6077.534676793031], [25644.31718594418, 6106.232247260399], [25681.24435549951, 6159.398836531676], [25704.209239685675, 6187.590220706537], [25728.90958246158, 6197.224615737796], [25800.3884997539, 6224.704556507058], [25881.762604600983, 6250.136841145344], [25937.44387982029, 6279.6229314683005], [25991.411894867313, 6321.775440424681], [26026.666782707092, 6361.142698018812], [26080.95212461066, 6431.3750180462375], [26123.31511014467, 6482.68459028285], [26147.5491790768, 6507.5030522197485], [26165.53420877538, 6517.548647526652], [26232.782953044632, 6541.093307944015], [26256.304105033632, 6547.726160299964], [26284.47388460918, 6544.760806034319], [26308.688603129238, 6534.517411716282], [26333.916142830276, 6524.693669153377], [26358.272167530842, 6520.757840596139], [26459.434418433462, 6540.412271746434], [26583.713476982433, 6548.747788575478], [26631.821430030395, 6557.712704078294], [26667.59243848489, 6558.379799665883], [26706.31351193774, 6553.588819756173], [26745.533821269637, 6566.244094946422], [26775.798329626326, 6583.242865845561], [26815.524592443136, 6619.525710353628], [26856.478537026094, 6676.645232021809], [26887.066932992777, 6746.547652160749], [26893.52922213869, 6754.190917379223], [26917.31702529674, 6766.392585569061], [26942.81339467445, 6767.996113721281], [27038.349173738738, 6761.009694012813], [27075.503052562708, 6758.0967538859695], [27147.565608036588, 6736.806939876638], [27180.83636963286, 6730.68675582204], [27207.60935444606, 6731.996373555623], [27244.029945652, 6734.120304274373], [27279.859875638504, 6748.032563768327], [27455.091802222072, 6835.1984244911], [27489.504814701388, 6852.148324850947], [27531.983904769993, 6863.739809503779], [27589.472730003647, 6870.227821179666], [27622.926743547898, 6868.184141327627], [27667.08628147689, 6849.089468204416], [27731.587013317156, 6809.901012901217], [27786.490062381956, 6781.060915093869], [27847.9510363678, 6754.032064664178], [27891.594598788535, 6737.357719470747], [27918.027834925917, 6729.644133985974], [27947.521233882522, 6730.972546408884], [27978.70168581372, 6737.899584411643], [28018.980236707488, 6751.773027646355], [28088.88231476501, 6779.697385291569], [28160.94317064609, 6805.3757792096585], [28241.818488872494, 6823.66331673786], [28304.047176214983, 6830.935170253739], [28400.132720276946, 6825.063154654577], [28480.580252965912, 6813.869761567563], [28605.945540954475, 6804.68933709152], [28715.789985490846, 6787.412276394665], [28757.192425604677, 6772.298245580867], [28792.866887855693, 6747.771771527827], [28821.430707064108, 6720.260669243522], [28838.247653333354, 6699.095171400346], [28846.800596752088, 6674.898614060134], [28877.91831903893, 6598.317651516758], [28941.622384550865, 6387.515119585209], [28950.10970573884, 6348.809074237011], [28959.157673587906, 6276.358037640341], [28961.66966367839, 6210.388998053037], [28979.069923070027, 6158.758948666044], [29026.456773409853, 6068.033590301871], [29076.64151732903, 5992.568454777822], [29131.518491522293, 5963.426541294903], [29138.40352709114, 5936.789229116403], [29155.69733044447, 5916.494922875427], [29175.572107440326, 5889.687078658491], [29186.81166367058, 5862.193289766088], [29207.30747497629, 5842.296979941428], [29241.9685371496, 5817.585946254432], [29279.112376367324, 5790.116061271168], [29323.33237034094, 5765.486060711555], [29366.905536568607, 5759.135080526583], [29422.071270945715, 5764.5223333342], [29460.59542034578, 5762.208784915507], [29505.40258163307, 5744.290289380588], [29558.427892577834, 5718.796985337511], [29602.24113131466, 5705.673482996412], [29654.37449751515, 5713.059891009703], [29771.607635817723, 5723.150311908685], [29861.957548955106, 5740.390495258383], [29928.86158088653, 5758.270021922886], [29994.07710315322, 5779.856056792662], [30062.704608926084, 5813.409199661575], [30084.207157453406, 5857.44694891572], [30087.718237568974, 5920.4547534082085], [30050.731743493583, 5990.903601767495], [30008.574495808454, 6052.511757276021], [29979.4042399507, 6116.685871512629], [29968.49038792122, 6153.215531623922], [29950.075823691557, 6214.239665958099], [29950.142640329548, 6266.614023601636], [29959.824179004994, 6297.704818349332], [29978.8422959334, 6341.621736018918], [30007.783370548626, 6381.32931657508], [30068.197484494536, 6438.432824445888], [30130.6084739184, 6479.6229841848835], [30222.901031916146, 6527.933822117746], [30298.44395729946, 6566.593675804324], [30355.723556501674, 6590.486078276299], [30397.460477924324, 6602.006420167163], [30469.30374118872, 6608.337387012318], [30577.13500994933, 6617.509381433018], [30660.312970343977, 6630.972230751999], [30740.884551088326, 6648.313656125218], [30807.91652895452, 6686.350878238678], [30855.12052175426, 6733.483799336478], [30933.695302281645, 6845.784417481162], [31035.47431489732, 6963.759199759923], [31135.465916801593, 7067.573001405224], [31180.34157897788, 7148.688710431568], [31186.399782606517, 7196.5125926611945], [31186.77484953194, 7245.884429460391], [31167.704979519825, 7321.8382682632655], [31140.29675337358, 7401.426110361703], [31117.37227059866, 7495.8602631967515], [31120.64562497521, 7555.715992463753], [31163.337154667475, 7668.014941587113], [31186.351168592926, 7723.321070299484], [31197.846745623625, 7785.109158710577], [31193.80731704866, 7843.583307016641], [31180.040888897376, 7908.583455821499], [31151.889712638804, 7962.311930857599], [31105.315070488374, 8014.282994605601], [31094.910578323528, 8024.201190650463], [31078.54824755655, 8049.844448971562], [31065.180092938244, 8074.990814425051], [31058.27292970766, 8119.947042942047], [31064.286485218094, 8158.197629987262], [31081.52165872266, 8180.173934181221], [31105.287488702917, 8213.924615716562], [31136.472619389417, 8238.999288576655], [31169.55883127777, 8260.53077766113], [31221.53671156068, 8279.876985486597], [31225.291032041772, 8283.516949957237], [31254.05364218878, 8308.595314035192], [31278.295554673183, 8352.511404986493], [31302.86781460105, 8406.899102241732], [31328.133305750904, 8439.073878363706], [31361.079565927386, 8477.377994243987], [31388.7759280171, 8515.509093059227], [31410.67782418197, 8550.192940185778], [31424.20429317106, 8600.971684709191], [31440.58169848332, 8644.634551715106], [31467.48231601331, 8687.321788559668], [31501.54658563563, 8753.120868607424], [31524.418290482252, 8798.952399259433], [31549.08753310528, 8850.07580367662], [31578.728460307815, 8888.923891312443], [31611.644306420232, 8906.939567337744], [31646.17690007144, 8915.211092296988], [31690.761764107156, 8916.589653192088], [31738.782344498788, 8912.83854344301], [31798.197886065813, 8901.591516757384], [31865.04480533884, 8883.393226982094], [31947.835386437015, 8859.141109820455], [32021.173209450208, 8822.168057770468], [32060.558705790085, 8779.57471007388], [32084.784049512353, 8739.124447055161], [32107.02874759666, 8677.678997443058], [32126.19503022323, 8631.191051555797], [32150.137973505654, 8599.881771891378], [32176.641089002835, 8570.619675031863], [32202.463190936833, 8541.981365005486], [32209.768598810886, 8518.016528995708], [32215.828563558753, 8492.045327898115], [32226.55845482298, 8463.595205025747], [32245.925659709377, 8431.499563526362], [32273.374854546855, 8393.106446033344], [32310.56097268185, 8336.705131592229], [32335.685987886623, 8288.423557273112], [32353.673742096755, 8243.055772513151]]}, "properties": {"id": "water:way:117116346", "osm_type": "way", "osm_id": "117116346", "name": "Ottauquechee River", "tags": {"name": "Ottauquechee River", "waterway": "river"}}}, {"type": "Feature", "geometry": {"type": "Polygon", "coordinates": [[[6392.104973344947, 2767.241821056232], [6374.471578304889, 2776.300470583141], [6363.654286810546, 2790.734297835268], [6364.002171239932, 2809.7941328715533], [6372.224758825381, 2827.344511163421], [6384.945254914695, 2838.948179841973], [6393.183447040734, 2855.6209594495595], [6406.966937498073, 2892.3724661543965], [6417.248590926523, 2929.896066171117], [6434.599962743232, 2931.2331713270396], [6445.41691145068, 2916.8105642171577], [6454.530682502198, 2901.4637609012425], [6461.948304137448, 2884.337120961398], [6470.252643733867, 2866.3786955988035], [6478.494954832131, 2851.008300223388], [6491.548089816351, 2818.4517573770136], [6499.852878339472, 2800.482259198092], [6507.247224813327, 2784.221967876889], [6512.882712738821, 2768.792057024315], [6516.830383621389, 2751.571401721798], [6525.088338436442, 2735.334537424147], [6529.059238120215, 2717.2586924685165], [6532.111886902829, 2700.880718825385], [6536.028076175018, 2684.526157692075], [6539.150909229065, 2665.560385826975], [6540.491945116548, 2648.2690717093647], [6532.25411164551, 2631.5850064028054], [6512.482779549318, 2623.257696032524], [6493.418947009486, 2621.0070806685835], [6480.881434916169, 2634.5271797031164], [6476.046802679193, 2652.5907516162843], [6467.742231063079, 2670.549172484316], [6453.4932055999525, 2683.1559936013073], [6435.882980802562, 2691.3481870116666], [6419.168169959215, 2698.6866313116625], [6408.3425969836535, 2713.120172725059], [6407.873795461142, 2730.4240114381537], [6416.119857552578, 2747.1081394003704], [6409.565751802409, 2764.2582228034735], [6392.104973344947, 2767.241821056232]]]}, "properties": {"id": "water:way:210831542", "osm_type": "way", "osm_id": "210831542", "name": "", "tags": {"natural": "water"}}}, {"type": "Feature", "geometry": {"type": "Polygon", "coordinates": [[[3062.7048873730237, 4845.764790657908], [3056.6992840255843, 4846.638610098511], [3052.0239606096875, 4844.546964960173], [3048.170059261378, 4839.498541279696], [3044.7314752748935, 4830.371099720709], [3042.869769348763, 4822.663793996908], [3041.205554328859, 4816.940093497746], [3038.3418230899842, 4810.7843621801585], [3040.374961995869, 4802.035914408974], [3044.4258571235696, 4792.096350830048], [3046.359859744087, 4788.591227301396], [3050.5615114716347, 4784.212839962915], [3055.587376705371, 4779.2006416795775], [3062.8572262754897, 4775.115077283233], [3075.1989291174104, 4765.8073870828375], [3084.7625283396337, 4755.92563717626], [3091.740874768817, 4744.897003906779], [3098.223915405222, 4730.031865473837], [3102.8380141665693, 4717.43988255132], [3107.4075766305905, 4706.825067018159], [3112.403392176726, 4695.665883270092], [3115.381408125977, 4690.85484615434], [3125.970696207718, 4689.45845271647], [3133.7040509382496, 4681.917625261471], [3141.218280121335, 4672.903880868107], [3147.0565706862835, 4672.559161692858], [3148.6521453821333, 4676.613913003355], [3156.617389776162, 4674.314133440144], [3160.9676607056754, 4667.694669908844], [3166.211246261606, 4672.40226905141], [3171.5421450402355, 4674.133556329645], [3176.1203377189813, 4672.599420662038], [3177.23389474384, 4676.563544948585], [3183.3294224584242, 4677.170425188728], [3186.3856790489517, 4680.641678827815], [3187.3175700114807, 4689.002244299278], [3189.4955607877346, 4693.317031215876], [3189.7220706428634, 4709.672249752097], [3190.1144119173987, 4719.496655493043], [3192.179409707198, 4728.054111537524], [3192.0489801502554, 4732.952060385607], [3189.8622575353365, 4741.396296426654], [3187.3103718868224, 4750.819985001348], [3178.565092284349, 4758.76726436615], [3168.9577034033136, 4762.101379173808], [3157.9100888459943, 4764.3412999510765], [3151.0313838793663, 4769.804241764359], [3154.271989645553, 4771.202010520734], [3156.8940013415413, 4771.271819777787], [3168.792394054937, 4768.30989053566], [3171.1177217609948, 4767.393744267523], [3176.317446695175, 4766.165134058334], [3173.287116821739, 4772.030614210293], [3168.5833174076397, 4776.162158112973], [3158.0592672431376, 4783.906498869881], [3138.7764186615823, 4794.651943329722], [3129.093580574845, 4799.30670828931], [3122.244624532177, 4803.047747300938], [3115.2043384502176, 4808.5175354918465], [3108.7258063753834, 4815.024801391177], [3093.7972022235626, 4823.552259000018], [3083.2080439740093, 4829.805656050332], [3076.7195299421437, 4833.656360346824], [3067.2618556794478, 4839.562006204389], [3062.7048873730237, 4845.764790657908]]]}, "properties": {"id": "water:way:306589420", "osm_type": "way", "osm_id": "306589420", "name": "", "tags": {"golf": "water_hazard", "natural": "water"}}}, {"type": "Feature", "geometry": {"type": "Polygon", "coordinates": [[[2693.25871074968, 4678.342996931635], [2668.7575392689323, 4682.5271393842995], [2656.5993632429745, 4672.168140157126], [2648.914092256804, 4655.414938825183], [2655.2996217390755, 4642.058378665708], [2668.5301249129698, 4626.627356997691], [2670.6766510637244, 4602.644149149768], [2674.613665601937, 4582.076109413989], [2681.0760901969625, 4570.388753267005], [2685.6348376629176, 4564.719254892319], [2704.633085314301, 4559.210902224295], [2725.2070524373557, 4552.132877911441], [2734.0597720260266, 4545.599393888377], [2749.5617825228255, 4543.754936537705], [2758.366347062518, 4538.731747371145], [2774.1057026160415, 4528.257844217122], [2787.266763915075, 4515.459275117144], [2796.8297723851865, 4496.174413951114], [2850.343653164222, 4495.829236131161], [2921.7479223299306, 4462.728340082802], [2934.27092018642, 4459.67143511679], [2942.474850301747, 4463.279435545206], [2943.0754549762933, 4468.930359539576], [2932.482562062447, 4484.41990352422], [2926.2058967391495, 4493.655721891671], [2914.882534898119, 4508.381209935993], [2859.860454714508, 4621.973861504346], [2846.3482032753527, 4619.73641704116], [2823.6023476218106, 4624.389005349949], [2812.5331326570595, 4631.9971327688545], [2794.350884782849, 4632.625449507497], [2780.8558061021613, 4646.759951251559], [2741.3409109616186, 4661.45921506267], [2693.25871074968, 4678.342996931635]]]}, "properties": {"id": "water:way:306589421", "osm_type": "way", "osm_id": "306589421", "name": "", "tags": {"natural": "water", "water": "lake"}}}, {"type": "Feature", "geometry": {"type": "LineString", "coordinates": [[3387.049339148798, 4965.4918102398515], [3386.3326767670223, 4962.394026406109], [3386.340021849959, 4958.181880387478], [3387.1943728519836, 4956.115158327855], [3387.5213747456437, 4954.145520547405], [3387.295343986596, 4952.327854051255], [3389.065107858856, 4948.629498118535], [3390.248754279455, 4945.415662318468], [3390.9806256572483, 4940.978316869587], [3391.1056558070704, 4936.591478702612], [3391.3138083715457, 4931.206564427353], [3392.3129495661706, 4926.131711966358], [3392.0069916159846, 4922.466930989176], [3393.1246277301107, 4918.095442364924], [3394.3264940578956, 4913.592827254906], [3394.882956108195, 4909.073005030863], [3395.643253388931, 4904.780904513784], [3396.3902263256023, 4900.988594935276], [3397.3881109186914, 4896.869544337504], [3397.647996317013, 4892.875304329209], [3397.5611202665605, 4889.47199451644], [3397.897010290064, 4887.169163356535]]}, "properties": {"id": "water:way:734018508", "osm_type": "way", "osm_id": "734018508", "name": "", "tags": {"waterway": "stream"}}}, {"type": "Feature", "geometry": {"type": "LineString", "coordinates": [[3399.630823419546, 5088.296394327655], [3395.198174060206, 5084.077006826177], [3392.1327532959403, 5079.749589087442], [3388.0034826553892, 5073.537710769102], [3383.7938387891045, 5064.88964776136], [3382.7707975271624, 5057.538009391166], [3382.6028251893586, 5049.909080222249], [3384.683386694407, 5037.883240163326], [3386.8008827142185, 5026.591933047399], [3389.9790687483037, 5015.184419089928], [3391.2727754580555, 5009.96181892883], [3391.4995069581782, 5004.7885722452775], [3391.80477458518, 4998.183667086996], [3391.382193193189, 4991.626042664051], [3391.3713543455815, 4983.856816438958], [3391.5208911610534, 4978.248051829636], [3390.5260160358157, 4974.987248768099], [3389.929994460428, 4972.815172562376]]}, "properties": {"id": "water:way:734018509", "osm_type": "way", "osm_id": "734018509", "name": "", "tags": {"waterway": "stream"}}}, {"type": "Feature", "geometry": {"type": "LineString", "coordinates": [[3288.332824347308, 4987.8013087892905], [3292.916471351171, 4979.087537497282], [3297.8940549624385, 4973.162853729911], [3302.361771991127, 4967.891447401606], [3306.614117352641, 4962.825477050617], [3314.121150891413, 4957.412784513086], [3320.9859755627112, 4951.5606391411275], [3328.0710787768476, 4945.9255436416715], [3336.0116482150042, 4940.302141057327], [3342.1967673642794, 4935.721164676361], [3349.9560245434986, 4929.025966734625], [3353.961889475351, 4925.031545938924], [3356.9928456678754, 4924.901164655574], [3361.6693605895853, 4920.279992141761], [3365.6269054466393, 4917.79584202636], [3368.9183971715393, 4916.37203136459], [3372.27080812247, 4912.36020122841], [3374.9662702522473, 4908.764319359325], [3380.2941364017315, 4903.938235371374], [3383.7551266474184, 4904.030502682552], [3388.2625284123933, 4905.451049023308], [3391.3760148779256, 4906.767749532126], [3394.882956108195, 4909.073005030863]]}, "properties": {"id": "water:way:734018510", "osm_type": "way", "osm_id": "734018510", "name": "", "tags": {"waterway": "stream"}}}, {"type": "Feature", "geometry": {"type": "LineString", "coordinates": [[3397.897010290064, 4887.169163356535], [3401.0985171537613, 4886.6988030271605], [3404.4061745138606, 4884.063974503428], [3410.9542023463873, 4881.015399675816], [3417.541919942829, 4876.478565030731], [3419.003729274962, 4874.339128794149], [3419.860998828546, 4870.649791347794], [3422.129582262947, 4867.320402813144], [3424.024963019998, 4866.481794421561], [3427.5903535756515, 4864.476253041998], [3429.8698779705446, 4863.1588578261435], [3431.405700586969, 4861.877203369513], [3432.0608963185223, 4860.316435794346], [3432.314487710246, 4858.678272771649], [3433.930040732841, 4855.920534958132], [3436.4224564894103, 4852.67492003832], [3439.9964028183604, 4847.624277882278]]}, "properties": {"id": "water:way:734018511", "osm_type": "way", "osm_id": "734018511", "name": "", "tags": {"waterway": "stream"}}}, {"type": "Feature", "geometry": {"type": "LineString", "coordinates": [[2931.8055797591805, 5392.419289854355], [2930.2480133740464, 5390.277257442474], [2929.7572630016366, 5387.785711104982], [2926.7702193902805, 5383.238310660236], [2924.0876494679833, 5378.776809497736], [2922.342914600158, 5374.262450597249], [2919.4233490140177, 5369.605705461465], [2917.40665552055, 5366.817950178869], [2915.526840860024, 5362.222201040946], [2913.3907435365254, 5357.853038043715]]}, "properties": {"id": "water:way:736401730", "osm_type": "way", "osm_id": "736401730", "name": "", "tags": {"waterway": "stream"}}}, {"type": "Feature", "geometry": {"type": "LineString", "coordinates": [[2776.4211728608934, 5517.3367515662685], [2774.622767198365, 5515.143898661248], [2772.172816819395, 5513.167133173905], [2768.2402420158032, 5510.78419890441], [2766.9873264672933, 5509.328273750842], [2765.5829117154935, 5508.713010903448], [2764.80741405196, 5508.125574316829], [2760.623091098969, 5507.01410119608], [2756.7309433784103, 5505.843708255328], [2754.7548635985004, 5504.86871450115], [2751.8454907849664, 5504.080095451325], [2749.7189943221165, 5503.601250631735], [2748.012267937651, 5503.1224452946335], [2738.673786638421, 5493.649455484003], [2734.6399131622165, 5482.316832434386], [2731.7523423128296, 5477.060850076377], [2725.3845059550367, 5472.145869818516], [2719.922107836115, 5465.965689544566], [2711.403834202676, 5460.560139684007], [2712.89732302248, 5453.264370473102], [2711.850803440786, 5443.733839351684], [2713.241034245817, 5440.325334328227], [2715.391314968816, 5424.411196879111], [2713.6990648396313, 5406.672269866802]]}, "properties": {"id": "water:way:736401734", "osm_type": "way", "osm_id": "736401734", "name": "", "tags": {"waterway": "stream"}}}, {"type": "Feature", "geometry": {"type": "LineString", "coordinates": [[3235.6738378504524, 5612.547575821169], [3232.7089912298834, 5612.935386165045], [3226.912459583371, 5615.6817995700985], [3216.013644724968, 5613.902118278667], [3204.7538869465934, 5616.580810568295], [3183.5394611606607, 5615.371086517349], [3168.591510031256, 5620.44121728465], [3139.4390615201555, 5648.439903016202], [3121.503776903148, 5657.47620580066], [3113.381867953576, 5658.426958063617], [3104.7016479576705, 5656.395324982703], [3099.8052065259544, 5652.01928323321], [3074.612621739856, 5618.005590340123], [3064.152933878009, 5616.104474993423], [3054.9913992057554, 5618.505835173652], [3027.0933364873054, 5641.247945398092], [2992.7135452771327, 5663.073036042042], [2989.157982814708, 5664.123209107667], [2985.9895952389343, 5663.060847261921], [2966.300049936981, 5651.267073124647], [2958.7228512493894, 5649.342776509002], [2950.322358205449, 5650.753116439097], [2930.4358480669325, 5658.804407410324], [2925.10567680269, 5661.930249961093], [2921.484525126056, 5662.411883035675], [2917.0080582654336, 5661.059134248644], [2914.1401452174177, 5657.8041614331305], [2906.2683365069097, 5654.8162279725075], [2894.14651756105, 5654.404950888827], [2888.6965409822296, 5652.626217741519], [2882.1015543601243, 5636.835220823996]]}, "properties": {"id": "water:way:736408527", "osm_type": "way", "osm_id": "736408527", "name": "", "tags": {"waterway": "stream"}}}, {"type": "Feature", "geometry": {"type": "LineString", "coordinates": [[3344.2173045742093, 5561.324560116045], [3341.215561192599, 5563.700812014751], [3332.2847895829473, 5572.276427526958], [3319.6962416227907, 5583.3108564978465], [3312.2099922781345, 5587.968287275173], [3307.8708198467502, 5592.064973958768], [3303.6454000094673, 5592.196867310442], [3296.3810406642733, 5593.981608788483], [3289.649679538212, 5594.546868754551], [3284.1407663921127, 5595.889376262203], [3277.8846089486033, 5597.100830846466], [3261.3201456528623, 5600.72727265954], [3255.7508803633973, 5605.546989128925], [3246.2190878090914, 5610.327813802287], [3235.6738378504524, 5612.547575821169]]}, "properties": {"id": "water:way:736408528", "osm_type": "way", "osm_id": "736408528", "name": "", "tags": {"waterway": "stream"}}}, {"type": "Feature", "geometry": {"type": "LineString", "coordinates": [[3344.716178813833, 5286.724157425575], [3337.687657307717, 5279.3458116455], [3349.0712768362137, 5271.135659479536], [3352.1286187664373, 5254.867935397662], [3356.013802835718, 5232.075922336429], [3360.45570474118, 5213.233236074448], [3365.446849112981, 5198.3174494784325], [3369.580839970731, 5177.399287872948], [3372.1712590589887, 5173.500521028414], [3377.2609774612356, 5169.423871777952], [3379.8777577088913, 5164.536632137373], [3384.959420202882, 5160.45977337379], [3393.111857795273, 5153.241628238], [3399.2453368343413, 5146.958837008104], [3403.414115244639, 5139.879000605084], [3408.036578443134, 5134.556219025515], [3411.9090855125105, 5129.202327854931], [3412.1270593272056, 5121.027968270704], [3413.323986651958, 5113.379859516397], [3411.5508812485496, 5105.396923033521], [3410.216867178213, 5099.415166797116], [3407.061231118045, 5096.352372980677], [3404.39895645692, 5093.558366213925]]}, "properties": {"id": "water:way:736927610", "osm_type": "way", "osm_id": "736927610", "name": "", "tags": {"waterway": "stream"}}}, {"type": "Feature", "geometry": {"type": "Polygon", "coordinates": [[[3398.354185504024, 4956.623865886591], [3398.590685697389, 4952.295571302995], [3400.0497443578206, 4948.7445349134505], [3403.5216204618337, 4944.491389320232], [3407.4670357432915, 4941.2511638188735], [3411.9244160958333, 4937.279929305427], [3415.44446613302, 4935.762206431478], [3419.6982144848444, 4934.886453633197], [3424.7705414827215, 4936.0108878631145], [3427.3135690585477, 4938.434945086017], [3428.849254356697, 4941.699061229825], [3428.1024783009198, 4946.391636817716], [3428.1278281866107, 4949.982251752168], [3427.299727026024, 4953.183334241621], [3424.1628127272706, 4958.801352407783], [3422.1671293943655, 4963.70514121186], [3418.4256110418355, 4968.684635204263], [3415.53328955092, 4969.974577941932], [3413.316882253741, 4968.926300164312], [3412.413976247888, 4970.391549119726], [3409.3067335087107, 4970.053067043424], [3405.7580841080053, 4968.102349147201], [3401.6032655112213, 4965.268551059067], [3399.1116934606107, 4960.611889050342], [3398.354185504024, 4956.623865886591]]]}, "properties": {"id": "water:way:736936051", "osm_type": "way", "osm_id": "736936051", "name": "", "tags": {"golf": "water_hazard", "natural": "water"}}}, {"type": "Feature", "geometry": {"type": "LineString", "coordinates": [[3564.978918819572, 4895.1824957840145], [3558.6226044284413, 4898.002637643367], [3552.559561363538, 4900.119291231036], [3543.8081053788774, 4896.184681652114], [3538.803005010006, 4896.473477001302], [3531.5102656468516, 4896.5678656362], [3526.112566864351, 4900.980741003528], [3521.4283111239783, 4904.97919458244], [3514.93066195515, 4907.651118721813], [3507.4590096925385, 4909.307885545306], [3497.005482994602, 4910.162680119276]]}, "properties": {"id": "water:way:736936052", "osm_type": "way", "osm_id": "736936052", "name": "", "tags": {"waterway": "stream"}}}, {"type": "Feature", "geometry": {"type": "LineString", "coordinates": [[3490.4079628027976, 4911.131464839913], [3484.697355618817, 4916.380716360174], [3479.4101903628325, 4921.796868256293], [3475.6271255890606, 4924.396751122549], [3469.7671779050725, 4929.797631897032], [3465.1333986658137, 4937.354065193795], [3460.533764543594, 4943.933347785845], [3455.097869713092, 4949.478922368027], [3450.891101954039, 4951.923030807637], [3445.9962444806006, 4953.226240145974], [3439.292135993601, 4953.047450399026], [3436.001251075533, 4953.237548358738]]}, "properties": {"id": "water:way:736936053", "osm_type": "way", "osm_id": "736936053", "name": "", "tags": {"waterway": "stream"}}}, {"type": "Feature", "geometry": {"type": "LineString", "coordinates": [[3410.605564140831, 5469.611758529209], [3416.671842288226, 5456.758609364741], [3404.5177440686384, 5445.131168237887], [3416.484410385019, 5439.570793198422], [3418.130470498698, 5427.188825336285], [3422.381117612007, 5415.52095392067], [3431.9970580093795, 5399.428172829561], [3437.2017355546122, 5395.5769284320995]]}, "properties": {"id": "water:way:736940497", "osm_type": "way", "osm_id": "736940497", "name": "", "tags": {"waterway": "stream"}}}, {"type": "Feature", "geometry": {"type": "LineString", "coordinates": [[2882.1015543601243, 5636.835220823996], [2875.6766898523783, 5634.074744471349], [2867.7089343841653, 5624.371256092563], [2854.70683256106, 5608.48774002213], [2841.257253887248, 5593.036930013448], [2835.4285490616458, 5584.246154060587], [2827.815973789082, 5577.5752571308985], [2815.6883388942806, 5561.281615076587], [2804.4545853849268, 5544.155954191461], [2794.2021184217883, 5538.704197409563], [2793.0981785694603, 5531.339410360903], [2786.692755623837, 5528.146085858345], [2784.2097657177364, 5523.767745576799], [2781.2339051618474, 5521.53248539567]]}, "properties": {"id": "water:way:736940502", "osm_type": "way", "osm_id": "736940502", "name": "", "tags": {"waterway": "stream"}}}, {"type": "Feature", "geometry": {"type": "LineString", "coordinates": [[402.0841201931471, 2918.687758036889], [361.784655468422, 2985.4055324979126], [321.66983916342724, 3044.7930824942887], [284.3382810498588, 3114.1785452878103], [250.46150123386178, 3183.6435049148276], [201.42738074914087, 3253.1564690209925], [167.62528871756513, 3286.8032137770206], [92.7572857477935, 3333.624077465385], [75.30107892560773, 3355.173292301595], [65.22625693096779, 3376.0709122586995], [4.242544353357516, 3389.1468730168417], [-84.68756632786244, 3410.56212568935], [-162.82208875590004, 3433.560815183446], [-222.8624502872117, 3443.64041908551], [-263.58156796661206, 3460.2819945411757], [-319.7161239926936, 3486.868647863157], [-381.61747475119773, 3518.484429258853], [-408.41173991479445, 3544.9036433780566], [-423.0141690116143, 3548.757221632637], [-428.69073700287845, 3554.955261591822], [-436.5189235029975, 3559.441212028265], [-439.79973781632725, 3569.447149211541], [-446.6426190509228, 3582.9055588161573], [-468.7788438805146, 3593.586811508052], [-479.8437912428053, 3598.0328712081537], [-492.48167305765674, 3607.6837383136153], [-500.8510418595979, 3627.048377452418], [-507.26684818137437, 3639.6177418697625], [-525.7900274903513, 3648.9263108382], [-553.9414607872022, 3658.3729837285355], [-568.7112045607064, 3666.8014571433887], [-579.8084163238527, 3678.0708087161183], [-610.2731206968892, 3692.9477289486676], [-644.2332994525786, 3714.0020040934905], [-655.2688582910923, 3730.3521577632055], [-671.1931165682618, 3745.60808575619], [-689.3306500130566, 3762.7624664912], [-710.1991898691049, 3771.6214475696906], [-749.7582693791483, 3781.3609054042026], [-783.294654252124, 3793.6135066654533], [-810.1956444811076, 3800.3486051894724], [-831.9618667248869, 3805.861517801881], [-846.5953759298427, 3816.839207453653], [-860.8182033724152, 3819.792227371596], [-896.3383351359516, 3825.1364581538364], [-925.7358994918177, 3829.4620254822075], [-930.7206356520765, 3829.2657036036253], [-939.4800889781909, 3828.91565180663], [-948.8076029511867, 3824.9499232368544], [-964.9588590498315, 3818.850724252872], [-977.4076181304408, 3821.2721921531484], [-991.2938831327483, 3826.190288168378], [-1002.2560384748504, 3824.5382934222], [-1018.2595901450841, 3820.2101805014536], [-1027.9109868406085, 3820.937339632772], [-1054.480819378863, 3822.4028891492635], [-1072.0133775615832, 3824.0922616617754], [-1113.214477057103, 3828.7009711787105], [-1136.8088694749167, 3829.077183028683], [-1166.9586808964377, 3824.759855600074], [-1189.9777316759573, 3817.9049230944365], [-1204.2414586747764, 3814.978338709101], [-1223.8025940522784, 3811.1473876396194], [-1247.2799649117514, 3807.014780735597], [-1264.8692010545637, 3803.424077745527], [-1276.547292045434, 3806.6440738057718], [-1286.609305029735, 3807.949984189123], [-1295.63619873696, 3807.326725050807], [-1308.87293985812, 3802.4709717091173], [-1325.8256433132337, 3796.7519653448835], [-1346.6378212368581, 3796.011924671009], [-1361.2407998761628, 3798.3782098321244], [-1372.3183459957363, 3793.389663403854], [-1383.9615896111354, 3787.7974260430783], [-1401.0054110030178, 3785.5882435059175], [-1431.8406294976594, 3792.434928146191], [-1455.1248060794314, 3803.578558231704], [-1467.9200647022808, 3804.4248849805444], [-1482.735504203476, 3799.7286021681502], [-1496.4145651322324, 3789.1936766607687], [-1506.1823266574647, 3779.149148894474], [-1517.9370978508377, 3777.8553350530565], [-1534.4115868472727, 3783.896640858613], [-1549.978456018609, 3785.4492683643475], [-1578.6873059564969, 3786.272429002449], [-1601.3103045508033, 3786.8643851317465], [-1605.1562203499489, 3786.6536141745746], [-1622.7014464304084, 3785.7212194595486], [-1643.345304872957, 3785.9644837062806], [-1658.5777395657497, 3789.8821648238227], [-1671.3454792060656, 3804.6330483220518], [-1677.077373810229, 3805.8516243817285], [-1685.7809104514308, 3800.536097398959], [-1689.1122691190103, 3792.614556901157], [-1690.5701768627623, 3780.6293948618695], [-1703.2032431779662, 3775.2121475515887], [-1721.151738673565, 3777.6926432410255], [-1745.4564976386027, 3782.742664567195], [-1765.2771407243563, 3781.4405579185113], [-1778.7567577312002, 3778.1576354829594], [-1789.4553824041504, 3781.6039108773693], [-1796.3791612513596, 3790.8159537045285], [-1803.8335764902877, 3798.069346108474], [-1827.1770988070639, 3803.733563972637], [-1849.862581986119, 3807.0587460696697], [-1855.9515649909154, 3807.101280381903], [-1866.6492782934802, 3802.7124291183427], [-1877.215435561142, 3793.2368526821956], [-1903.5000207903795, 3791.1789322560653], [-1922.8850690758554, 3788.3326172605157], [-1938.8888955822913, 3783.995616096072], [-1942.7165479568066, 3781.8294740179554], [-1951.5087495123735, 3779.935077831149], [-1961.797922155005, 3778.7910761609674], [-1969.1651085553458, 3771.1210020128638], [-1976.3757696949178, 3761.1433032434434], [-1980.0510314044077, 3758.7032770859078], [-1991.023501160671, 3757.44163484592], [-1999.9086681887275, 3751.3327549919486], [-2012.7907026205212, 3740.230499042198], [-2026.3123173386557, 3731.0677780071273], [-2050.029306926066, 3728.6878162743524], [-2077.807518251124, 3731.304268507287], [-2105.3851624302333, 3741.1611210657284], [-2125.1498587954557, 3760.822220484726], [-2133.3828754889546, 3775.102020901628], [-2145.3049329424975, 3780.284355887212], [-2168.151559750433, 3782.0393981477246], [-2182.1247302009724, 3782.8566684769467], [-2200.580830688239, 3782.180116874166], [-2215.7519743815064, 3775.9203644543886], [-2227.6936311587924, 3774.0450584068894], [-2242.0974320125533, 3776.218338525854], [-2253.5732891779626, 3779.4452315596864], [-2263.8135307752527, 3780.1589666306973], [-2272.7596564849373, 3776.4050161503255], [-2282.7777879959904, 3768.5113027300686], [-2283.8194069766905, 3763.1942469505593], [-2292.2289457813604, 3761.7991860471666], [-2298.4116978903767, 3765.162735636346], [-2312.3800014356384, 3765.7914689118043], [-2320.5432149686385, 3762.0466700531542], [-2328.9980409588898, 3754.582344893366], [-2341.6568195306463, 3750.1436825208366], [-2371.795711751329, 3752.8893810762092], [-2389.5147558707977, 3753.9994596326724], [-2412.0287683933275, 3750.6849014824256], [-2430.4800785189727, 3749.820177075453], [-2453.9761119696777, 3753.904463171959], [-2467.3632839903003, 3762.3726167716086], [-2472.677781973616, 3770.270906422287], [-2476.566997733782, 3776.4388426356018], [-2483.776333480375, 3781.7321255737916], [-2493.244166795397, 3782.8662145389244], [-2508.523110734066, 3781.0943348845467], [-2527.657277616672, 3783.546415065415], [-2549.869249598938, 3799.2224622340873], [-2558.020601458382, 3810.3707471890375], [-2561.1754785287194, 3825.959916913882], [-2563.708074810682, 3832.7518804650754], [-2574.750864894013, 3834.2233734382316], [-2593.4036575870123, 3833.353895135224], [-2605.9817200083053, 3833.6189447874203], [-2613.911247300217, 3836.159817109816], [-2625.2918846438406, 3842.9128545885906], [-2632.954177795793, 3842.9155732132494], [-2647.2818648198154, 3842.1465147323906], [-2658.2442537312163, 3840.4972397433594], [-2666.123133993824, 3841.0723363477737], [-2674.510551191983, 3846.346593826078], [-2683.1672192240367, 3846.7127503361553], [-2698.166907782317, 3841.6254656063393], [-2706.6220206188736, 3834.161625051871], [-2730.145291940309, 3823.9538319436833], [-2741.81978249643, 3819.54126488138], [-2753.0696864055935, 3821.2188817514107], [-2769.5920509118587, 3821.9606511965394], [-2784.3882013711846, 3816.48982130643], [-2798.124559338903, 3808.112255391665], [-2808.5307938038604, 3792.3741629980505], [-2828.039182116743, 3778.9358874429017], [-2862.648741539102, 3764.3424364970997], [-2880.4530206628842, 3753.704363903962], [-2897.7892375877127, 3739.9331818958744], [-2917.3507025778526, 3728.8610514327884], [-2948.8619071840076, 3715.9036540780216], [-2964.081592962728, 3703.965262738988], [-2985.384934118949, 3691.859449031763], [-2997.0352011828218, 3678.6347649358213], [-3012.5899303267943, 3664.331768735312], [-3024.624855841277, 3658.532353678718], [-3037.5081076015485, 3655.2673293054104], [-3047.018701245892, 3650.521932733245], [-3053.0427193283103, 3640.175875822082], [-3058.1930216558976, 3625.362315583974], [-3062.9591125886654, 3617.5936310132965], [-3068.68113378773, 3607.433168885298], [-3074.9848294593394, 3602.314526170492], [-3082.4501328505576, 3598.410794735886], [-3100.017098900047, 3592.3360795201734], [-3113.9429463745328, 3589.7334881722927], [-3125.10510028468, 3588.6133347302675], [-3141.195581314503, 3587.6111663989723], [-3156.717276944197, 3587.4127143537626], [-3165.550565983518, 3586.785852734931], [-3174.741229506675, 3584.982886891812], [-3184.470755236107, 3581.21008496359], [-3194.7038046309026, 3574.090253963135], [-3220.0605446874397, 3574.228551449254], [-3241.180473185261, 3577.5986170582473], [-3257.5522410798585, 3587.5587614951655], [-3267.4818549642805, 3599.451303451322], [-3279.264565708698, 3606.7841451736167], [-3287.2040281652007, 3609.7145382650197], [-3299.5415567874443, 3607.8310168152675], [-3306.5144824922318, 3603.9290577415377], [-3317.0871198459063, 3602.490933678113], [-3333.5499123181216, 3608.1367960488424], [-3347.651600515819, 3606.4081669328734], [-3360.0241759876953, 3605.8908466137946], [-3370.8425798502285, 3614.037644376047], [-3382.0762658700114, 3622.9517709901556], [-3403.1910937412176, 3626.133531752974], [-3422.001787984278, 3631.719413672574], [-3437.1851209760644, 3641.321459549479], [-3450.3874694327824, 3650.1852348838], [-3459.8369336464675, 3650.9210656918585], [-3473.56820408802, 3657.4263362316415], [-3493.3649950298714, 3670.622258760035], [-3506.7648757772986, 3687.516287521459], [-3514.619770139572, 3702.5963881388307], [-3524.498325017048, 3719.7695979624987], [-3530.780462823808, 3728.2995787570253], [-3535.384318993427, 3731.515751170926], [-3545.0404932906386, 3732.446446773596], [-3555.093920873129, 3733.755960410461], [-3559.5140678121243, 3737.36583380308], [-3561.5067092289682, 3746.127962381579], [-3558.7740246577887, 3754.8110770611092], [-3551.0272712392034, 3766.956739009358], [-3543.5875317145837, 3783.2066183574498], [-3537.54756321921, 3792.952472235076], [-3536.4287244173465, 3803.1724034538493], [-3537.968649232993, 3809.3899715468287], [-3543.001671489328, 3821.7973016686738], [-3551.438434510841, 3829.0273674773052], [-3554.740533336182, 3835.0108666652814], [-3552.828783467412, 3844.851012090221], [-3549.84059499891, 3850.806707665324], [-3549.4168831842253, 3857.2746252855286], [-3551.8633842917625, 3860.746114693582], [-3559.9659092539223, 3862.4945794418454], [-3564.599533707835, 3866.8769435985014], [-3572.7448695241474, 3881.960773166269], [-3574.7212227628333, 3897.9694579495117], [-3584.6078392337076, 3907.9075100654736], [-3588.7878100710222, 3917.5916308825836], [-3584.808974174666, 3931.20779859554], [-3577.9834011391504, 3948.419926387258], [-3571.987612269353, 3950.4294857764617], [-3566.5293213439872, 3958.2933206437156], [-3567.728749632137, 3970.1320378929377], [-3576.4432359357597, 3984.7456271955743], [-3593.712812085636, 4007.753241554834], [-3603.7126217768528, 4025.9014430250973], [-3603.242538021179, 4042.5395855521783], [-3606.8906100754393, 4056.994001932442], [-3606.5822454738664, 4068.2823106087744], [-3601.5135704592103, 4079.692530045286], [-3602.4522345644655, 4093.016052864492], [-3606.6214002909837, 4104.489763956517], [-3603.672489118646, 4117.334934673272], [-3595.021939689759, 4128.536825623363], [-3571.2478450790513, 4142.5044381143525], [-3569.6622014119057, 4150.257970284671], [-3575.308269553934, 4161.39376251027], [-3580.0668164220406, 4172.552291679196], [-3574.5933553738287, 4179.816380455159], [-3570.551254065591, 4184.965545017272], [-3574.634423783631, 4204.743383467197], [-3574.5291829154594, 4235.619971441105], [-3568.631365961046, 4261.299248226918], [-3559.797037786222, 4276.662437580526], [-3554.804596516653, 4291.038118276745], [-3548.203464272083, 4312.578910604119], [-3542.439043658669, 4320.139446447603], [-3530.227147320751, 4321.51925404463], [-3528.778030833113, 4321.678635395132], [-3515.5370650378754, 4327.952647015452], [-3495.8990949915024, 4328.755968447775], [-3484.6982302893884, 4325.797825517133], [-3473.5668976592133, 4327.127815718763], [-3468.553789540776, 4329.034505432472], [-3464.4463531726506, 4337.297261928208], [-3460.969142947928, 4352.8233565520495], [-3459.9957183969673, 4361.461445585825], [-3459.014991462347, 4369.499581049196], [-3461.344245078275, 4373.440815063193], [-3469.8197653135285, 4378.424786997028], [-3474.3032343377126, 4384.8336234996095], [-3472.9740661076503, 4391.2469701413065], [-3462.1579073325265, 4405.18298551254], [-3454.327515872079, 4413.396707632579], [-3445.708092320361, 4425.787201850675], [-3427.6483111185953, 4441.531587727368], [-3420.8720749194035, 4461.88786134962], [-3423.142119121854, 4478.633617987856], [-3428.670975691988, 4482.992921356112], [-3445.038257679669, 4487.518907189369], [-3453.928891366697, 4499.882840127684], [-3468.333588591777, 4515.7173978202045], [-3475.6208912887378, 4535.768699403852], [-3474.6572362257866, 4551.085889345035], [-3465.0450712534366, 4563.479588765651], [-3414.9928372170543, 4583.656181102619], [-3385.1035150886746, 4615.01878709998], [-3367.8517482170137, 4646.501932898536], [-3362.632400621078, 4671.8306567613035], [-3365.457657229039, 4691.962967047468], [-3366.9919133010553, 4705.826901933178], [-3373.6851567670237, 4729.149668450467]]}, "properties": {"id": "water:way:1101505945", "osm_type": "way", "osm_id": "1101505945", "name": "Brewers Brook", "tags": {"name": "Brewers Brook", "waterway": "stream"}}}, {"type": "Feature", "geometry": {"type": "LineString", "coordinates": [[6126.04565174866, 660.1233523050323], [6139.723075504531, 696.8709585107863], [6150.834812921123, 740.3624420547858], [6156.958930323832, 753.7876602327451], [6170.168065724778, 795.2908284701407], [6181.022939054295, 835.7189468331635], [6196.118856438785, 870.4711164915934], [6219.857484124717, 901.3780640894547], [6224.196322808159, 917.4781367713585], [6227.281149454997, 929.4652554830536], [6221.125681802281, 955.1400623545051], [6214.769102216465, 975.7078587077558], [6216.752838404733, 1003.3144675036892], [6226.498426393024, 1059.339753901586], [6235.0276143630035, 1097.3154819859192], [6247.511381627875, 1140.4997963123024], [6258.166346634156, 1162.8949137218297], [6271.806010736967, 1188.4273168509826], [6293.0893896743655, 1221.6467024683952], [6308.468970343471, 1245.8591936081648], [6317.090628173668, 1267.8548470912501], [6336.935676112305, 1303.758539950475], [6348.553427259438, 1315.63218253199], [6359.747874013148, 1330.9065583460033], [6370.374754990684, 1354.3125648694113], [6382.101319823996, 1374.6918638627976], [6388.9850468662335, 1385.081430260092], [6406.11325906089, 1395.4038741160184], [6419.380024806946, 1396.7857017638162], [6435.786860250286, 1395.8629717882723], [6442.570623904467, 1397.4138070866466], [6451.277141972794, 1403.4292172454298], [6456.522247681278, 1411.3848416125402], [6460.812808103394, 1429.5289067961276], [6468.181227292749, 1447.067252852954], [6492.155627922155, 1469.1456793425605], [6525.35971287603, 1490.4406572915614], [6547.320564155816, 1511.0976420808583], [6560.877321177628, 1527.1033037817106], [6567.393895976013, 1538.5056707710028], [6569.544753555558, 1547.0666312798858], [6564.82620154717, 1570.0570703465492], [6564.144623356289, 1595.2020209478214], [6557.584813402034, 1623.2441504281014], [6557.041430122335, 1643.291252374649], [6563.062325630686, 1660.4597740564495], [6577.7708506277995, 1684.3213856806979], [6602.851590712671, 1715.5998167982325], [6618.026775885723, 1735.050577498041], [6630.72344262281, 1744.9200721047819], [6645.298454539967, 1748.3718363381922], [6658.8010201897705, 1753.8396329786628], [6666.382182997535, 1767.37165554706]]}, "properties": {"id": "water:way:1102693328", "osm_type": "way", "osm_id": "1102693328", "name": "", "tags": {"waterway": "river"}}}, {"type": "Feature", "geometry": {"type": "Polygon", "coordinates": [[[4496.593027386698, 1821.3169627254829], [4503.805716475588, 1820.7211416652426], [4511.5708581893705, 1809.7592856073752], [4519.765807506861, 1792.7071517063305], [4523.325248401845, 1779.2429874287918], [4523.035225542379, 1760.2295899689198], [4521.384833548567, 1742.246713954024], [4520.539058763068, 1733.7215297007933], [4516.924063871265, 1729.367825240828], [4512.322768595186, 1726.8549078302458], [4491.074226701981, 1726.1520827971399], [4474.325194848585, 1726.6368722394109], [4466.823398862849, 1727.7695892406628], [4460.878424139344, 1730.7890163306147], [4459.573132336955, 1749.3595376983285], [4461.039797001751, 1764.5588682536036], [4459.753864140366, 1772.7601792663336], [4456.840303836158, 1781.7181170312688], [4452.912251944304, 1789.048401851207], [4454.886270270334, 1794.9585773739964], [4461.684463958605, 1800.1866613468155], [4474.583801282104, 1806.5118468999863], [4491.215945014032, 1817.9163424586877], [4496.593027386698, 1821.3169627254829]]]}, "properties": {"id": "water:way:1103203859", "osm_type": "way", "osm_id": "1103203859", "name": "", "tags": {"basin": "retention", "natural": "water", "water": "reservoir"}}}, {"type": "Feature", "geometry": {"type": "Polygon", "coordinates": [[[4435.884145330754, 1897.035327567719], [4430.409206354641, 1897.2887677261606], [4422.945682452526, 1892.1762593332678], [4415.6434194589965, 1885.8677254235372], [4407.023665550747, 1878.9904180662706], [4400.354668326327, 1869.2422902444378], [4400.035563824349, 1861.2536104992032], [4402.754690241767, 1854.4244078751653], [4413.088487250265, 1841.9418948478997], [4418.277424930129, 1837.2905919710174], [4427.64141316514, 1823.9263112712651], [4435.861132744933, 1813.1766117075458], [4445.452263226849, 1808.5210078498349], [4451.334413630306, 1808.1451134774834], [4458.974212806439, 1811.8063859967515], [4486.890525016701, 1829.8262060722336], [4491.082831914886, 1837.6519462820143], [4489.580221299431, 1843.9913426712155], [4483.507055602386, 1851.7976152729243], [4460.728936717962, 1875.6389187369496], [4445.07609919121, 1892.5024075405672], [4435.884145330754, 1897.035327567719]]]}, "properties": {"id": "water:way:1103203860", "osm_type": "way", "osm_id": "1103203860", "name": "", "tags": {"natural": "water", "water": "reservoir"}}}, {"type": "Feature", "geometry": {"type": "LineString", "coordinates": [[713.8369765973184, 5294.920542969368], [730.1490458437474, 5303.317810616456], [753.9367565915454, 5311.389139589854], [795.508119092905, 5332.675730259158], [824.9233213723637, 5349.9198701269925], [863.3835234716535, 5367.935386905447], [885.0611621321877, 5374.88477863837], [905.626216164208, 5383.927789660171], [926.5044192932546, 5380.753546771593], [949.4783169780858, 5379.234920851886], [961.7122808155837, 5380.612529444508], [968.992471859674, 5387.717014095746], [977.5191940560471, 5387.941298099235], [996.3516214209376, 5381.523698827252], [1016.1353377279593, 5374.542128934525], [1038.5836494998075, 5370.298125012778], [1063.2225159679074, 5369.012636879459], [1079.60030621849, 5374.278327421285], [1098.6697028994095, 5375.424871229567], [1112.4322434662608, 5381.599851321429], [1122.3915921301814, 5384.440517299809], [1135.339408043772, 5384.459082071669], [1143.6684009915916, 5387.901478171349], [1149.2548418877413, 5384.825459734537], [1159.511300912127, 5376.382016227581], [1172.84077018674, 5374.476837617345], [1185.1432560401736, 5374.478503796272], [1208.3981387638487, 5376.7025199579075], [1223.3664547924418, 5386.132600787096], [1234.2598501172615, 5390.287283252925], [1242.4527857181383, 5386.635380807333], [1255.8419597324682, 5382.464648910798], [1268.042311772122, 5386.3426231769845], [1276.2521374225616, 5394.3055164003745], [1285.9481444968842, 5394.883314074948], [1298.310311131645, 5392.6194707928225], [1302.3685858858516, 5398.2168192463], [1308.6087702200748, 5407.094783054665], [1320.953525017947, 5405.797456826083], [1338.010495815426, 5409.481253357604], [1349.7012968197232, 5420.436797703616], [1361.5618982681772, 5437.198443804868], [1372.191475854488, 5439.41253739316], [1382.0063029270386, 5435.481252045371], [1390.0379230579128, 5437.9491905700415], [1395.4288277280284, 5442.292492796667], [1405.4732105544535, 5441.901605025865], [1414.999355582404, 5436.673509286717], [1425.8921376896324, 5441.1508096940815], [1430.832930122153, 5450.316943466663], [1438.7372325350298, 5457.305059595965], [1456.5921522980789, 5455.519803549163], [1479.0829037526855, 5449.978031619452], [1501.3443976527778, 5452.82150156796], [1519.632509887335, 5446.857788681053], [1531.2640524102608, 5447.80932887923], [1538.8709448708687, 5454.1339829918], [1543.4213382586604, 5465.546089206822], [1551.4015791217098, 5469.9578554127365], [1570.0375099044759, 5475.284373428673], [1577.5930334416917, 5483.552705109119], [1592.7904761297395, 5484.276165898889], [1605.661623572465, 5487.194432915188], [1617.3348607212538, 5498.79463718459], [1632.7273798432434, 5504.358021165244], [1644.969848004519, 5506.626257836819], [1658.6307231838582, 5504.397375253029], [1666.2716035655467, 5509.122635814361], [1677.1981440213276, 5512.312003578991], [1693.863525664201, 5518.887199469842], [1713.229647965869, 5521.010293186642], [1723.773919928586, 5526.445827445015], [1726.7531392531237, 5536.205012702383], [1734.8346164906397, 5548.999803779647], [1745.4303277975414, 5552.180548242293], [1762.130612653098, 5545.208610619418], [1773.3556773408782, 5536.791667420417], [1783.9264728677226, 5529.002076804638], [1793.8425152950222, 5533.465300456621], [1805.3376942223404, 5539.5707228556275], [1818.217176893726, 5542.167316768318], [1826.5794244850986, 5544.333334931172], [1826.655201385147, 5553.682402362116], [1838.1732401342597, 5583.350652403198], [1848.410495895194, 5600.3926481399685], [1855.4912498972844, 5601.869089981541], [1865.9510556525784, 5598.277873198502], [1876.3431942089228, 5596.941072088666], [1890.215647389763, 5598.919441066682], [1899.444879347342, 5592.717233881354], [1922.3183758043451, 5584.608570377342], [1945.1148045569425, 5579.721072463319], [1960.142727449187, 5574.639263167977], [1974.6264665363124, 5577.923227479681], [1983.769167936407, 5587.200979913585], [1983.6328285617055, 5592.354381047189], [1995.1018882734934, 5599.437506825663], [2016.003905043006, 5604.825261079706], [2038.1621704512509, 5611.546695164405], [2056.0068384915357, 5622.344106507488], [2082.944404139649, 5632.093010829762], [2091.9350430907216, 5634.909517919645], [2107.6081412761705, 5630.156317861751], [2117.397606036393, 5627.192367501557], [2125.4117128631333, 5630.3053782153875], [2136.9151450210484, 5635.778101740405], [2155.6691812849604, 5636.919351610355], [2164.023450151435, 5639.074477861635], [2171.9863413245184, 5644.120071158744], [2182.478600089904, 5651.49997717794], [2198.1586057374952, 5658.372688865289], [2214.3236570069566, 5659.123214601539], [2224.3926703536417, 5658.100707692094], [2231.9906314796535, 5664.425963038579], [2239.919015080901, 5670.771096702665], [2240.9451245437376, 5680.790009775199], [2247.166285505402, 5690.635371846147], [2254.4156261176104, 5697.929474665783], [2270.6057201275835, 5698.036177632399], [2283.341648335685, 5693.850182515569], [2292.3167773204623, 5685.063256659545], [2303.8991487872554, 5675.36738935858], [2312.2955470018787, 5676.234566617757], [2320.8780051548965, 5682.263709818013], [2333.1971196254017, 5681.623325701803], [2348.9988712277263, 5671.717071829364], [2354.517380861216, 5671.218749517575]]}, "properties": {"id": "water:way:1204279891", "osm_type": "way", "osm_id": "1204279891", "name": "", "tags": {"waterway": "stream"}}}, {"type": "Feature", "geometry": {"type": "LineString", "coordinates": [[2781.2339051618474, 5521.53248539567], [2776.4211728608934, 5517.3367515662685]]}, "properties": {"id": "water:way:1436165113", "osm_type": "way", "osm_id": "1436165113", "name": "", "tags": {"layer": "-1", "tunnel": "culvert", "waterway": "stream"}}}, {"type": "Feature", "geometry": {"type": "Polygon", "coordinates": [[[3892.4102136244765, 2006.9777206713334], [3899.5682544122683, 2006.6020918758586], [3910.1614179782337, 1984.6674857167527], [3912.787929341779, 1971.9116927236319], [3909.845855886815, 1964.4309442313388], [3887.017686456791, 1952.1399904517457], [3858.0404037110275, 1945.3865591445938], [3846.474919160013, 1950.201418755576], [3836.4230847252766, 1962.7589527731761], [3829.358058921993, 1970.5392849799246], [3830.2831585300155, 1978.5440823966637], [3847.7483466154663, 1988.4131863107905], [3866.6265818293905, 1998.5979356300086], [3892.4102136244765, 2006.9777206713334]]]}, "properties": {"id": "water:way:1545457253", "osm_type": "way", "osm_id": "1545457253", "name": "", "tags": {"natural": "water", "water": "pond"}}}]}