{
  "type": "FeatureCollection",
  "coordinate_system": {
    "kind": "local_game_meters",
    "not_wgs84": true,
    "axes": {
      "geojson_x": "local_east_m",
      "geojson_y": "local_north_m"
    },
    "game_axes": {
      "x": "east_m",
      "y": "elevation_m",
      "z": "negative_north_m"
    },
    "local_origin": {
      "easting_m": 754656.9597849031,
      "northing_m": 4071830.496376684,
      "longitude": 137.8527326822244,
      "latitude": 36.75806982606003
    },
    "projected_crs": "EPSG:32653",
    "note": "This is not RFC 7946 WGS84 GeoJSON. Convert X,Y to game X,Z via game_axes."
  },
  "attribution": "\u00a9 OpenStreetMap contributors (ODbL)",
  "layer": "piste-trails",
  "features": [
    {
      "type": "Feature",
      "geometry": {
        "type": "LineString",
        "coordinates": [
          [
            2507.088702053996,
            3134.190896663349
          ],
          [
            2508.7817004207755,
            3115.8154037569184
          ],
          [
            2510.474698787555,
            3097.4399108504876
          ],
          [
            2507.172939791635,
            3079.6802377949934
          ],
          [
            2503.871180795715,
            3061.9205647394992
          ],
          [
            2504.398134181043,
            3044.4392104122476
          ],
          [
            2504.925087566371,
            3026.9578560849964
          ],
          [
            2505.452040951699,
            3009.4765017577447
          ],
          [
            2497.407345096193,
            2990.1484828703105
          ],
          [
            2489.362649240686,
            2970.8204639828764
          ],
          [
            2481.31795338518,
            2951.4924450954422
          ],
          [
            2471.8531403780603,
            2936.8902675068625
          ],
          [
            2462.388327370941,
            2922.2880899182833
          ],
          [
            2452.9235143638216,
            2907.6859123297036
          ],
          [
            2447.090027066646,
            2894.625995989889
          ],
          [
            2443.6055506772827,
            2883.069675384555
          ],
          [
            2442.490056527575,
            2864.4235112322494
          ],
          [
            2441.374562377867,
            2845.777347079944
          ],
          [
            2440.259068228159,
            2827.1311829276383
          ],
          [
            2439.143574078451,
            2808.4850187753327
          ],
          [
            2434.419439299323,
            2790.329902373138
          ],
          [
            2429.6953045201954,
            2772.174785970943
          ],
          [
            2424.9711697410676,
            2754.019669568748
          ],
          [
            2420.24703496194,
            2735.8645531665534
          ],
          [
            2409.3339764333095,
            2722.0096811765807
          ],
          [
            2398.4209179046798,
            2708.1548091866075
          ],
          [
            2387.5078593760495,
            2694.299937196635
          ],
          [
            2376.5948008474197,
            2680.4450652066616
          ],
          [
            2365.6817423187895,
            2666.590193216689
          ],
          [
            2365.4564418989175,
            2649.0815765688894
          ],
          [
            2365.2311414790456,
            2631.57295992109
          ],
          [
            2365.0058410591737,
            2614.0643432732904
          ],
          [
            2364.7805406393018,
            2596.555726625491
          ]
        ]
      },
      "properties": {
        "id": "pistes:way:454962218",
        "name": "\u30b8\u30e3\u30a4\u30a2\u30f3\u30c8\u30b3\u30fc\u30b9",
        "piste_type": "downhill",
        "tags": {
          "name": "\u30b8\u30e3\u30a4\u30a2\u30f3\u30c8\u30b3\u30fc\u30b9",
          "z_order": "0",
          "name:en": "Giant Course",
          "piste:difficulty": "expert",
          "piste:type": "downhill",
          "winter_sports_id": "773558919",
          "winter_sports_name": "\u767d\u99ac\u30b3\u30eb\u30c1\u30ca",
          "State": "Nagano",
          "Country": "Japan",
          "Ski Area": "\u767d\u99ac\u30b3\u30eb\u30c1\u30ca",
          "region": "asia/japan/chubu"
        }
      }
    },
    {
      "type": "Feature",
      "geometry": {
        "type": "LineString",
        "coordinates": [
          [
            3118.836350126192,
            2753.9545157649554
          ],
          [
            3132.012979010062,
            2734.193305906141
          ],
          [
            3145.1896078939317,
            2714.432096047327
          ],
          [
            3146.485585932775,
            2696.970214226438
          ],
          [
            3147.7815639716187,
            2679.50833240555
          ],
          [
            3149.077542010462,
            2662.046450584661
          ],
          [
            3152.622393108051,
            2646.248236988516
          ],
          [
            3156.1672442056392,
            2630.4500233923704
          ],
          [
            3159.712095303228,
            2614.6518097962253
          ],
          [
            3169.3433628443163,
            2601.5477171085463
          ],
          [
            3178.9746303854045,
            2588.4436244208678
          ],
          [
            3188.6058979264926,
            2575.339531733189
          ],
          [
            3204.482752687414,
            2558.925486032851
          ],
          [
            3220.3596074483357,
            2542.5114403325133
          ],
          [
            3230.0351622873372,
            2523.7108107114523
          ],
          [
            3239.710717126339,
            2504.910181090391
          ],
          [
            3249.3862719653407,
            2486.1095514693297
          ],
          [
            3268.9958339177538,
            2461.344820715487
          ],
          [
            3270.762567507685,
            2433.3417433984578
          ],
          [
            3258.9639347363263,
            2407.194475494791
          ],
          [
            3246.2086213137177,
            2390.426032604184
          ],
          [
            3233.4533078911095,
            2373.657589713577
          ],
          [
            3220.697994468501,
            2356.8891468229704
          ],
          [
            3208.1239947319846,
            2345.4484220748614
          ],
          [
            3195.5499949954683,
            2334.007697326752
          ],
          [
            3182.975995258952,
            2322.566972578643
          ],
          [
            3170.4019955224358,
            2311.126247830534
          ],
          [
            3157.8279957859195,
            2299.6855230824244
          ],
          [
            3145.253996049403,
            2288.2447983343154
          ],
          [
            3132.648717135723,
            2276.7760301666067
          ],
          [
            3120.0434382220433,
            2265.3072619988984
          ],
          [
            3107.438159308363,
            2253.8384938311897
          ],
          [
            3094.832880394683,
            2242.369725663481
          ],
          [
            3082.2276014810027,
            2230.900957495772
          ],
          [
            3069.622322567323,
            2219.432189328064
          ],
          [
            3057.0170436536428,
            2207.963421160355
          ]
        ]
      },
      "properties": {
        "id": "pistes:way:454962219",
        "name": "\u30ab\u30e2\u30b7\u30ab\u30b3\u30fc\u30b9",
        "piste_type": "downhill",
        "tags": {
          "name": "\u30ab\u30e2\u30b7\u30ab\u30b3\u30fc\u30b9",
          "z_order": "0",
          "name:en": "Kamoshika Course",
          "piste:difficulty": "intermediate",
          "piste:type": "downhill",
          "winter_sports_id": "773558919",
          "winter_sports_name": "\u767d\u99ac\u30b3\u30eb\u30c1\u30ca",
          "State": "Nagano",
          "Country": "Japan",
          "Ski Area": "\u767d\u99ac\u30b3\u30eb\u30c1\u30ca",
          "region": "asia/japan/chubu"
        }
      }
    },
    {
      "type": "Feature",
      "geometry": {
        "type": "LineString",
        "coordinates": [
          [
            2316.5861751310294,
            3233.1559201548807
          ],
          [
            2332.6936004002637,
            3231.3059494975023
          ],
          [
            2348.801025669498,
            3229.455978840124
          ],
          [
            2364.908450938732,
            3227.6060081827454
          ],
          [
            2381.0158762079664,
            3225.756037525367
          ],
          [
            2396.628022174118,
            3214.0309784826823
          ],
          [
            2408.6060557583696,
            3201.8743512078654
          ],
          [
            2420.584089342621,
            3189.7177239330485
          ],
          [
            2432.5621229268727,
            3177.5610966582317
          ],
          [
            2444.540156511124,
            3165.404469383415
          ],
          [
            2460.177292896842,
            3157.6010762033984
          ],
          [
            2475.81442928256,
            3149.797683023382
          ],
          [
            2491.451565668278,
            3141.9942898433656
          ],
          [
            2507.088702053996,
            3134.190896663349
          ],
          [
            2523.4976926636746,
            3130.391310202889
          ],
          [
            2539.9066832733533,
            3126.591723742429
          ],
          [
            2556.315673883032,
            3122.792137281969
          ],
          [
            2572.724664492711,
            3118.992550821509
          ],
          [
            2589.133655102389,
            3115.1929643610492
          ],
          [
            2605.542645712068,
            3111.3933779005893
          ],
          [
            2621.9516363217467,
            3107.5937914401293
          ],
          [
            2638.3606269314255,
            3103.7942049796693
          ],
          [
            2654.7696175411043,
            3099.9946185192093
          ],
          [
            2671.178608150783,
            3096.1950320587493
          ],
          [
            2687.587598760462,
            3092.3954455982894
          ],
          [
            2703.9965893701406,
            3088.5958591378294
          ],
          [
            2720.405579979819,
            3084.7962726773694
          ],
          [
            2736.8145705894976,
            3080.9966862169094
          ],
          [
            2753.2235611991764,
            3077.1970997564495
          ],
          [
            2769.632551808855,
            3073.3975132959895
          ],
          [
            2786.041542418534,
            3069.5979268355295
          ],
          [
            2801.2488575062366,
            3063.9492046888918
          ],
          [
            2816.4561725939393,
            3058.300482542254
          ],
          [
            2831.6634876816415,
            3052.6517603956163
          ],
          [
            2846.870802769344,
            3047.0030382489786
          ],
          [
            2862.078117857047,
            3041.354316102341
          ],
          [
            2877.2854329447496,
            3035.705593955703
          ],
          [
            2892.4927480324523,
            3030.0568718090653
          ],
          [
            2907.7000631201545,
            3024.4081496624276
          ],
          [
            2922.907378207857,
            3018.75942751579
          ],
          [
            2938.11469329556,
            3013.110705369152
          ],
          [
            2952.9424713825574,
            3001.9589864999675
          ],
          [
            2967.770249469555,
            2990.8072676307834
          ],
          [
            2982.5980275565526,
            2979.6555487615988
          ]
        ]
      },
      "properties": {
        "id": "pistes:way:454962220",
        "name": "\u677f\u5e73\u5c3e\u6839\u30b3\u30fc\u30b9",
        "piste_type": "downhill",
        "tags": {
          "name": "\u677f\u5e73\u5c3e\u6839\u30b3\u30fc\u30b9",
          "z_order": "0",
          "name:en": "Itadaira Ridge Course",
          "piste:difficulty": "advanced",
          "piste:type": "downhill",
          "winter_sports_id": "773558919",
          "winter_sports_name": "\u767d\u99ac\u30b3\u30eb\u30c1\u30ca",
          "State": "Nagano",
          "Country": "Japan",
          "Ski Area": "\u767d\u99ac\u30b3\u30eb\u30c1\u30ca",
          "region": "asia/japan/chubu"
        }
      }
    },
    {
      "type": "Feature",
      "geometry": {
        "type": "LineString",
        "coordinates": [
          [
            1597.8071045033867,
            3008.0665019410662
          ],
          [
            1600.3530497818138,
            2991.021677919198
          ],
          [
            1602.8989950602408,
            2973.9768538973294
          ],
          [
            1605.444940338668,
            2956.932029875461
          ],
          [
            1607.990885617095,
            2939.8872058535926
          ],
          [
            1610.5368308955221,
            2922.842381831724
          ],
          [
            1613.0827761739492,
            2905.797557809856
          ],
          [
            1625.7111391332,
            2884.229647147469
          ],
          [
            1641.5529180460144,
            2875.3979609971866
          ],
          [
            1657.3946969588287,
            2866.566274846904
          ],
          [
            1675.4176565754071,
            2864.186674152501
          ],
          [
            1693.4406161919858,
            2861.807073458098
          ],
          [
            1711.4635758085642,
            2859.427472763695
          ],
          [
            1728.7634077082039,
            2856.4126090912614
          ],
          [
            1746.0632396078436,
            2853.397745418828
          ],
          [
            1763.3630715074833,
            2850.3828817463946
          ],
          [
            1780.662903407123,
            2847.368018073961
          ],
          [
            1796.0173175945279,
            2839.029757769446
          ],
          [
            1811.371731781933,
            2830.6914974649303
          ],
          [
            1826.726145969338,
            2822.353237160415
          ],
          [
            1842.0805601567429,
            2814.0149768558995
          ],
          [
            1857.4349743441478,
            2805.6767165513843
          ],
          [
            1872.789388531553,
            2797.3384562468686
          ],
          [
            1888.1438027189579,
            2789.0001959423535
          ],
          [
            1907.8851406017784,
            2782.7668026094325
          ],
          [
            1927.626478484599,
            2776.5334092765115
          ],
          [
            1947.3678163674194,
            2770.3000159435906
          ],
          [
            1964.4804116757587,
            2768.0010340410904
          ],
          [
            1981.5930069840979,
            2765.7020521385907
          ],
          [
            1998.705602292437,
            2763.4030702360906
          ],
          [
            2015.8181976007763,
            2761.1040883335904
          ],
          [
            2032.9307929091156,
            2758.8051064310907
          ],
          [
            2050.043388217455,
            2756.5061245285906
          ]
        ]
      },
      "properties": {
        "id": "pistes:way:454962221",
        "name": "\u7a17\u7530\u30b3\u30fc\u30b91",
        "piste_type": "downhill",
        "tags": {
          "name": "\u7a17\u7530\u30b3\u30fc\u30b91",
          "z_order": "0",
          "name:en": "Mt. Hieda Course 1",
          "piste:difficulty": "intermediate",
          "piste:type": "downhill",
          "winter_sports_id": "773558919",
          "winter_sports_name": "\u767d\u99ac\u30b3\u30eb\u30c1\u30ca",
          "State": "Nagano",
          "Country": "Japan",
          "Ski Area": "\u767d\u99ac\u30b3\u30eb\u30c1\u30ca",
          "region": "asia/japan/chubu"
        }
      }
    },
    {
      "type": "Feature",
      "geometry": {
        "type": "LineString",
        "coordinates": [
          [
            1860.3707830499625,
            3147.2301474232227
          ],
          [
            1869.499758621697,
            3131.134894832891
          ],
          [
            1878.628734193432,
            3115.0396422425597
          ],
          [
            1887.7577097651665,
            3098.944389652228
          ],
          [
            1896.886685336901,
            3082.8491370618963
          ],
          [
            1906.015660908636,
            3066.753884471565
          ],
          [
            1915.1446364803705,
            3050.6586318812333
          ],
          [
            1927.5917928396957,
            3040.0104870852083
          ],
          [
            1940.0389491990209,
            3029.3623422891833
          ],
          [
            1952.486105558346,
            3018.7141974931583
          ],
          [
            1964.9332619176712,
            3008.0660526971333
          ],
          [
            1977.3804182769964,
            2997.4179079011083
          ],
          [
            1985.741966588772,
            2982.937938666437
          ],
          [
            1994.1035149005475,
            2968.4579694317654
          ],
          [
            2002.465063212323,
            2953.978000197094
          ],
          [
            2010.8266115240986,
            2939.4980309624225
          ],
          [
            2019.188159835874,
            2925.018061727751
          ],
          [
            2027.5497081476497,
            2910.5380924930796
          ],
          [
            2037.556460543846,
            2897.355349736521
          ],
          [
            2047.5632129400426,
            2884.1726069799624
          ],
          [
            2057.569965336239,
            2870.989864223404
          ],
          [
            2067.5767177324356,
            2857.8071214668453
          ],
          [
            2077.5834701286317,
            2844.6243787102867
          ],
          [
            2087.5902225248283,
            2831.441635953728
          ],
          [
            2096.1478791165864,
            2814.1168589961017
          ],
          [
            2104.7055357083445,
            2796.792082038475
          ],
          [
            2113.2631923001027,
            2779.4673050808487
          ],
          [
            2121.820848891861,
            2762.1425281232223
          ],
          [
            2111.0112235724228,
            2742.9687065847684
          ],
          [
            2100.2015982529847,
            2723.7948850463144
          ]
        ]
      },
      "properties": {
        "id": "pistes:way:454962222",
        "name": "\u75db\u5e73\u30b3\u30fc\u30b9",
        "piste_type": "downhill",
        "tags": {
          "name": "\u75db\u5e73\u30b3\u30fc\u30b9",
          "z_order": "0",
          "name:en": "Itadaira Course",
          "piste:difficulty": "advanced",
          "piste:type": "downhill",
          "winter_sports_id": "773558919",
          "winter_sports_name": "\u767d\u99ac\u30b3\u30eb\u30c1\u30ca",
          "State": "Nagano",
          "Country": "Japan",
          "Ski Area": "\u767d\u99ac\u30b3\u30eb\u30c1\u30ca",
          "region": "asia/japan/chubu"
        }
      }
    },
    {
      "type": "Feature",
      "geometry": {
        "type": "LineString",
        "coordinates": [
          [
            2316.5861751310294,
            3233.1559201548807
          ],
          [
            2317.9550188938156,
            3247.3252473669127
          ],
          [
            2303.581014383429,
            3258.6841993342773
          ],
          [
            2289.2070098730424,
            3270.0431513016424
          ],
          [
            2274.833005362656,
            3281.402103269007
          ],
          [
            2246.1587759875692,
            3284.570340400096
          ],
          [
            2219.2674728131387,
            3292.61279038433
          ],
          [
            2202.790738568874,
            3299.539839028381
          ],
          [
            2186.3140043246094,
            3306.4668876724318
          ],
          [
            2169.8372700803448,
            3313.3939363164827
          ],
          [
            2139.0073068457423,
            3319.329895344563
          ],
          [
            2118.053540207562,
            3317.3996712998487
          ],
          [
            2097.099773569382,
            3315.4694472551346
          ],
          [
            2076.1460069312016,
            3313.5392232104205
          ],
          [
            2045.6983237998793,
            3317.1656627659686
          ],
          [
            2027.1109112227568,
            3313.092876215155
          ],
          [
            2008.5234986456344,
            3309.0200896643414
          ],
          [
            1989.936086068512,
            3304.9473031135276
          ],
          [
            1973.8985722851648,
            3308.1218200962758
          ],
          [
            1957.8610585018178,
            3311.296337079024
          ],
          [
            1941.8235447184707,
            3314.470854061772
          ],
          [
            1925.7860309351236,
            3317.6453710445203
          ],
          [
            1912.5884833058808,
            3312.683459965978
          ],
          [
            1899.7038207120495,
            3295.535553310998
          ],
          [
            1885.065674013497,
            3286.191277260116
          ],
          [
            1870.4275273149444,
            3276.8470012092343
          ],
          [
            1855.789380616392,
            3267.5027251583524
          ],
          [
            1848.8714890927076,
            3258.6979348207824
          ],
          [
            1847.9667581320973,
            3248.9743716884404
          ],
          [
            1851.5340910671512,
            3225.112861566711
          ],
          [
            1856.2376628776547,
            3208.327319023665
          ],
          [
            1860.9412346881581,
            3191.541776480619
          ],
          [
            1870.3716191817075,
            3162.5474559986033
          ],
          [
            1860.3707830499625,
            3147.2301474232227
          ],
          [
            1835.2652156992117,
            3141.3438705047593
          ]
        ]
      },
      "properties": {
        "id": "pistes:way:454962223",
        "name": "\u677f\u5e73\u6797\u9593\u30b3\u30fc\u30b9",
        "piste_type": "downhill",
        "tags": {
          "name": "\u677f\u5e73\u6797\u9593\u30b3\u30fc\u30b9",
          "z_order": "0",
          "name:en": "Itadaira Forest Course",
          "piste:difficulty": "easy",
          "piste:type": "downhill",
          "winter_sports_id": "773558919",
          "winter_sports_name": "\u767d\u99ac\u30b3\u30eb\u30c1\u30ca",
          "State": "Nagano",
          "Country": "Japan",
          "Ski Area": "\u767d\u99ac\u30b3\u30eb\u30c1\u30ca",
          "region": "asia/japan/chubu"
        }
      }
    },
    {
      "type": "Feature",
      "geometry": {
        "type": "LineString",
        "coordinates": [
          [
            1489.7876467129681,
            2816.1386562618427
          ],
          [
            1510.2097104081768,
            2826.5925424296875
          ],
          [
            1530.6317741033854,
            2837.046428597532
          ],
          [
            1533.1926287992392,
            2853.021000515049
          ],
          [
            1535.753483495093,
            2868.995572432565
          ],
          [
            1538.3143381909467,
            2884.9701443500817
          ],
          [
            1541.5701533413958,
            2902.691791442223
          ],
          [
            1544.8259684918448,
            2920.413438534364
          ],
          [
            1548.0817836422939,
            2938.1350856265053
          ],
          [
            1551.337598792743,
            2955.8567327186465
          ],
          [
            1559.4064338758278,
            2969.8864333086335
          ],
          [
            1567.4752689589125,
            2983.916133898621
          ],
          [
            1575.5441040419973,
            2997.945834488608
          ],
          [
            1597.8071045033867,
            3008.0665019410662
          ],
          [
            1615.715366516309,
            3011.8921592779457
          ],
          [
            1633.6236285292312,
            3015.717816614825
          ],
          [
            1651.5318905421532,
            3019.543473951705
          ],
          [
            1669.4401525550754,
            3023.3691312885844
          ],
          [
            1687.3484145679977,
            3027.194788625464
          ],
          [
            1707.3436072692275,
            3039.046937067993
          ],
          [
            1716.8318035867997,
            3053.004687119741
          ],
          [
            1724.3145523748826,
            3069.778874365613
          ],
          [
            1738.3511046532076,
            3089.0491878974717
          ],
          [
            1752.3876569315325,
            3108.3195014293306
          ],
          [
            1762.2985377579462,
            3129.6094863153994
          ],
          [
            1769.684610299766,
            3138.894752359949
          ],
          [
            1778.5647425019415,
            3146.325652220752
          ],
          [
            1789.421591313323,
            3151.894485654775
          ],
          [
            1813.813573421212,
            3153.58296758309
          ],
          [
            1825.8830056721345,
            3150.6137509415857
          ],
          [
            1835.2652156992117,
            3141.3438705047593
          ],
          [
            1823.3959433892742,
            3137.6549319685437
          ],
          [
            1810.930245163967,
            3137.75775836315
          ],
          [
            1799.0182597404346,
            3135.4892581813037
          ],
          [
            1788.176071691094,
            3129.4321497101337
          ],
          [
            1781.788091050228,
            3118.7440753942356
          ],
          [
            1779.1717912945896,
            3094.330147214234
          ],
          [
            1773.7100849251729,
            3076.7503124084324
          ],
          [
            1768.248378555756,
            3059.170477602631
          ],
          [
            1769.5760108542163,
            3046.8039452969097
          ],
          [
            1775.1019446919672,
            3027.721740648616
          ],
          [
            1780.6278785297181,
            3008.6395360003226
          ],
          [
            1786.153812367469,
            2989.557331352029
          ],
          [
            1788.7606823678361,
            2966.7332063140348
          ],
          [
            1781.379876031191,
            2956.9704978601076
          ],
          [
            1763.7524971640087,
            2953.5750996242277
          ],
          [
            1746.1251182968263,
            2950.179701388348
          ],
          [
            1735.7557212125976,
            2944.136893412564
          ],
          [
            1726.4073328175582,
            2936.2254988211207
          ],
          [
            1718.0659432946704,
            2926.911584232934
          ],
          [
            1714.1629238934256,
            2905.319071939448
          ],
          [
            1710.2599044921808,
            2883.726559645962
          ],
          [
            1711.4635758085642,
            2859.427472763695
          ],
          [
            1717.0450260156067,
            2849.0991549710743
          ],
          [
            1728.6759627526626,
            2828.92308294354
          ],
          [
            1737.7061733501864,
            2815.4917104472406
          ],
          [
            1746.73638394771,
            2802.060337950941
          ],
          [
            1755.7665945452338,
            2788.6289654546417
          ],
          [
            1764.7968051427576,
            2775.1975929583423
          ],
          [
            1773.8270157402815,
            2761.766220462043
          ],
          [
            1782.857226337805,
            2748.3348479657434
          ],
          [
            1791.8874369353289,
            2734.903475469444
          ],
          [
            1812.611619784846,
            2723.1200008683372
          ],
          [
            1833.335802634363,
            2711.3365262672305
          ],
          [
            1843.9830849450082,
            2707.8469343320467
          ],
          [
            1861.1407599867089,
            2703.109203690896
          ],
          [
            1878.2984350284096,
            2698.371473049745
          ],
          [
            1890.2684213003376,
            2698.731383948121
          ],
          [
            1910.0444906472694,
            2705.212767468455
          ],
          [
            1929.8205599942012,
            2711.694150988789
          ],
          [
            1949.596629341133,
            2718.1755345091224
          ],
          [
            1967.3387783915969,
            2728.412964944262
          ],
          [
            1985.0809274420608,
            2738.6503953794017
          ],
          [
            2002.8230764925247,
            2748.8878258145414
          ],
          [
            2020.696456884034,
            2752.2855728887953
          ],
          [
            2038.5698372755433,
            2755.683319963049
          ],
          [
            2050.043388217455,
            2756.5061245285906
          ],
          [
            2069.2119741996285,
            2752.9344592760317
          ],
          [
            2088.380560181802,
            2749.362794023473
          ],
          [
            2100.2015982529847,
            2723.7948850463144
          ]
        ]
      },
      "properties": {
        "id": "pistes:way:454962224",
        "name": "\u7a17\u7530\u5c71\u9593\u30b3\u30fc\u30b9",
        "piste_type": "downhill",
        "tags": {
          "name": "\u7a17\u7530\u5c71\u9593\u30b3\u30fc\u30b9",
          "z_order": "0",
          "name:en": "Mt Hieda Forest Course",
          "piste:difficulty": "easy",
          "piste:type": "downhill",
          "winter_sports_id": "773558919",
          "winter_sports_name": "\u767d\u99ac\u30b3\u30eb\u30c1\u30ca",
          "State": "Nagano",
          "Country": "Japan",
          "Ski Area": "\u767d\u99ac\u30b3\u30eb\u30c1\u30ca",
          "region": "asia/japan/chubu"
        }
      }
    },
    {
      "type": "Feature",
      "geometry": {
        "type": "LineString",
        "coordinates": [
          [
            2539.6353755315067,
            2134.44222026458
          ],
          [
            2548.434846145916,
            2126.188367307186
          ],
          [
            2558.199938963284,
            2120.2849886682816
          ],
          [
            2575.3033498244768,
            2113.4033075426705
          ],
          [
            2592.4067606856697,
            2106.5216264170595
          ],
          [
            2609.5101715468627,
            2099.6399452914484
          ],
          [
            2626.6135824080557,
            2092.7582641658373
          ],
          [
            2642.864843535237,
            2088.9535559141077
          ],
          [
            2659.1161046624184,
            2085.148847662378
          ],
          [
            2675.3673657895997,
            2081.3441394106485
          ],
          [
            2695.5899105514786,
            2078.292396123366
          ],
          [
            2715.812455313358,
            2075.240652836083
          ],
          [
            2736.035000075237,
            2072.1889095488004
          ],
          [
            2758.9244391395478,
            2068.108882357832
          ],
          [
            2781.8138782038586,
            2064.0288551668637
          ],
          [
            2798.065286283769,
            2060.224435647329
          ],
          [
            2814.31669436368,
            2056.4200161277936
          ],
          [
            2830.5681024435908,
            2052.615596608259
          ],
          [
            2849.8260129336268,
            2049.853478210047
          ],
          [
            2869.083923423663,
            2047.091359811835
          ],
          [
            2882.0244775064057,
            2047.004269843921
          ],
          [
            2906.921609802055,
            2047.7556556779891
          ],
          [
            2930.2536012546043,
            2052.9971285043284
          ],
          [
            2953.5855927071534,
            2058.2386013306677
          ],
          [
            2973.6034385498497,
            2069.816676485585
          ],
          [
            2993.621284392546,
            2081.3947516405024
          ],
          [
            3006.3933236533194,
            2098.7241748694796
          ],
          [
            3019.165362914093,
            2116.053598098457
          ],
          [
            3030.113360140007,
            2131.056586676743
          ]
        ]
      },
      "properties": {
        "id": "pistes:way:454962225",
        "name": "\u3044\u3063\u307d\u3093\u307e\u3064\u30b3\u30fc\u30b9",
        "piste_type": "downhill",
        "tags": {
          "name": "\u3044\u3063\u307d\u3093\u307e\u3064\u30b3\u30fc\u30b9",
          "z_order": "0",
          "name:en": "Ipponmatsu Course",
          "piste:difficulty": "easy",
          "piste:type": "downhill",
          "winter_sports_id": "773558919",
          "winter_sports_name": "\u767d\u99ac\u30b3\u30eb\u30c1\u30ca",
          "State": "Nagano",
          "Country": "Japan",
          "Ski Area": "\u767d\u99ac\u30b3\u30eb\u30c1\u30ca",
          "region": "asia/japan/chubu"
        }
      }
    },
    {
      "type": "Feature",
      "geometry": {
        "type": "LineString",
        "coordinates": [
          [
            2108.233593596262,
            2711.619019519072
          ],
          [
            2125.6588816901203,
            2737.9226895375177
          ],
          [
            2156.867670660373,
            2744.1045064418577
          ],
          [
            2169.7729407178704,
            2734.369011197239
          ],
          [
            2182.678210775368,
            2724.6335159526207
          ],
          [
            2195.5834808328655,
            2714.898020708002
          ],
          [
            2208.488750890363,
            2705.1625254633836
          ],
          [
            2221.3940209478606,
            2695.427030218765
          ],
          [
            2234.299291005358,
            2685.6915349741466
          ],
          [
            2249.6966714328155,
            2674.076347241411
          ],
          [
            2265.094051860273,
            2662.4611595086753
          ],
          [
            2280.4914322877303,
            2650.8459717759397
          ],
          [
            2295.8888127151877,
            2639.230784043204
          ],
          [
            2309.365847529494,
            2630.3956742241667
          ],
          [
            2322.8428823438007,
            2621.5605644051298
          ],
          [
            2336.3199171581073,
            2612.7254545860924
          ],
          [
            2350.5502288987045,
            2604.6405906057917
          ],
          [
            2364.7805406393018,
            2596.555726625491
          ],
          [
            2378.7444128786833,
            2588.6221825447087
          ],
          [
            2392.7082851180653,
            2580.688638463927
          ],
          [
            2406.672157357447,
            2572.7550943831448
          ],
          [
            2420.6360295968284,
            2564.8215503023625
          ],
          [
            2434.5999018362104,
            2556.888006221581
          ],
          [
            2448.563774075592,
            2548.9544621407986
          ],
          [
            2462.5276463149735,
            2541.0209180600164
          ],
          [
            2476.4915185543555,
            2533.0873739792346
          ],
          [
            2490.455390793737,
            2525.1538298984524
          ],
          [
            2504.4192630331186,
            2517.22028581767
          ],
          [
            2518.3831352725006,
            2509.2867417368884
          ],
          [
            2532.347007511882,
            2501.353197656106
          ],
          [
            2546.5272787589565,
            2493.4237442373023
          ],
          [
            2560.7075500060314,
            2485.494290818498
          ],
          [
            2574.887821253106,
            2477.564837399694
          ],
          [
            2589.0680925001807,
            2469.63538398089
          ],
          [
            2603.248363747255,
            2461.705930562086
          ],
          [
            2617.42863499433,
            2453.7764771432817
          ],
          [
            2631.6089062414044,
            2445.847023724478
          ],
          [
            2645.789177488479,
            2437.9175703056735
          ],
          [
            2659.9694487355537,
            2429.9881168868696
          ],
          [
            2674.149719982628,
            2422.0586634680653
          ],
          [
            2688.329991229703,
            2414.1292100492615
          ],
          [
            2702.5102624767774,
            2406.199756630457
          ],
          [
            2716.6905337238522,
            2398.2703032116533
          ],
          [
            2730.8708049709267,
            2390.340849792849
          ],
          [
            2745.051076218001,
            2382.411396374045
          ],
          [
            2759.231347465076,
            2374.481942955241
          ],
          [
            2773.4116187121504,
            2366.552489536437
          ],
          [
            2787.591889959225,
            2358.6230361176326
          ],
          [
            2801.7721612062996,
            2350.693582698829
          ],
          [
            2815.9524324533745,
            2342.7641292800245
          ],
          [
            2830.132703700449,
            2334.8346758612206
          ],
          [
            2844.312974947524,
            2326.9052224424163
          ],
          [
            2858.493246194598,
            2318.9757690236124
          ],
          [
            2872.6735174416726,
            2311.046315604808
          ],
          [
            2886.8537886887475,
            2303.1168621860043
          ],
          [
            2901.034059935822,
            2295.1874087672
          ],
          [
            2915.214331182897,
            2287.257955348396
          ],
          [
            2929.394602429971,
            2279.3285019295918
          ],
          [
            2943.5748736770456,
            2271.399048510788
          ],
          [
            2957.7551449241205,
            2263.4695950919836
          ],
          [
            2971.935416171195,
            2255.5401416731797
          ],
          [
            2986.1156874182698,
            2247.6106882543754
          ],
          [
            3000.295958665344,
            2239.6812348355716
          ],
          [
            3014.476229912419,
            2231.7517814167672
          ],
          [
            3028.6565011594935,
            2223.8223279979634
          ],
          [
            3042.8367724065683,
            2215.892874579159
          ],
          [
            3057.0170436536428,
            2207.963421160355
          ]
        ]
      },
      "properties": {
        "id": "pistes:way:454962226",
        "piste_type": "downhill",
        "tags": {
          "z_order": "0",
          "lit": "yes",
          "name:en": "Ikenota Slope",
          "piste:difficulty": "easy",
          "piste:type": "downhill",
          "winter_sports_id": "773558919",
          "winter_sports_name": "\u767d\u99ac\u30b3\u30eb\u30c1\u30ca",
          "State": "Nagano",
          "Country": "Japan",
          "Ski Area": "\u767d\u99ac\u30b3\u30eb\u30c1\u30ca",
          "region": "asia/japan/chubu"
        }
      }
    },
    {
      "type": "Feature",
      "geometry": {
        "type": "LineString",
        "coordinates": [
          [
            2982.5980275565526,
            2979.6555487615988
          ],
          [
            3003.5220671737334,
            2977.866123415064
          ],
          [
            3019.40070771263,
            2959.7302622688003
          ],
          [
            3027.736332943401,
            2941.610956506338
          ],
          [
            3036.0719581741723,
            2923.4916507438757
          ],
          [
            3044.4075834049436,
            2905.3723449814133
          ],
          [
            3052.743208635715,
            2887.253039218951
          ],
          [
            3062.078864722932,
            2873.3135713594966
          ],
          [
            3071.4145208101486,
            2859.374103500042
          ],
          [
            3080.7501768973657,
            2845.4346356405877
          ],
          [
            3090.0858329845823,
            2831.495167781133
          ],
          [
            3099.4214890717994,
            2817.5556999216788
          ],
          [
            3104.2752043353976,
            2801.655403882498
          ],
          [
            3109.1289195989957,
            2785.755107843317
          ],
          [
            3113.982634862594,
            2769.8548118041363
          ],
          [
            3118.836350126192,
            2753.9545157649554
          ],
          [
            3114.6442131974036,
            2734.057281668065
          ],
          [
            3110.452076268615,
            2714.160047571175
          ],
          [
            3096.458356988217,
            2705.8751483123883
          ],
          [
            3082.4646377078193,
            2697.590249053602
          ],
          [
            3068.470918427421,
            2689.3053497948154
          ],
          [
            3054.477199147023,
            2681.0204505360284
          ],
          [
            3040.4834798666247,
            2672.735551277242
          ],
          [
            3026.489760586227,
            2664.4506520184555
          ],
          [
            3012.496041305829,
            2656.165752759669
          ],
          [
            3005.048887027738,
            2638.4731721409285
          ],
          [
            2997.601732749647,
            2620.7805915221884
          ],
          [
            2990.1545784715563,
            2603.088010903448
          ],
          [
            2992.82907707884,
            2587.2830273137242
          ],
          [
            2995.5035756861234,
            2571.4780437240006
          ],
          [
            2998.1780742934066,
            2555.673060134277
          ],
          [
            3000.85257290069,
            2539.868076544553
          ],
          [
            3003.5270715079737,
            2524.0630929548292
          ],
          [
            3006.2015701152573,
            2508.2581093651056
          ],
          [
            3008.8760687225404,
            2492.453125775382
          ],
          [
            3011.550567329824,
            2476.6481421856583
          ],
          [
            3014.2250659371075,
            2460.8431585959347
          ],
          [
            3016.899564544391,
            2445.0381750062106
          ],
          [
            3019.574063151674,
            2429.233191416487
          ],
          [
            3022.2485617589577,
            2413.4282078267634
          ],
          [
            3024.9230603662413,
            2397.6232242370397
          ],
          [
            3027.597558973525,
            2381.818240647316
          ],
          [
            3030.272057580808,
            2366.0132570575925
          ],
          [
            3032.9465561880916,
            2350.2082734678684
          ],
          [
            3035.621054795375,
            2334.4032898781447
          ],
          [
            3038.2955534026587,
            2318.598306288421
          ],
          [
            3040.970052009942,
            2302.7933226986975
          ],
          [
            3043.6445506172254,
            2286.988339108974
          ],
          [
            3046.319049224509,
            2271.18335551925
          ],
          [
            3048.9935478317925,
            2255.378371929526
          ],
          [
            3051.6680464390756,
            2239.5733883398025
          ],
          [
            3054.342545046359,
            2223.768404750079
          ],
          [
            3057.0170436536428,
            2207.963421160355
          ]
        ]
      },
      "properties": {
        "id": "pistes:way:546853563",
        "name": "\u30e9\u30d3\u30c3\u30c8\u30b3\u30fc\u30b9",
        "piste_type": "downhill",
        "tags": {
          "name": "\u30e9\u30d3\u30c3\u30c8\u30b3\u30fc\u30b9",
          "z_order": "0",
          "name:en": "Rabbit Course",
          "piste:difficulty": "intermediate",
          "piste:type": "downhill",
          "winter_sports_id": "773558919",
          "winter_sports_name": "\u767d\u99ac\u30b3\u30eb\u30c1\u30ca",
          "State": "Nagano",
          "Country": "Japan",
          "Ski Area": "\u767d\u99ac\u30b3\u30eb\u30c1\u30ca",
          "region": "asia/japan/chubu"
        }
      }
    },
    {
      "type": "Feature",
      "geometry": {
        "type": "LineString",
        "coordinates": [
          [
            2234.299291005358,
            2685.6915349741466
          ],
          [
            2252.6923565116244,
            2681.9825651355086
          ],
          [
            2271.085422017891,
            2678.273595296871
          ],
          [
            2289.4784875241576,
            2674.564625458233
          ],
          [
            2307.871553030424,
            2670.8556556195954
          ],
          [
            2326.2646185366903,
            2667.1466857809573
          ]
        ]
      },
      "properties": {
        "id": "pistes:way:937726767",
        "piste_type": "downhill",
        "tags": {
          "z_order": "0",
          "piste:type": "downhill",
          "winter_sports_id": "773558919",
          "winter_sports_name": "\u767d\u99ac\u30b3\u30eb\u30c1\u30ca",
          "State": "Nagano",
          "Country": "Japan",
          "Ski Area": "\u767d\u99ac\u30b3\u30eb\u30c1\u30ca",
          "region": "asia/japan/chubu"
        }
      }
    },
    {
      "type": "Feature",
      "geometry": {
        "type": "LineString",
        "coordinates": [
          [
            2365.6817423187895,
            2666.590193216689
          ],
          [
            2345.97318042774,
            2666.868439498823
          ],
          [
            2326.2646185366903,
            2667.1466857809573
          ]
        ]
      },
      "properties": {
        "id": "pistes:way:937726768",
        "piste_type": "downhill",
        "tags": {
          "z_order": "0",
          "piste:type": "downhill",
          "winter_sports_id": "773558919",
          "winter_sports_name": "\u767d\u99ac\u30b3\u30eb\u30c1\u30ca",
          "State": "Nagano",
          "Country": "Japan",
          "Ski Area": "\u767d\u99ac\u30b3\u30eb\u30c1\u30ca",
          "region": "asia/japan/chubu"
        }
      }
    },
    {
      "type": "Feature",
      "geometry": {
        "type": "LineString",
        "coordinates": [
          [
            3268.9958339177538,
            2461.344820715487
          ],
          [
            3282.733109255845,
            2452.913296288112
          ],
          [
            3296.4703845939366,
            2444.4817718607374
          ],
          [
            3311.6175674349847,
            2434.732308236727
          ],
          [
            3326.7647502760324,
            2424.9828446127162
          ],
          [
            3341.9119331170805,
            2415.233380988706
          ],
          [
            3353.746066618866,
            2400.604051919499
          ],
          [
            3365.5802001206516,
            2385.9747228502915
          ],
          [
            3377.414333622437,
            2371.3453937810846
          ],
          [
            3382.192591582192,
            2356.042704307125
          ],
          [
            3386.9708495419472,
            2340.7400148331653
          ],
          [
            3391.7491075017024,
            2325.4373253592057
          ],
          [
            3396.5273654614575,
            2310.134635885246
          ],
          [
            3390.3396410187706,
            2291.5319652033504
          ],
          [
            3384.1519165760837,
            2272.9292945214547
          ],
          [
            3364.8334039029432,
            2271.6935690804385
          ],
          [
            3345.5148912298027,
            2270.457843639422
          ],
          [
            3326.1963785566622,
            2269.222118198406
          ],
          [
            3308.6527851504893,
            2276.0705891830535
          ],
          [
            3291.109191744317,
            2282.9190601677014
          ],
          [
            3273.565598338144,
            2289.767531152349
          ],
          [
            3258.9946114270715,
            2294.736260646023
          ],
          [
            3263.3820908988514,
            2277.0827441235692
          ],
          [
            3267.7695703706318,
            2259.429227601116
          ],
          [
            3272.1570498424117,
            2241.7757110786624
          ],
          [
            3274.9392577359686,
            2234.8623484466225
          ],
          [
            3276.1242743160497,
            2216.3493517686925
          ],
          [
            3277.309290896131,
            2197.836355090762
          ],
          [
            3278.4943074762123,
            2179.323358412832
          ],
          [
            3276.165866895113,
            2173.588371786289
          ],
          [
            3269.0512651102617,
            2172.484766208101
          ],
          [
            3260.973040738376,
            2182.570185557939
          ],
          [
            3250.183547914028,
            2208.456781483721
          ],
          [
            3237.8012081600027,
            2224.965308468789
          ],
          [
            3224.3569697387284,
            2235.2217999896966
          ],
          [
            3215.8744588422123,
            2253.958549822215
          ],
          [
            3208.8742305674823,
            2264.7430085968226
          ],
          [
            3190.1411019322695,
            2284.447337616235
          ],
          [
            3170.491049051867,
            2299.9033118914813
          ],
          [
            3145.253996049403,
            2288.2447983343154
          ]
        ]
      },
      "properties": {
        "id": "pistes:way:1441871350",
        "name": "\u30b9\u30cd\u30fc\u30af\u30b3\u30fc\u30b9",
        "piste_type": "downhill",
        "tags": {
          "name": "\u30b9\u30cd\u30fc\u30af\u30b3\u30fc\u30b9",
          "z_order": "0",
          "name:en": "Snake Course",
          "piste:difficulty": "easy",
          "piste:type": "downhill",
          "winter_sports_id": "773558919",
          "winter_sports_name": "\u767d\u99ac\u30b3\u30eb\u30c1\u30ca",
          "State": "Nagano",
          "Country": "Japan",
          "Ski Area": "\u767d\u99ac\u30b3\u30eb\u30c1\u30ca",
          "region": "asia/japan/chubu"
        }
      }
    }
  ]
}