{"type": "FeatureCollection", "features": [{"type": "Feature", "properties": {"name": "Perisher", "winter_sports_id": "178133225", "source": "ski_areas_1000ft_buffer", "buffer_ft": 1000, "coordinate_space": "game local meters (east, north) from scene origin"}, "geometry": {"type": "Polygon", "coordinates": [[[801.3303262694972, 4504.695034116507], [764.6561169933993, 4509.324128914624], [732.7837258767104, 4515.08041905798], [701.7014368399978, 4524.184017242864], [671.7597452329937, 4536.532267941162], [617.5095035822596, 4562.356365721673], [591.3992479646113, 4576.380167050287], [566.7734060196672, 4592.871994147077], [543.86451359489, 4611.676118700765], [522.8888937886804, 4632.614977933466], [471.7088178463746, 4688.92956886813], [453.4542910173768, 4711.016758754849], [437.35309642972425, 4734.7195695517585], [423.547348946915, 4759.828791828826], [412.1589030006435, 4786.122802662663], [403.2882770639844, 4813.369521774352], [397.01376643194817, 4841.328459937125], [393.3907521665096, 4869.752841627225], [392.451212276821, 4898.391783151776], [393.6408090943005, 4982.1781577775255], [394.73651595262345, 5059.352946531959], [398.54120575170964, 5103.240281762555], [419.66780726460274, 5235.196991726756], [425.0270109307021, 5261.304629757069], [441.3446160289459, 5326.247049042955], [448.9452018092852, 5351.737042052671], [458.737750803004, 5376.467885791324], [470.6477850379888, 5400.251487964764], [500.28408440889325, 5453.498822845519], [514.7025643317029, 5476.863444506191], [531.1637234602822, 5498.836799940094], [580.5011137112742, 5558.8624454289675], [594.7023342854809, 5580.996044791304], [598.25635791698, 5595.396269628778], [604.7780586624285, 5633.935132382438], [610.9656490009511, 5662.247638170607], [619.8124913420761, 5689.8450590400025], [631.2387112088036, 5716.478229291737], [645.141145982896, 5741.906689045951], [661.3942763343221, 5765.900855250657], [679.8513594655087, 5788.244094505906], [719.3914326733211, 5831.725179832429], [761.0741988000227, 5880.808986349031], [763.1012332665268, 5883.171393383294], [813.9926101805177, 5941.8739099074155], [836.9946776783327, 5965.665733102709], [862.4389975368977, 5986.825424665585], [890.0260239999043, 6005.103880049661], [919.4309860777576, 6020.285914340988], [981.4402171687689, 6048.151140172966], [1009.3450535405427, 6059.076771026477], [1038.1873861394124, 6067.211213393137], [1067.6887754455674, 6072.475938593969], [1097.5644195032073, 6074.820121766999], [1127.5259033492766, 6074.221132520586], [1157.2839833473554, 6070.684753410518], [1186.551379488199, 6064.24512410257], [1246.004412820912, 6048.064433934167], [1287.816706931102, 6033.346547383815], [1324.1706907709595, 6017.494688283652], [1341.6407218209933, 6009.208398999646], [1356.023636824335, 6001.8190879151225], [1363.068046728382, 6001.333139466122], [1390.3613291736692, 5998.210238172673], [1417.2629072385607, 5992.644191397354], [1443.5545388449682, 5984.680154319853], [1469.0229301737854, 5974.382736086845], [1493.4614660352236, 5961.835475662723], [1516.671886053402, 5947.140164108947], [1546.7241828369442, 5926.15940945223], [1614.532947834814, 5880.035337133333], [1622.3142980121775, 5875.665152982809], [1639.0421128139133, 5876.8398703970015], [1661.7462144409074, 5877.586235306226], [1715.6217572556343, 5877.349891480058], [1773.0467882611556, 5877.864317314699], [1815.1031222516904, 5879.460884614848], [1829.9954488936346, 5879.662331365049], [1892.3703817037167, 5878.982900951989], [1922.0583527381532, 5882.235928505659], [1943.967438488151, 5883.840737540275], [1975.8803346860223, 5885.025167521089], [2009.0369981005788, 5884.451742386445], [2041.9354267193703, 5880.282025419176], [2074.1867124374257, 5872.565308846533], [2105.409597338643, 5861.392815673724], [2162.2638735775836, 5837.487556878477], [2190.5167891177116, 5823.858303915709], [2217.220399011625, 5807.399233721197], [2242.092242423678, 5788.284444206394], [2264.8692342648283, 5766.716124488041], [2285.3104480109178, 5742.922416214831], [2303.1996641197475, 5717.155000360683], [2305.6757342491765, 5712.6650264095515], [2309.2808996089734, 5714.308379616588], [2350.698377333116, 5733.18859516643], [2381.279677695944, 5762.769893179648], [2413.3095093243755, 5789.751975854859], [2434.4554069215665, 5805.213790687732], [2470.7076330985874, 5831.711420990527], [2473.3830673645716, 5834.203736752272], [2510.111057585338, 5868.420645733364], [2532.9316028945614, 5887.6828311719], [2557.5264990268042, 5904.6209585834295], [2570.932019816595, 5912.034151737578], [2588.6244531816337, 5927.6256421506405], [2617.851889014477, 5951.23467126023], [2627.3755800555227, 5964.197714913636], [2703.5770023532677, 6102.060789032839], [2721.6270166852046, 6130.811470691115], [2742.7602752523962, 6157.378180974163], [2766.7149767556693, 6181.431808331981], [2843.6038361153333, 6250.487727186643], [2935.827998323366, 6333.30489965342], [2966.5131554185646, 6357.496115483344], [3006.762791796238, 6385.24017431587], [3030.332777574891, 6399.9500052295625], [3055.143550190958, 6412.45396129787], [3080.989229341969, 6422.648284435272], [3128.80016273621, 6439.031842004508], [3155.9767233171733, 6446.955851506442], [3183.7708942703903, 6452.32608730346], [3211.9432452503825, 6455.096287991852], [3240.2510881096823, 6455.242589929141], [3268.450567519176, 6452.763732810505], [3296.298761638347, 6447.681070525199], [3402.6203599259024, 6423.128416573629], [3432.3978892192245, 6414.638819217682], [3461.1611991781974, 6403.173806599341], [3488.61383692862, 6388.851544395089], [3514.4728582166135, 6371.819646904245], [3538.4717436045175, 6352.2536556348205], [3560.363145390176, 6330.355230078101], [3579.921436940902, 6306.350069262087], [3583.77144659427, 6301.101608930156], [3588.7581238951534, 6297.56546223443], [3609.9067484616535, 6279.455928568728], [3629.3157968489686, 6259.493254115805], [3648.8705730593065, 6237.451353210956], [3666.858380180667, 6215.1476254807785], [3679.0752780882176, 6196.690800044686], [3693.912737738341, 6197.091302614659], [3723.909251536941, 6194.938181975856], [3753.547901810147, 6189.841400781646], [3782.5405295826495, 6181.850512009114], [3810.6052567749284, 6171.043206315488], [3837.4692267209757, 6157.524556710385], [3862.871257020859, 6141.4259969852865], [3886.564378837589, 6122.904043870047], [3908.3182380230865, 6102.138775294647], [3927.921334748622, 6079.3320796256885], [3945.1830797585426, 6054.70569280535], [3959.925201889011, 6028.517598019913], [3976.8614660287276, 6013.797493331134], [4000.1450844852952, 5988.41513974499], [4036.606747203623, 5943.857648581266], [4054.419308524346, 5919.766316732392], [4064.8901955729816, 5904.043911635876], [4066.558945295401, 5902.677356669679], [4090.5155984945595, 5880.831753461622], [4112.01799753448, 5856.566584028304], [4130.823172444012, 5830.156036728993], [4146.718630993739, 5801.898541977629], [4159.5247597772395, 5772.113400084898], [4170.978314529872, 5741.014698917046], [4258.179076589062, 5681.9853073386475], [4370.924674880458, 5615.643602259457], [4458.151754302438, 5574.960888406262], [4521.572724448051, 5563.280605452135], [4559.051840158179, 5553.889554425143], [4691.263567640446, 5511.699414726347], [4712.093297184678, 5504.209278972819], [4723.962310152361, 5499.448165975511], [4737.357347132871, 5503.302691265941], [4762.123130117194, 5509.32116320543], [4887.630510619259, 5534.318936498836], [4915.464514463674, 5538.537986103445], [4943.568961094366, 5540.172681516968], [4971.704412970343, 5539.2090958524495], [4999.631168393418, 5535.655438436195], [5027.111303675105, 5529.541984867305], [5053.91070012562, 5520.920819090679], [5079.8010386588285, 5509.865389646962], [5137.146680830512, 5482.18275087513], [5160.520462912391, 5469.617521667853], [5182.713545577251, 5455.068097084761], [5203.557922555483, 5438.644619308412], [5222.895797560224, 5420.471417494118], [5281.690825898666, 5360.190434129909], [5302.379344457644, 5336.675915079191], [5320.547290451126, 5311.163699481636], [5336.003083128366, 5283.922813316807], [5338.97341854393, 5277.1508260555565], [5351.741976033663, 5267.74561357405], [5404.62236681697, 5231.511122986674], [5419.155312298099, 5220.909846467897], [5504.807324253721, 5154.4729513302445], [5508.148389582988, 5151.843919331208], [5576.648320946377, 5097.16509395279], [5599.247499182937, 5077.220001275651], [5619.767640848062, 5055.141655212268], [5638.008335774415, 5031.145684146322], [5673.814692105632, 4978.867910049856], [5675.723679097719, 4975.778524246998], [5712.975386192673, 4980.992773047648], [5744.274566184264, 4983.7397145098075], [5775.690272010979, 4983.252084201202], [5806.889119160827, 4979.535056872293], [5837.5400244505145, 4972.628077734262], [5867.317719461396, 4962.604443881661], [5895.906202319544, 4949.570526443422], [5923.00209109718, 4933.664641780779], [5948.317843342898, 4915.055583663285], [5971.584807458101, 4893.940832027234], [5992.556073657004, 4870.544457309879], [6025.462487788871, 4829.790605993941], [6047.365015152143, 4802.6694672219455], [6063.442468115361, 4780.843949917704], [6077.518521181541, 4757.677110912278], [6125.098750055884, 4670.8982245624065], [6155.807341910317, 4616.926560934633], [6169.121498311055, 4590.649881692603], [6179.838685397175, 4563.211358888075], [6187.858934003976, 4534.866937127896], [6189.51578694745, 4525.716620514169], [6212.284276805003, 4496.678910141811], [6220.767458070768, 4485.326307531446], [6240.1224071405595, 4458.128961084411], [6302.635188430548, 4370.297885861248], [6317.904157824232, 4346.597726535983], [6330.919495662558, 4321.588928898796], [6341.569994226331, 4295.485177086666], [6349.764651841368, 4268.509510923177], [6355.4334503991995, 4240.892420178279], [6358.527953664539, 4212.869875185192], [6362.583004764398, 4149.346539961174], [6364.774357372662, 4115.032394792885], [6365.171195046627, 4083.927801819518], [6362.397721127374, 4052.944563988596], [6356.482785514672, 4022.4049713127315], [6347.487915814621, 3992.626698980108], [6335.506677356199, 3963.919502859935], [6320.663699895609, 3936.5819974085316], [6303.113381229341, 3910.8985494561493], [6249.769629386021, 3840.7965274695307], [6240.1387248385, 3821.5245512034744], [6224.859500667895, 3790.9527769871056], [6208.827302927733, 3746.6416970770806], [6199.755313072121, 3724.357176180929], [6188.954972890206, 3702.8570942394435], [6143.218373154756, 3620.117034988478], [6121.701511029853, 3581.194230977446], [6107.062919215648, 3557.364142941311], [6090.30305281817, 3534.975120086223], [6071.562830106122, 3514.215411061421], [6050.999820337165, 3495.2595651224256], [6028.786918894271, 3478.266964506358], [5985.15481401491, 3447.955699983053], [5961.152107238071, 3432.8844157950953], [5935.854048076551, 3420.1062413360924], [5909.47908599826, 3409.7315165111795], [5903.164503782522, 3407.903373649344], [5846.18277037004, 3332.1436119414866], [5825.839556209161, 3307.836449569091], [5803.08351692115, 3285.7718357956037], [5785.37656907225, 3271.8582878466696], [5782.575360255316, 3259.057021290064], [5773.023443431826, 3229.8608816713095], [5760.583132749191, 3201.7736540809274], [5745.380623799865, 3175.0802577948198], [5727.570132158697, 3150.0514729442075], [5707.332328998717, 3126.9411936998367], [5684.872508350178, 3105.9838527385145], [5660.418504586094, 3087.392043152824], [5634.218381251791, 3071.3543618721887], [5606.537914668326, 3058.0334965297952], [5577.657897898927, 3047.564575141296], [5539.524380994262, 3035.877704284154], [5532.914686561446, 3033.933404771611], [5476.54241835163, 3018.0405592517927], [5456.8420287228655, 3000.8172429576516], [5432.49471063097, 2983.425497927703], [5406.560447300319, 2968.5030759060755], [5379.288827876444, 2956.193589016795], [5373.557739346987, 2954.2570949159563], [5371.994025215041, 2952.157707411796], [5240.738143330091, 2791.714664169587], [5120.987567362841, 2635.6732887364924], [5102.898839417612, 2614.222745936364], [5082.915343217319, 2594.525341425091], [4971.743424299639, 2494.5996866198257], [4938.546421928564, 2468.6718900576234], [4904.382328417501, 2445.6008018832654], [4899.116211484186, 2432.821722614579], [4890.374048096477, 2416.3571006003767], [4895.613727916847, 2398.1456191428006], [4901.172566136112, 2366.8915319144726], [4909.782956426963, 2297.7838694732636], [4912.102328678942, 2263.6337521579117], [4910.580618260778, 2229.4388051964343], [4905.236990467878, 2195.6296992860734], [4890.7857250600355, 2128.779688021168], [4885.129905686248, 2106.6605869866908], [4877.835368761909, 2085.026524621062], [4851.806959995301, 2016.426656447351], [4838.495489711175, 1986.3440815852955], [4822.0215739286505, 1957.8701171576977], [4802.576853125007, 1931.3359997924417], [4765.345508735161, 1885.8903480824083], [4746.05493424146, 1864.4909265246242], [4724.831256888574, 1845.0071633681655], [4701.863855416421, 1827.612912107259], [4677.357667813427, 1812.4633815409616], [4651.531362638576, 1799.693750838749], [4648.186291501857, 1798.232142366469], [4627.1124765673885, 1766.6300031328574], [4607.587044396321, 1740.4946359917521], [4585.381800087052, 1716.594279466197], [4540.487062244676, 1673.179530329071], [4536.588826406398, 1669.4757415009663], [4480.005694165011, 1616.6562247797847], [4454.39674664964, 1595.2491000909358], [4426.601953981211, 1576.7684972528368], [4396.954191322904, 1561.4357431046665], [4365.808525304776, 1549.4344653077424], [4286.538592784549, 1523.775392677635], [4260.417649118463, 1516.5849983468652], [4233.761679971707, 1511.7409527618438], [4206.781011897372, 1509.2814774364233], [4179.688533445355, 1509.2259786371142], [4152.698015405913, 1511.5748942764476], [4128.417996277683, 1514.7797596948221], [4022.1098787322408, 1528.802534390241], [4019.312098827446, 1529.1847657021135], [4011.6634060839424, 1530.2658171998337], [4009.5869075509254, 1527.8907231204212], [3988.4594745080685, 1507.9288673456758], [3965.527795597911, 1490.068794131279], [3941.0001341280295, 1474.4727069409564], [3915.099247959908, 1461.2822479456663], [3888.0603664545342, 1450.6172116212547], [3847.9167638375657, 1436.9552962966263], [3828.7971216200385, 1431.1399791333824], [3804.667823004187, 1424.6565281003714], [3775.1600108871935, 1418.2750428505242], [3745.1658659009263, 1414.8420271519572], [3714.9792627468705, 1414.3911167811602], [3684.8959617710207, 1416.9267296437174], [3655.2107111990917, 1422.4240224724635], [3626.214359251666, 1430.829134248197], [3598.191004517954, 1442.0597139094025], [3571.4152124092216, 1456.0057272100821], [3546.1493250450585, 1472.530534800142], [3522.640890907729, 1491.4722309932113], [3501.12023941637, 1512.6452300585806], [3481.798224211205, 1535.842084556818], [3472.5732696494088, 1549.4574368223548], [3471.787806714303, 1549.9893245771527], [3470.3226314235944, 1549.6193422507495], [3355.0769968485693, 1506.2504262886941], [3261.131842659437, 1458.5287672169507], [3204.72748138709, 1414.1808558162302], [3149.779202449834, 1336.5517498282716], [3132.341892092256, 1314.1975825643167], [3065.7895049540093, 1236.6038657622412], [3040.0695077417186, 1210.057096676901], [3011.327105215518, 1186.816539393738], [2929.6672318333294, 1128.602680651471], [2903.463589434279, 1111.8687050789595], [2875.692481203703, 1097.8893502634019], [2846.642486888799, 1086.8098807949573], [2816.6154756082688, 1078.745427498594], [2716.2415111127775, 1057.205524334684], [2686.7292463133344, 1052.371802892536], [2579.0075006672414, 1040.1143973302096], [2555.610467721941, 1035.589976200834], [2548.070006665541, 1031.387058175169], [2537.2822573554004, 1025.3709186427295], [2459.591906521935, 971.7891745492816], [2404.8541774314363, 920.1243387628347], [2396.60721961502, 912.3392714895308], [2364.7307215131586, 886.0919142346829], [2349.363582576392, 875.0954455286264], [2312.1923042099224, 848.505437945947], [2285.762000971008, 831.5840099751949], [2257.7327836796176, 817.4681100118905], [2228.4014097001636, 806.30718915537], [2180.0755956630455, 790.7138788551092], [2151.590443356312, 783.0221765693277], [2122.4953632070683, 778.1188616678119], [2093.062638931209, 776.049821389839], [2063.567714063567, 776.8344186656177], [2034.2866142268758, 780.4653109107167], [2005.493363997084, 786.9085187409073], [1977.4574224422686, 796.1037439722568], [1950.4411614247365, 807.9649339057505], [1924.6974102222594, 822.3810866512358], [1900.4670894411393, 839.2172899264842], [1877.9769563747104, 858.3159836176783], [1857.4374829427106, 879.4984343042597], [1839.0408859725576, 902.5664079021662], [1800.5834978115745, 955.8893938586116], [1786.4962580949068, 977.5825858442113], [1765.719035159098, 978.9047111477703], [1736.1097381674917, 983.7424350064248], [1707.11898753501, 991.4658033205196], [1679.027299053385, 1002.0000844337046], [1652.1064891515998, 1015.2433481756598], [1626.6170447801705, 1031.0674521308392], [1602.8056029425934, 1049.3192815706134], [1580.9025642049965, 1069.8222309798002], [1561.1198633501772, 1092.3779129059985], [1543.6489186667604, 1116.7680775690824], [1528.6587797985412, 1142.7567246481776], [1516.2944919914007, 1170.0923868399113], [1506.675692649209, 1198.5105630559847], [1499.8954536993988, 1227.7362777628005], [1496.01938103477, 1257.486741643399], [1495.0849797099363, 1287.4740878837183], [1497.1012910329737, 1317.40815758612], [1502.0488050838467, 1346.9993073623627], [1509.8796494986163, 1375.9612119272351], [1520.518052680418, 1404.0136346053332], [1533.8610769576626, 1430.8851389084011], [1549.7796146424953, 1456.3157149590552], [1564.8188593017403, 1477.9027916984633], [1570.1325489921728, 1487.6355670196936], [1586.6319162033033, 1518.1503844317049], [1603.3061800908763, 1545.4598009334877], [1621.6803585144226, 1569.474370523356], [1624.8485971017508, 1591.6373444013298], [1631.9578803130426, 1620.6804069001228], [1632.158140042564, 1621.24990465492], [1631.7426603443455, 1623.8154200278223], [1629.883002308663, 1653.860583819449], [1630.994163912139, 1683.9427299369127], [1635.0653211710742, 1713.7688237763941], [1640.2618355134036, 1741.5327867502347], [1647.345887408941, 1771.1290230592713], [1657.3440470823552, 1799.8719839025289], [1668.996423036093, 1824.9756687879562], [1668.8897342920536, 1826.8221585024148], [1670.1711621497525, 1856.1549202501774], [1662.9961746499175, 1958.873129216954], [1662.3928637861973, 1970.9502549748868], [1662.1143152365694, 1980.2050124891102], [1659.7854478847003, 2057.160529224202], [1660.270916296984, 2085.902537760325], [1663.4601398662198, 2114.4711846895516], [1669.3247887955513, 2142.6126954359934], [1677.8127675598953, 2170.0770896738395], [1699.8632949247258, 2231.074077389203], [1709.429430001881, 2254.458229843527], [1714.2359580993652, 2264.945681253448], [1745.1710319542326, 2332.465860389173], [1759.4539225467015, 2359.879609430209], [1776.4382415241562, 2385.7068723309785], [1795.9495329381898, 2409.6823620516807], [1817.787384815747, 2431.559812212363], [1841.727487707045, 2451.114506624639], [1867.523938711267, 2468.145587497391], [1894.9117672750726, 2482.478118563071], [1943.3398940340849, 2504.772208850831], [1947.5122178421589, 2506.655140083283], [1960.8818629845046, 2512.5683810617775], [1964.5864465059713, 2516.9926576055586], [1984.8698026790516, 2538.936333615333], [2007.2031398860272, 2558.7898346586153], [2031.3720822273754, 2576.362588584423], [2057.144633982214, 2591.485915945843], [2070.9078508921666, 2597.8421074217185], [2071.1046730118105, 2598.242391777225], [2086.3000689982437, 2622.9142434019595], [2103.768141121138, 2646.032780945301], [2123.351230696775, 2667.38934725523], [2144.872589876293, 2686.7911879122257], [2168.1379768984625, 2704.0631909407675], [2192.9374092156067, 2719.0494672814384], [2214.4839279142907, 2729.4187473040074], [2306.2215091710677, 2937.3174167294055], [2304.732148271869, 3092.031852439046], [2282.181434900034, 3351.504953574389], [2207.8101085645612, 3413.139659885317], [2081.9702166045317, 3483.150362541899], [1776.492664315505, 3528.178385609761], [1744.771479108138, 3534.5896535227075], [1713.9081847448833, 3544.3259263299406], [1684.2502609225921, 3557.277586530894], [1656.1316164809978, 3573.2988156341016], [1528.8208361094585, 3655.076280169189], [1503.00476699078, 3673.62826153636], [1479.260009417194, 3694.7666608430445], [1457.8445320131723, 3718.261825555004], [1438.990997549845, 3743.858498688787], [1422.9042352495017, 3771.278591979295], [1409.7590154766804, 3800.224207095802], [1399.6981509830803, 3830.380872081034], [1363.424055690295, 3961.5155350239947], [1356.0535122016445, 3995.6661961283535], [1352.636774331564, 4030.435700979084], [1346.9434905032394, 4170.419402619824], [1346.9963803576538, 4196.446693098173], [1350.6235202599782, 4277.513422839344], [1354.5628706224961, 4314.5849793907255], [1367.2410751733696, 4389.78638093546], [1351.9615829518298, 4395.309800015762], [1299.4710749805672, 4407.830952416174], [1217.1895159032429, 4413.39611418359], [1205.3188405976398, 4414.432291008532], [957.3650881287176, 4440.965606231242], [928.4456483876565, 4445.472607363015], [900.0913695987547, 4452.730839140713], [872.5633601677837, 4462.673462085426], [846.1151195652783, 4475.208916733041], [820.9902039048029, 4490.221766805276], [801.3303262694972, 4504.695034116507]]]}}]}