{
  "type": "FeatureCollection",
  "coordinate_system": {
    "kind": "local_game_meters",
    "not_wgs84": true,
    "axes": {
      "geojson_x": "local_east_m",
      "geojson_y": "local_north_m"
    },
    "game_axes": {
      "x": "east_m",
      "y": "elevation_m",
      "z": "negative_north_m"
    },
    "local_origin": {
      "easting_m": 622275.3519675976,
      "northing_m": 5967597.845997158,
      "longitude": 148.36408010178278,
      "latitude": -36.42904674164383
    },
    "projected_crs": "EPSG:32755",
    "note": "This is not RFC 7946 WGS84 GeoJSON. Convert X,Y to game X,Z via game_axes."
  },
  "attribution": "\u00a9 OpenStreetMap contributors (ODbL)",
  "layer": "tree-points",
  "features": [
    {
      "type": "Feature",
      "geometry": {
        "type": "Point",
        "coordinates": [
          3206.6907826952424,
          4094.4977527412175
        ]
      },
      "properties": {
        "elevation_m": 1893.7100830078125,
        "kind": "tree"
      }
    },
    {
      "type": "Feature",
      "geometry": {
        "type": "Point",
        "coordinates": [
          5534.850125766824,
          4236.132709730442
        ]
      },
      "properties": {
        "elevation_m": 1724.1083984375,
        "kind": "tree"
      }
    },
    {
      "type": "Feature",
      "geometry": {
        "type": "Point",
        "coordinates": [
          1100.8808040348417,
          1450.2603444792474
        ]
      },
      "properties": {
        "elevation_m": 1752.52099609375,
        "kind": "tree"
      }
    },
    {
      "type": "Feature",
      "geometry": {
        "type": "Point",
        "coordinates": [
          851.150457501368,
          556.6299231398398
        ]
      },
      "properties": {
        "elevation_m": 1746.523681640625,
        "kind": "tree"
      }
    },
    {
      "type": "Feature",
      "geometry": {
        "type": "Point",
        "coordinates": [
          800.9298749513148,
          5884.956826918313
        ]
      },
      "properties": {
        "elevation_m": 1589.9849853515625,
        "kind": "tree"
      }
    },
    {
      "type": "Feature",
      "geometry": {
        "type": "Point",
        "coordinates": [
          1491.5379917695104,
          702.8310861675463
        ]
      },
      "properties": {
        "elevation_m": 1791.3994140625,
        "kind": "tree"
      }
    },
    {
      "type": "Feature",
      "geometry": {
        "type": "Point",
        "coordinates": [
          298.568306763825,
          2732.97123987231
        ]
      },
      "properties": {
        "elevation_m": 1968.341064453125,
        "kind": "tree"
      }
    },
    {
      "type": "Feature",
      "geometry": {
        "type": "Point",
        "coordinates": [
          1616.4614832123289,
          885.5243113815047
        ]
      },
      "properties": {
        "elevation_m": 1779.498779296875,
        "kind": "tree"
      }
    },
    {
      "type": "Feature",
      "geometry": {
        "type": "Point",
        "coordinates": [
          5810.250094111392,
          4417.623060383374
        ]
      },
      "properties": {
        "elevation_m": 1735.6328125,
        "kind": "tree"
      }
    },
    {
      "type": "Feature",
      "geometry": {
        "type": "Point",
        "coordinates": [
          5151.0937936073415,
          3402.1059265063286
        ]
      },
      "properties": {
        "elevation_m": 1731.882568359375,
        "kind": "tree"
      }
    },
    {
      "type": "Feature",
      "geometry": {
        "type": "Point",
        "coordinates": [
          893.4408362246832,
          5558.87939096571
        ]
      },
      "properties": {
        "elevation_m": 1618.197265625,
        "kind": "tree"
      }
    },
    {
      "type": "Feature",
      "geometry": {
        "type": "Point",
        "coordinates": [
          5141.193648665464,
          473.3680615589365
        ]
      },
      "properties": {
        "elevation_m": 1761.84375,
        "kind": "tree"
      }
    },
    {
      "type": "Feature",
      "geometry": {
        "type": "Point",
        "coordinates": [
          5190.323757116663,
          4908.51612007222
        ]
      },
      "properties": {
        "elevation_m": 1729.053466796875,
        "kind": "tree"
      }
    },
    {
      "type": "Feature",
      "geometry": {
        "type": "Point",
        "coordinates": [
          3901.9581304759317,
          1787.4062082392777
        ]
      },
      "properties": {
        "elevation_m": 1748.2069091796875,
        "kind": "tree"
      }
    },
    {
      "type": "Feature",
      "geometry": {
        "type": "Point",
        "coordinates": [
          6590.860185416192,
          5107.1206723477935
        ]
      },
      "properties": {
        "elevation_m": 1727.931640625,
        "kind": "tree"
      }
    },
    {
      "type": "Feature",
      "geometry": {
        "type": "Point",
        "coordinates": [
          5243.698857926021,
          1978.4728246292045
        ]
      },
      "properties": {
        "elevation_m": 1823.1318359375,
        "kind": "tree"
      }
    },
    {
      "type": "Feature",
      "geometry": {
        "type": "Point",
        "coordinates": [
          3621.536859043334,
          6407.906102693985
        ]
      },
      "properties": {
        "elevation_m": 1653.2423095703125,
        "kind": "tree"
      }
    },
    {
      "type": "Feature",
      "geometry": {
        "type": "Point",
        "coordinates": [
          1999.8775245509999,
          2401.1867423100343
        ]
      },
      "properties": {
        "elevation_m": 1992.186279296875,
        "kind": "tree"
      }
    },
    {
      "type": "Feature",
      "geometry": {
        "type": "Point",
        "coordinates": [
          3530.4233297969067,
          3165.6269284420914
        ]
      },
      "properties": {
        "elevation_m": 1809.7489013671875,
        "kind": "tree"
      }
    },
    {
      "type": "Feature",
      "geometry": {
        "type": "Point",
        "coordinates": [
          5509.910775729912,
          5352.120090693456
        ]
      },
      "properties": {
        "elevation_m": 1661.423828125,
        "kind": "tree"
      }
    },
    {
      "type": "Feature",
      "geometry": {
        "type": "Point",
        "coordinates": [
          6160.070345806871,
          2916.644662888106
        ]
      },
      "properties": {
        "elevation_m": 1777.2373046875,
        "kind": "tree"
      }
    },
    {
      "type": "Feature",
      "geometry": {
        "type": "Point",
        "coordinates": [
          5105.518222313494,
          1704.8119596468719
        ]
      },
      "properties": {
        "elevation_m": 1841.08544921875,
        "kind": "tree"
      }
    },
    {
      "type": "Feature",
      "geometry": {
        "type": "Point",
        "coordinates": [
          5596.7115810856785,
          2434.9650852466084
        ]
      },
      "properties": {
        "elevation_m": 1747.8427734375,
        "kind": "tree"
      }
    },
    {
      "type": "Feature",
      "geometry": {
        "type": "Point",
        "coordinates": [
          6601.93224047231,
          817.4629494820308
        ]
      },
      "properties": {
        "elevation_m": 1536.2352294921875,
        "kind": "tree"
      }
    },
    {
      "type": "Feature",
      "geometry": {
        "type": "Point",
        "coordinates": [
          2657.322182668641,
          3907.6005341709324
        ]
      },
      "properties": {
        "elevation_m": 1913.154052734375,
        "kind": "tree"
      }
    },
    {
      "type": "Feature",
      "geometry": {
        "type": "Point",
        "coordinates": [
          4251.115733129254,
          618.5384887392527
        ]
      },
      "properties": {
        "elevation_m": 1834.321533203125,
        "kind": "tree"
      }
    },
    {
      "type": "Feature",
      "geometry": {
        "type": "Point",
        "coordinates": [
          913.7520117051909,
          4670.586852009024
        ]
      },
      "properties": {
        "elevation_m": 1680.90283203125,
        "kind": "tree"
      }
    },
    {
      "type": "Feature",
      "geometry": {
        "type": "Point",
        "coordinates": [
          2870.6550406923197,
          1629.843514759488
        ]
      },
      "properties": {
        "elevation_m": 1771.874267578125,
        "kind": "tree"
      }
    },
    {
      "type": "Feature",
      "geometry": {
        "type": "Point",
        "coordinates": [
          4775.352234215903,
          3284.030782021421
        ]
      },
      "properties": {
        "elevation_m": 1746.2471923828125,
        "kind": "tree"
      }
    },
    {
      "type": "Feature",
      "geometry": {
        "type": "Point",
        "coordinates": [
          237.65901998289348,
          5667.451693945227
        ]
      },
      "properties": {
        "elevation_m": 1661.0152587890625,
        "kind": "tree"
      }
    },
    {
      "type": "Feature",
      "geometry": {
        "type": "Point",
        "coordinates": [
          3180.1763329824807,
          2062.814624571769
        ]
      },
      "properties": {
        "elevation_m": 1751.09326171875,
        "kind": "tree"
      }
    },
    {
      "type": "Feature",
      "geometry": {
        "type": "Point",
        "coordinates": [
          5195.199196837249,
          5480.365754415585
        ]
      },
      "properties": {
        "elevation_m": 1632.4815673828125,
        "kind": "tree"
      }
    },
    {
      "type": "Feature",
      "geometry": {
        "type": "Point",
        "coordinates": [
          1214.449801038876,
          3791.6201909490533
        ]
      },
      "properties": {
        "elevation_m": 1783.9630126953125,
        "kind": "tree"
      }
    },
    {
      "type": "Feature",
      "geometry": {
        "type": "Point",
        "coordinates": [
          4779.691282376558,
          3238.0044107900767
        ]
      },
      "properties": {
        "elevation_m": 1740.300537109375,
        "kind": "tree"
      }
    },
    {
      "type": "Feature",
      "geometry": {
        "type": "Point",
        "coordinates": [
          1187.368167183093,
          3880.704526305399
        ]
      },
      "properties": {
        "elevation_m": 1779.9420166015625,
        "kind": "tree"
      }
    },
    {
      "type": "Feature",
      "geometry": {
        "type": "Point",
        "coordinates": [
          2048.464680674265,
          6077.587377367712
        ]
      },
      "properties": {
        "elevation_m": 1733.831298828125,
        "kind": "tree"
      }
    },
    {
      "type": "Feature",
      "geometry": {
        "type": "Point",
        "coordinates": [
          240.39585619531542,
          5843.342914836939
        ]
      },
      "properties": {
        "elevation_m": 1658.586181640625,
        "kind": "tree"
      }
    },
    {
      "type": "Feature",
      "geometry": {
        "type": "Point",
        "coordinates": [
          2803.6835105198907,
          5677.0652591964335
        ]
      },
      "properties": {
        "elevation_m": 1964.27294921875,
        "kind": "tree"
      }
    },
    {
      "type": "Feature",
      "geometry": {
        "type": "Point",
        "coordinates": [
          1752.0312652977668,
          912.1442208433386
        ]
      },
      "properties": {
        "elevation_m": 1781.1920166015625,
        "kind": "tree"
      }
    },
    {
      "type": "Feature",
      "geometry": {
        "type": "Point",
        "coordinates": [
          1825.479858771733,
          5925.324457672352
        ]
      },
      "properties": {
        "elevation_m": 1737.9552001953125,
        "kind": "tree"
      }
    },
    {
      "type": "Feature",
      "geometry": {
        "type": "Point",
        "coordinates": [
          3472.3738918262925,
          498.1628772651467
        ]
      },
      "properties": {
        "elevation_m": 1866.9703369140625,
        "kind": "tree"
      }
    },
    {
      "type": "Feature",
      "geometry": {
        "type": "Point",
        "coordinates": [
          1120.0852349050303,
          2109.4273946864973
        ]
      },
      "properties": {
        "elevation_m": 1858.031494140625,
        "kind": "tree"
      }
    },
    {
      "type": "Feature",
      "geometry": {
        "type": "Point",
        "coordinates": [
          6128.13240668033,
          3168.5539898744446
        ]
      },
      "properties": {
        "elevation_m": 1767.3299560546875,
        "kind": "tree"
      }
    },
    {
      "type": "Feature",
      "geometry": {
        "type": "Point",
        "coordinates": [
          4125.10599091297,
          3805.5005691168585
        ]
      },
      "properties": {
        "elevation_m": 1715.0943603515625,
        "kind": "tree"
      }
    },
    {
      "type": "Feature",
      "geometry": {
        "type": "Point",
        "coordinates": [
          1968.1365527660214,
          6327.04510535756
        ]
      },
      "properties": {
        "elevation_m": 1640.3126220703125,
        "kind": "tree"
      }
    },
    {
      "type": "Feature",
      "geometry": {
        "type": "Point",
        "coordinates": [
          6081.782683819768,
          5702.99943666025
        ]
      },
      "properties": {
        "elevation_m": 1623.169921875,
        "kind": "tree"
      }
    },
    {
      "type": "Feature",
      "geometry": {
        "type": "Point",
        "coordinates": [
          2967.199984777795,
          3739.677696624777
        ]
      },
      "properties": {
        "elevation_m": 1898.749755859375,
        "kind": "tree"
      }
    },
    {
      "type": "Feature",
      "geometry": {
        "type": "Point",
        "coordinates": [
          280.1507554521919,
          4395.100375517441
        ]
      },
      "properties": {
        "elevation_m": 1706.1341552734375,
        "kind": "tree"
      }
    },
    {
      "type": "Feature",
      "geometry": {
        "type": "Point",
        "coordinates": [
          884.1873397966563,
          3505.537239493678
        ]
      },
      "properties": {
        "elevation_m": 1801.5728759765625,
        "kind": "tree"
      }
    },
    {
      "type": "Feature",
      "geometry": {
        "type": "Point",
        "coordinates": [
          2372.7983139018374,
          5230.05365464384
        ]
      },
      "properties": {
        "elevation_m": 1886.31787109375,
        "kind": "tree"
      }
    },
    {
      "type": "Feature",
      "geometry": {
        "type": "Point",
        "coordinates": [
          748.1538199737909,
          4855.512642440274
        ]
      },
      "properties": {
        "elevation_m": 1643.8328857421875,
        "kind": "tree"
      }
    },
    {
      "type": "Feature",
      "geometry": {
        "type": "Point",
        "coordinates": [
          4572.513236763033,
          2678.9526177003704
        ]
      },
      "properties": {
        "elevation_m": 1726.91650390625,
        "kind": "tree"
      }
    },
    {
      "type": "Feature",
      "geometry": {
        "type": "Point",
        "coordinates": [
          3517.0790855552937,
          5395.795106909584
        ]
      },
      "properties": {
        "elevation_m": 1738.157470703125,
        "kind": "tree"
      }
    },
    {
      "type": "Feature",
      "geometry": {
        "type": "Point",
        "coordinates": [
          4571.955616466725,
          5849.928092073938
        ]
      },
      "properties": {
        "elevation_m": 1749.7801513671875,
        "kind": "tree"
      }
    },
    {
      "type": "Feature",
      "geometry": {
        "type": "Point",
        "coordinates": [
          4752.647645370403,
          6335.647319332602
        ]
      },
      "properties": {
        "elevation_m": 1683.225341796875,
        "kind": "tree"
      }
    },
    {
      "type": "Feature",
      "geometry": {
        "type": "Point",
        "coordinates": [
          1700.487775870345,
          3638.680123763815
        ]
      },
      "properties": {
        "elevation_m": 1900.7669677734375,
        "kind": "tree"
      }
    },
    {
      "type": "Feature",
      "geometry": {
        "type": "Point",
        "coordinates": [
          4564.095974640746,
          1217.5834381239083
        ]
      },
      "properties": {
        "elevation_m": 1817.84326171875,
        "kind": "tree"
      }
    },
    {
      "type": "Feature",
      "geometry": {
        "type": "Point",
        "coordinates": [
          2131.8548214546063,
          1923.7895783124459
        ]
      },
      "properties": {
        "elevation_m": 1976.764892578125,
        "kind": "tree"
      }
    },
    {
      "type": "Feature",
      "geometry": {
        "type": "Point",
        "coordinates": [
          2978.677923030332,
          760.1476085082677
        ]
      },
      "properties": {
        "elevation_m": 1868.76318359375,
        "kind": "tree"
      }
    },
    {
      "type": "Feature",
      "geometry": {
        "type": "Point",
        "coordinates": [
          3033.256382655603,
          234.8824018929772
        ]
      },
      "properties": {
        "elevation_m": 1886.6390380859375,
        "kind": "tree"
      }
    },
    {
      "type": "Feature",
      "geometry": {
        "type": "Point",
        "coordinates": [
          2938.8548493873955,
          3498.174969675248
        ]
      },
      "properties": {
        "elevation_m": 1880.2108154296875,
        "kind": "tree"
      }
    },
    {
      "type": "Feature",
      "geometry": {
        "type": "Point",
        "coordinates": [
          1564.5616082223823,
          4635.417364880317
        ]
      },
      "properties": {
        "elevation_m": 1769.2689208984375,
        "kind": "tree"
      }
    },
    {
      "type": "Feature",
      "geometry": {
        "type": "Point",
        "coordinates": [
          166.669177679403,
          1870.1492160716261
        ]
      },
      "properties": {
        "elevation_m": 1933.1783447265625,
        "kind": "tree"
      }
    },
    {
      "type": "Feature",
      "geometry": {
        "type": "Point",
        "coordinates": [
          3353.977295276622,
          6016.79876782789
        ]
      },
      "properties": {
        "elevation_m": 1799.884521484375,
        "kind": "tree"
      }
    },
    {
      "type": "Feature",
      "geometry": {
        "type": "Point",
        "coordinates": [
          1410.6841909021662,
          3319.3997486385506
        ]
      },
      "properties": {
        "elevation_m": 1815.09912109375,
        "kind": "tree"
      }
    },
    {
      "type": "Feature",
      "geometry": {
        "type": "Point",
        "coordinates": [
          4044.2965743537684,
          3490.7075921221376
        ]
      },
      "properties": {
        "elevation_m": 1725.9503173828125,
        "kind": "tree"
      }
    },
    {
      "type": "Feature",
      "geometry": {
        "type": "Point",
        "coordinates": [
          3598.3824279718765,
          4983.318640369324
        ]
      },
      "properties": {
        "elevation_m": 1723.7965087890625,
        "kind": "tree"
      }
    },
    {
      "type": "Feature",
      "geometry": {
        "type": "Point",
        "coordinates": [
          297.9434630768766,
          1346.3937207957895
        ]
      },
      "properties": {
        "elevation_m": 1810.1939697265625,
        "kind": "tree"
      }
    },
    {
      "type": "Feature",
      "geometry": {
        "type": "Point",
        "coordinates": [
          1794.611546246636,
          6522.402914567362
        ]
      },
      "properties": {
        "elevation_m": 1537.647216796875,
        "kind": "tree"
      }
    },
    {
      "type": "Feature",
      "geometry": {
        "type": "Point",
        "coordinates": [
          5648.3431600992135,
          1033.6309562217677
        ]
      },
      "properties": {
        "elevation_m": 1796.6134033203125,
        "kind": "tree"
      }
    },
    {
      "type": "Feature",
      "geometry": {
        "type": "Point",
        "coordinates": [
          5338.537251725529,
          3351.829404663429
        ]
      },
      "properties": {
        "elevation_m": 1706.833251953125,
        "kind": "tree"
      }
    },
    {
      "type": "Feature",
      "geometry": {
        "type": "Point",
        "coordinates": [
          2168.119926480231,
          4587.040703805144
        ]
      },
      "properties": {
        "elevation_m": 1835.9429931640625,
        "kind": "tree"
      }
    },
    {
      "type": "Feature",
      "geometry": {
        "type": "Point",
        "coordinates": [
          3289.1659008153406,
          1336.8027451236637
        ]
      },
      "properties": {
        "elevation_m": 1894.04638671875,
        "kind": "tree"
      }
    },
    {
      "type": "Feature",
      "geometry": {
        "type": "Point",
        "coordinates": [
          6610.934495166877,
          2568.21603211042
        ]
      },
      "properties": {
        "elevation_m": 1730.9710693359375,
        "kind": "tree"
      }
    },
    {
      "type": "Feature",
      "geometry": {
        "type": "Point",
        "coordinates": [
          1844.0639600346465,
          2129.3601602911026
        ]
      },
      "properties": {
        "elevation_m": 2005.299072265625,
        "kind": "tree"
      }
    },
    {
      "type": "Feature",
      "geometry": {
        "type": "Point",
        "coordinates": [
          6046.323453866827,
          5246.494453313583
        ]
      },
      "properties": {
        "elevation_m": 1636.3607177734375,
        "kind": "tree"
      }
    },
    {
      "type": "Feature",
      "geometry": {
        "type": "Point",
        "coordinates": [
          1034.666081557132,
          2987.467642494025
        ]
      },
      "properties": {
        "elevation_m": 1872.0443115234375,
        "kind": "tree"
      }
    },
    {
      "type": "Feature",
      "geometry": {
        "type": "Point",
        "coordinates": [
          792.6313191509253,
          4548.458936194507
        ]
      },
      "properties": {
        "elevation_m": 1660.1138916015625,
        "kind": "tree"
      }
    },
    {
      "type": "Feature",
      "geometry": {
        "type": "Point",
        "coordinates": [
          5747.780271770004,
          5400.5631725325175
        ]
      },
      "properties": {
        "elevation_m": 1644.5621337890625,
        "kind": "tree"
      }
    },
    {
      "type": "Feature",
      "geometry": {
        "type": "Point",
        "coordinates": [
          1425.8015406718628,
          3164.236483848746
        ]
      },
      "properties": {
        "elevation_m": 1837.519287109375,
        "kind": "tree"
      }
    },
    {
      "type": "Feature",
      "geometry": {
        "type": "Point",
        "coordinates": [
          3989.384013204449,
          1126.4490856053517
        ]
      },
      "properties": {
        "elevation_m": 1786.40625,
        "kind": "tree"
      }
    },
    {
      "type": "Feature",
      "geometry": {
        "type": "Point",
        "coordinates": [
          5164.693276917632,
          2351.060401140687
        ]
      },
      "properties": {
        "elevation_m": 1798.5589599609375,
        "kind": "tree"
      }
    },
    {
      "type": "Feature",
      "geometry": {
        "type": "Point",
        "coordinates": [
          1578.8308734990537,
          1598.3480779045874
        ]
      },
      "properties": {
        "elevation_m": 1875.08056640625,
        "kind": "tree"
      }
    },
    {
      "type": "Feature",
      "geometry": {
        "type": "Point",
        "coordinates": [
          1143.498406777723,
          6104.362281702455
        ]
      },
      "properties": {
        "elevation_m": 1584.3101806640625,
        "kind": "tree"
      }
    },
    {
      "type": "Feature",
      "geometry": {
        "type": "Point",
        "coordinates": [
          4047.7798201661562,
          5982.110284602412
        ]
      },
      "properties": {
        "elevation_m": 1608.8062744140625,
        "kind": "tree"
      }
    },
    {
      "type": "Feature",
      "geometry": {
        "type": "Point",
        "coordinates": [
          2875.0161859065593,
          3090.930824700951
        ]
      },
      "properties": {
        "elevation_m": 1896.6522216796875,
        "kind": "tree"
      }
    },
    {
      "type": "Feature",
      "geometry": {
        "type": "Point",
        "coordinates": [
          6645.529167321221,
          503.85255342023817
        ]
      },
      "properties": {
        "elevation_m": 1392.7498779296875,
        "kind": "tree"
      }
    },
    {
      "type": "Feature",
      "geometry": {
        "type": "Point",
        "coordinates": [
          1406.764831503216,
          4715.516408701093
        ]
      },
      "properties": {
        "elevation_m": 1718.36669921875,
        "kind": "tree"
      }
    },
    {
      "type": "Feature",
      "geometry": {
        "type": "Point",
        "coordinates": [
          5875.861129769557,
          4757.336171937196
        ]
      },
      "properties": {
        "elevation_m": 1706.396484375,
        "kind": "tree"
      }
    },
    {
      "type": "Feature",
      "geometry": {
        "type": "Point",
        "coordinates": [
          6115.739293755335,
          449.5350769937235
        ]
      },
      "properties": {
        "elevation_m": 1566.73583984375,
        "kind": "tree"
      }
    },
    {
      "type": "Feature",
      "geometry": {
        "type": "Point",
        "coordinates": [
          648.0430522971456,
          1264.1586032983164
        ]
      },
      "properties": {
        "elevation_m": 1804.8883056640625,
        "kind": "tree"
      }
    },
    {
      "type": "Feature",
      "geometry": {
        "type": "Point",
        "coordinates": [
          1095.1355982891469,
          4152.281645913754
        ]
      },
      "properties": {
        "elevation_m": 1785.443603515625,
        "kind": "tree"
      }
    },
    {
      "type": "Feature",
      "geometry": {
        "type": "Point",
        "coordinates": [
          991.1453555827422,
          1321.4621098059276
        ]
      },
      "properties": {
        "elevation_m": 1765.0587158203125,
        "kind": "tree"
      }
    },
    {
      "type": "Feature",
      "geometry": {
        "type": "Point",
        "coordinates": [
          3933.874629353792,
          590.4777435938536
        ]
      },
      "properties": {
        "elevation_m": 1825.495361328125,
        "kind": "tree"
      }
    },
    {
      "type": "Feature",
      "geometry": {
        "type": "Point",
        "coordinates": [
          5806.513943954633,
          1753.3004138896515
        ]
      },
      "properties": {
        "elevation_m": 1801.2618408203125,
        "kind": "tree"
      }
    },
    {
      "type": "Feature",
      "geometry": {
        "type": "Point",
        "coordinates": [
          5593.114387394322,
          3540.343945326514
        ]
      },
      "properties": {
        "elevation_m": 1683.5994873046875,
        "kind": "tree"
      }
    },
    {
      "type": "Feature",
      "geometry": {
        "type": "Point",
        "coordinates": [
          2719.943969370176,
          384.008052051797
        ]
      },
      "properties": {
        "elevation_m": 1864.7801513671875,
        "kind": "tree"
      }
    },
    {
      "type": "Feature",
      "geometry": {
        "type": "Point",
        "coordinates": [
          5228.927832342914,
          5751.05501215036
        ]
      },
      "properties": {
        "elevation_m": 1625.136474609375,
        "kind": "tree"
      }
    },
    {
      "type": "Feature",
      "geometry": {
        "type": "Point",
        "coordinates": [
          1387.3335036666706,
          3506.5240177613614
        ]
      },
      "properties": {
        "elevation_m": 1820.603515625,
        "kind": "tree"
      }
    },
    {
      "type": "Feature",
      "geometry": {
        "type": "Point",
        "coordinates": [
          367.98069380549884,
          5191.291332874721
        ]
      },
      "properties": {
        "elevation_m": 1581.7763671875,
        "kind": "tree"
      }
    },
    {
      "type": "Feature",
      "geometry": {
        "type": "Point",
        "coordinates": [
          5781.944983874519,
          3480.5058605973813
        ]
      },
      "properties": {
        "elevation_m": 1665.8291015625,
        "kind": "tree"
      }
    },
    {
      "type": "Feature",
      "geometry": {
        "type": "Point",
        "coordinates": [
          5525.228088821492,
          6685.483501253842
        ]
      },
      "properties": {
        "elevation_m": 1516.3267822265625,
        "kind": "tree"
      }
    },
    {
      "type": "Feature",
      "geometry": {
        "type": "Point",
        "coordinates": [
          164.03818867186578,
          3478.150822875566
        ]
      },
      "properties": {
        "elevation_m": 1854.262939453125,
        "kind": "tree"
      }
    },
    {
      "type": "Feature",
      "geometry": {
        "type": "Point",
        "coordinates": [
          354.43920968961197,
          831.6199361612817
        ]
      },
      "properties": {
        "elevation_m": 1797.3740234375,
        "kind": "tree"
      }
    },
    {
      "type": "Feature",
      "geometry": {
        "type": "Point",
        "coordinates": [
          5366.68296902678,
          2925.3554671861575
        ]
      },
      "properties": {
        "elevation_m": 1757.843017578125,
        "kind": "tree"
      }
    },
    {
      "type": "Feature",
      "geometry": {
        "type": "Point",
        "coordinates": [
          4935.725815157957,
          4348.541463704025
        ]
      },
      "properties": {
        "elevation_m": 1827.0723876953125,
        "kind": "tree"
      }
    },
    {
      "type": "Feature",
      "geometry": {
        "type": "Point",
        "coordinates": [
          3946.7546804617523,
          3758.96391034391
        ]
      },
      "properties": {
        "elevation_m": 1751.6988525390625,
        "kind": "tree"
      }
    },
    {
      "type": "Feature",
      "geometry": {
        "type": "Point",
        "coordinates": [
          5969.919222597919,
          4308.94904056732
        ]
      },
      "properties": {
        "elevation_m": 1708.1307373046875,
        "kind": "tree"
      }
    },
    {
      "type": "Feature",
      "geometry": {
        "type": "Point",
        "coordinates": [
          5823.5764576765,
          6087.281808875937
        ]
      },
      "properties": {
        "elevation_m": 1558.9578857421875,
        "kind": "tree"
      }
    },
    {
      "type": "Feature",
      "geometry": {
        "type": "Point",
        "coordinates": [
          2117.210696687089,
          4008.094810422595
        ]
      },
      "properties": {
        "elevation_m": 1916.2269287109375,
        "kind": "tree"
      }
    },
    {
      "type": "Feature",
      "geometry": {
        "type": "Point",
        "coordinates": [
          990.6793121910157,
          4842.842058447756
        ]
      },
      "properties": {
        "elevation_m": 1681.351318359375,
        "kind": "tree"
      }
    },
    {
      "type": "Feature",
      "geometry": {
        "type": "Point",
        "coordinates": [
          5616.43536786712,
          4933.661962116107
        ]
      },
      "properties": {
        "elevation_m": 1686.9949951171875,
        "kind": "tree"
      }
    },
    {
      "type": "Feature",
      "geometry": {
        "type": "Point",
        "coordinates": [
          568.7292352975908,
          4352.339472232165
        ]
      },
      "properties": {
        "elevation_m": 1670.886962890625,
        "kind": "tree"
      }
    },
    {
      "type": "Feature",
      "geometry": {
        "type": "Point",
        "coordinates": [
          1611.6575293590101,
          3460.7083905986333
        ]
      },
      "properties": {
        "elevation_m": 1883.2613525390625,
        "kind": "tree"
      }
    },
    {
      "type": "Feature",
      "geometry": {
        "type": "Point",
        "coordinates": [
          3867.0620747292505,
          1401.4319762243008
        ]
      },
      "properties": {
        "elevation_m": 1777.2103271484375,
        "kind": "tree"
      }
    },
    {
      "type": "Feature",
      "geometry": {
        "type": "Point",
        "coordinates": [
          535.8274076366843,
          3188.9504724496983
        ]
      },
      "properties": {
        "elevation_m": 1840.5762939453125,
        "kind": "tree"
      }
    },
    {
      "type": "Feature",
      "geometry": {
        "type": "Point",
        "coordinates": [
          4037.3950693294287,
          2699.4978864241
        ]
      },
      "properties": {
        "elevation_m": 1735.7452392578125,
        "kind": "tree"
      }
    },
    {
      "type": "Feature",
      "geometry": {
        "type": "Point",
        "coordinates": [
          5417.547435915363,
          6097.133310853727
        ]
      },
      "properties": {
        "elevation_m": 1633.6414794921875,
        "kind": "tree"
      }
    },
    {
      "type": "Feature",
      "geometry": {
        "type": "Point",
        "coordinates": [
          4277.90826445453,
          5949.017965059249
        ]
      },
      "properties": {
        "elevation_m": 1679.4708251953125,
        "kind": "tree"
      }
    },
    {
      "type": "Feature",
      "geometry": {
        "type": "Point",
        "coordinates": [
          451.0172345751815,
          1884.541499383069
        ]
      },
      "properties": {
        "elevation_m": 1867.1690673828125,
        "kind": "tree"
      }
    },
    {
      "type": "Feature",
      "geometry": {
        "type": "Point",
        "coordinates": [
          5682.729437176849,
          1076.9563205313812
        ]
      },
      "properties": {
        "elevation_m": 1806.605712890625,
        "kind": "tree"
      }
    },
    {
      "type": "Feature",
      "geometry": {
        "type": "Point",
        "coordinates": [
          3800.0529640632662,
          2724.240242669062
        ]
      },
      "properties": {
        "elevation_m": 1779.868896484375,
        "kind": "tree"
      }
    },
    {
      "type": "Feature",
      "geometry": {
        "type": "Point",
        "coordinates": [
          1031.9539037860268,
          5576.078085833247
        ]
      },
      "properties": {
        "elevation_m": 1646.394287109375,
        "kind": "tree"
      }
    },
    {
      "type": "Feature",
      "geometry": {
        "type": "Point",
        "coordinates": [
          4307.758271600346,
          1208.6650190807222
        ]
      },
      "properties": {
        "elevation_m": 1782.9093017578125,
        "kind": "tree"
      }
    },
    {
      "type": "Feature",
      "geometry": {
        "type": "Point",
        "coordinates": [
          4550.935322630449,
          4167.9199019805565
        ]
      },
      "properties": {
        "elevation_m": 1776.831787109375,
        "kind": "tree"
      }
    },
    {
      "type": "Feature",
      "geometry": {
        "type": "Point",
        "coordinates": [
          3058.614443748211,
          2173.004375954015
        ]
      },
      "properties": {
        "elevation_m": 1781.2291259765625,
        "kind": "tree"
      }
    },
    {
      "type": "Feature",
      "geometry": {
        "type": "Point",
        "coordinates": [
          2193.132578782594,
          511.57763472661605
        ]
      },
      "properties": {
        "elevation_m": 1869.088134765625,
        "kind": "tree"
      }
    },
    {
      "type": "Feature",
      "geometry": {
        "type": "Point",
        "coordinates": [
          5390.047419921279,
          6389.7190919585855
        ]
      },
      "properties": {
        "elevation_m": 1605.5465087890625,
        "kind": "tree"
      }
    },
    {
      "type": "Feature",
      "geometry": {
        "type": "Point",
        "coordinates": [
          4641.940562696304,
          884.3855609181833
        ]
      },
      "properties": {
        "elevation_m": 1803.0,
        "kind": "tree"
      }
    },
    {
      "type": "Feature",
      "geometry": {
        "type": "Point",
        "coordinates": [
          5382.338481787887,
          4044.800754687899
        ]
      },
      "properties": {
        "elevation_m": 1725.360107421875,
        "kind": "tree"
      }
    },
    {
      "type": "Feature",
      "geometry": {
        "type": "Point",
        "coordinates": [
          152.37004029528765,
          4634.839284365518
        ]
      },
      "properties": {
        "elevation_m": 1626.2242431640625,
        "kind": "tree"
      }
    },
    {
      "type": "Feature",
      "geometry": {
        "type": "Point",
        "coordinates": [
          3806.3397119268325,
          2298.3661150865305
        ]
      },
      "properties": {
        "elevation_m": 1727.0924072265625,
        "kind": "tree"
      }
    },
    {
      "type": "Feature",
      "geometry": {
        "type": "Point",
        "coordinates": [
          1797.7518418979016,
          3944.0293620807556
        ]
      },
      "properties": {
        "elevation_m": 1892.8900146484375,
        "kind": "tree"
      }
    },
    {
      "type": "Feature",
      "geometry": {
        "type": "Point",
        "coordinates": [
          1647.960472319785,
          4006.0225843130015
        ]
      },
      "properties": {
        "elevation_m": 1865.019775390625,
        "kind": "tree"
      }
    },
    {
      "type": "Feature",
      "geometry": {
        "type": "Point",
        "coordinates": [
          3430.544270772076,
          1334.7261487617882
        ]
      },
      "properties": {
        "elevation_m": 1873.4649658203125,
        "kind": "tree"
      }
    },
    {
      "type": "Feature",
      "geometry": {
        "type": "Point",
        "coordinates": [
          5147.166505687422,
          2695.5139316434966
        ]
      },
      "properties": {
        "elevation_m": 1771.467041015625,
        "kind": "tree"
      }
    },
    {
      "type": "Feature",
      "geometry": {
        "type": "Point",
        "coordinates": [
          5830.367235345039,
          6662.911472140652
        ]
      },
      "properties": {
        "elevation_m": 1507.91015625,
        "kind": "tree"
      }
    },
    {
      "type": "Feature",
      "geometry": {
        "type": "Point",
        "coordinates": [
          5212.549555058451,
          3978.7544278786154
        ]
      },
      "properties": {
        "elevation_m": 1752.791015625,
        "kind": "tree"
      }
    },
    {
      "type": "Feature",
      "geometry": {
        "type": "Point",
        "coordinates": [
          2258.3596004318933,
          3037.324530301958
        ]
      },
      "properties": {
        "elevation_m": 1939.7032470703125,
        "kind": "tree"
      }
    },
    {
      "type": "Feature",
      "geometry": {
        "type": "Point",
        "coordinates": [
          2558.499913852988,
          2971.6992483812933
        ]
      },
      "properties": {
        "elevation_m": 1987.3619384765625,
        "kind": "tree"
      }
    },
    {
      "type": "Feature",
      "geometry": {
        "type": "Point",
        "coordinates": [
          5938.6895351628955,
          4852.919697136196
        ]
      },
      "properties": {
        "elevation_m": 1695.96533203125,
        "kind": "tree"
      }
    },
    {
      "type": "Feature",
      "geometry": {
        "type": "Point",
        "coordinates": [
          2939.7437332249224,
          3130.475784254542
        ]
      },
      "properties": {
        "elevation_m": 1878.124267578125,
        "kind": "tree"
      }
    },
    {
      "type": "Feature",
      "geometry": {
        "type": "Point",
        "coordinates": [
          4234.375183682404,
          4909.624988401534
        ]
      },
      "properties": {
        "elevation_m": 1760.984130859375,
        "kind": "tree"
      }
    },
    {
      "type": "Feature",
      "geometry": {
        "type": "Point",
        "coordinates": [
          1349.7401518093634,
          164.0544180607874
        ]
      },
      "properties": {
        "elevation_m": 1764.6806640625,
        "kind": "tree"
      }
    },
    {
      "type": "Feature",
      "geometry": {
        "type": "Point",
        "coordinates": [
          3500.0961233915277,
          6235.547778380265
        ]
      },
      "properties": {
        "elevation_m": 1758.089111328125,
        "kind": "tree"
      }
    },
    {
      "type": "Feature",
      "geometry": {
        "type": "Point",
        "coordinates": [
          3982.3268382387305,
          2835.7725303366988
        ]
      },
      "properties": {
        "elevation_m": 1771.716552734375,
        "kind": "tree"
      }
    },
    {
      "type": "Feature",
      "geometry": {
        "type": "Point",
        "coordinates": [
          5982.155374235773,
          2848.2352965082496
        ]
      },
      "properties": {
        "elevation_m": 1771.2060546875,
        "kind": "tree"
      }
    },
    {
      "type": "Feature",
      "geometry": {
        "type": "Point",
        "coordinates": [
          3488.0366306395385,
          4000.0282413990444
        ]
      },
      "properties": {
        "elevation_m": 1887.346923828125,
        "kind": "tree"
      }
    },
    {
      "type": "Feature",
      "geometry": {
        "type": "Point",
        "coordinates": [
          941.1602998456883,
          6205.276252725674
        ]
      },
      "properties": {
        "elevation_m": 1628.983642578125,
        "kind": "tree"
      }
    },
    {
      "type": "Feature",
      "geometry": {
        "type": "Point",
        "coordinates": [
          2391.322986568118,
          6678.914603303592
        ]
      },
      "properties": {
        "elevation_m": 1614.7396240234375,
        "kind": "tree"
      }
    },
    {
      "type": "Feature",
      "geometry": {
        "type": "Point",
        "coordinates": [
          1020.3068033362974,
          4647.3537859821445
        ]
      },
      "properties": {
        "elevation_m": 1696.720703125,
        "kind": "tree"
      }
    },
    {
      "type": "Feature",
      "geometry": {
        "type": "Point",
        "coordinates": [
          5152.30235899574,
          1860.552231744408
        ]
      },
      "properties": {
        "elevation_m": 1845.0369873046875,
        "kind": "tree"
      }
    },
    {
      "type": "Feature",
      "geometry": {
        "type": "Point",
        "coordinates": [
          4435.567126004326,
          5548.759897644463
        ]
      },
      "properties": {
        "elevation_m": 1698.9049072265625,
        "kind": "tree"
      }
    },
    {
      "type": "Feature",
      "geometry": {
        "type": "Point",
        "coordinates": [
          5824.6361852006785,
          502.88690603691896
        ]
      },
      "properties": {
        "elevation_m": 1685.1737060546875,
        "kind": "tree"
      }
    },
    {
      "type": "Feature",
      "geometry": {
        "type": "Point",
        "coordinates": [
          2335.212026075775,
          2439.085004279945
        ]
      },
      "properties": {
        "elevation_m": 1961.2943115234375,
        "kind": "tree"
      }
    },
    {
      "type": "Feature",
      "geometry": {
        "type": "Point",
        "coordinates": [
          2792.9861151761706,
          2357.092382044691
        ]
      },
      "properties": {
        "elevation_m": 1830.5921630859375,
        "kind": "tree"
      }
    },
    {
      "type": "Feature",
      "geometry": {
        "type": "Point",
        "coordinates": [
          3870.6003433407705,
          2111.8212008112064
        ]
      },
      "properties": {
        "elevation_m": 1769.30810546875,
        "kind": "tree"
      }
    },
    {
      "type": "Feature",
      "geometry": {
        "type": "Point",
        "coordinates": [
          5912.070333825443,
          2880.0939910133893
        ]
      },
      "properties": {
        "elevation_m": 1759.9500732421875,
        "kind": "tree"
      }
    },
    {
      "type": "Feature",
      "geometry": {
        "type": "Point",
        "coordinates": [
          3182.4747698722463,
          5879.511753817311
        ]
      },
      "properties": {
        "elevation_m": 1866.77783203125,
        "kind": "tree"
      }
    },
    {
      "type": "Feature",
      "geometry": {
        "type": "Point",
        "coordinates": [
          3886.72663908001,
          3160.224521103476
        ]
      },
      "properties": {
        "elevation_m": 1767.83349609375,
        "kind": "tree"
      }
    },
    {
      "type": "Feature",
      "geometry": {
        "type": "Point",
        "coordinates": [
          2668.2075667853856,
          1323.0042442415358
        ]
      },
      "properties": {
        "elevation_m": 1818.0643310546875,
        "kind": "tree"
      }
    },
    {
      "type": "Feature",
      "geometry": {
        "type": "Point",
        "coordinates": [
          2882.0984257402174,
          913.0409837052291
        ]
      },
      "properties": {
        "elevation_m": 1889.6424560546875,
        "kind": "tree"
      }
    },
    {
      "type": "Feature",
      "geometry": {
        "type": "Point",
        "coordinates": [
          6420.987306036168,
          124.17839066833275
        ]
      },
      "properties": {
        "elevation_m": 1353.859375,
        "kind": "tree"
      }
    },
    {
      "type": "Feature",
      "geometry": {
        "type": "Point",
        "coordinates": [
          426.11657153368276,
          1848.5028186990355
        ]
      },
      "properties": {
        "elevation_m": 1862.5335693359375,
        "kind": "tree"
      }
    },
    {
      "type": "Feature",
      "geometry": {
        "type": "Point",
        "coordinates": [
          1931.0804953636411,
          3338.5773431612047
        ]
      },
      "properties": {
        "elevation_m": 1922.9091796875,
        "kind": "tree"
      }
    },
    {
      "type": "Feature",
      "geometry": {
        "type": "Point",
        "coordinates": [
          1435.5491095578761,
          5057.193980211168
        ]
      },
      "properties": {
        "elevation_m": 1769.7974853515625,
        "kind": "tree"
      }
    },
    {
      "type": "Feature",
      "geometry": {
        "type": "Point",
        "coordinates": [
          6428.0463810076535,
          1534.410449807798
        ]
      },
      "properties": {
        "elevation_m": 1688.0111083984375,
        "kind": "tree"
      }
    },
    {
      "type": "Feature",
      "geometry": {
        "type": "Point",
        "coordinates": [
          831.1867504752604,
          4568.8660722874965
        ]
      },
      "properties": {
        "elevation_m": 1673.853515625,
        "kind": "tree"
      }
    },
    {
      "type": "Feature",
      "geometry": {
        "type": "Point",
        "coordinates": [
          4207.22998926404,
          2338.639215634373
        ]
      },
      "properties": {
        "elevation_m": 1721.555419921875,
        "kind": "tree"
      }
    },
    {
      "type": "Feature",
      "geometry": {
        "type": "Point",
        "coordinates": [
          1945.6945937806058,
          1244.4100451247882
        ]
      },
      "properties": {
        "elevation_m": 1844.4759521484375,
        "kind": "tree"
      }
    },
    {
      "type": "Feature",
      "geometry": {
        "type": "Point",
        "coordinates": [
          1879.4062885277006,
          372.8304698967888
        ]
      },
      "properties": {
        "elevation_m": 1864.830078125,
        "kind": "tree"
      }
    },
    {
      "type": "Feature",
      "geometry": {
        "type": "Point",
        "coordinates": [
          2254.175751042201,
          4878.280397909344
        ]
      },
      "properties": {
        "elevation_m": 1813.994140625,
        "kind": "tree"
      }
    },
    {
      "type": "Feature",
      "geometry": {
        "type": "Point",
        "coordinates": [
          3225.372054533462,
          2726.6322573495477
        ]
      },
      "properties": {
        "elevation_m": 1858.4906005859375,
        "kind": "tree"
      }
    },
    {
      "type": "Feature",
      "geometry": {
        "type": "Point",
        "coordinates": [
          3970.815107778717,
          3151.671985657241
        ]
      },
      "properties": {
        "elevation_m": 1765.1859130859375,
        "kind": "tree"
      }
    },
    {
      "type": "Feature",
      "geometry": {
        "type": "Point",
        "coordinates": [
          6200.691050359843,
          5266.329344430647
        ]
      },
      "properties": {
        "elevation_m": 1652.9925537109375,
        "kind": "tree"
      }
    },
    {
      "type": "Feature",
      "geometry": {
        "type": "Point",
        "coordinates": [
          2655.3494551184085,
          1115.998100164625
        ]
      },
      "properties": {
        "elevation_m": 1847.63623046875,
        "kind": "tree"
      }
    },
    {
      "type": "Feature",
      "geometry": {
        "type": "Point",
        "coordinates": [
          5206.989906355679,
          5272.385897965505
        ]
      },
      "properties": {
        "elevation_m": 1662.3037109375,
        "kind": "tree"
      }
    },
    {
      "type": "Feature",
      "geometry": {
        "type": "Point",
        "coordinates": [
          6004.631947663057,
          3671.202776529452
        ]
      },
      "properties": {
        "elevation_m": 1650.9013671875,
        "kind": "tree"
      }
    },
    {
      "type": "Feature",
      "geometry": {
        "type": "Point",
        "coordinates": [
          3583.375182596963,
          5367.736500558596
        ]
      },
      "properties": {
        "elevation_m": 1708.878173828125,
        "kind": "tree"
      }
    },
    {
      "type": "Feature",
      "geometry": {
        "type": "Point",
        "coordinates": [
          2356.5329949677644,
          1207.7021642301597
        ]
      },
      "properties": {
        "elevation_m": 1798.3623046875,
        "kind": "tree"
      }
    },
    {
      "type": "Feature",
      "geometry": {
        "type": "Point",
        "coordinates": [
          5446.395759592249,
          6703.912280232984
        ]
      },
      "properties": {
        "elevation_m": 1544.5577392578125,
        "kind": "tree"
      }
    },
    {
      "type": "Feature",
      "geometry": {
        "type": "Point",
        "coordinates": [
          124.31630899201261,
          5072.328585486484
        ]
      },
      "properties": {
        "elevation_m": 1620.62890625,
        "kind": "tree"
      }
    },
    {
      "type": "Feature",
      "geometry": {
        "type": "Point",
        "coordinates": [
          775.4437368163833,
          2257.4826301194526
        ]
      },
      "properties": {
        "elevation_m": 1930.2120361328125,
        "kind": "tree"
      }
    },
    {
      "type": "Feature",
      "geometry": {
        "type": "Point",
        "coordinates": [
          1568.437647893189,
          1560.070031033666
        ]
      },
      "properties": {
        "elevation_m": 1865.118896484375,
        "kind": "tree"
      }
    },
    {
      "type": "Feature",
      "geometry": {
        "type": "Point",
        "coordinates": [
          6435.310956976064,
          3781.529954389612
        ]
      },
      "properties": {
        "elevation_m": 1673.1705322265625,
        "kind": "tree"
      }
    },
    {
      "type": "Feature",
      "geometry": {
        "type": "Point",
        "coordinates": [
          2085.8539354317068,
          2532.844461375449
        ]
      },
      "properties": {
        "elevation_m": 1949.9908447265625,
        "kind": "tree"
      }
    },
    {
      "type": "Feature",
      "geometry": {
        "type": "Point",
        "coordinates": [
          5889.652734468502,
          6235.337631815593
        ]
      },
      "properties": {
        "elevation_m": 1574.43310546875,
        "kind": "tree"
      }
    },
    {
      "type": "Feature",
      "geometry": {
        "type": "Point",
        "coordinates": [
          6259.689061483744,
          5567.7568418468345
        ]
      },
      "properties": {
        "elevation_m": 1648.724853515625,
        "kind": "tree"
      }
    },
    {
      "type": "Feature",
      "geometry": {
        "type": "Point",
        "coordinates": [
          5021.5328364513825,
          4013.120491368647
        ]
      },
      "properties": {
        "elevation_m": 1799.6558837890625,
        "kind": "tree"
      }
    },
    {
      "type": "Feature",
      "geometry": {
        "type": "Point",
        "coordinates": [
          5196.199743880938,
          2282.6977948372232
        ]
      },
      "properties": {
        "elevation_m": 1801.857421875,
        "kind": "tree"
      }
    },
    {
      "type": "Feature",
      "geometry": {
        "type": "Point",
        "coordinates": [
          3579.0813637955075,
          3340.2388468139297
        ]
      },
      "properties": {
        "elevation_m": 1801.599365234375,
        "kind": "tree"
      }
    },
    {
      "type": "Feature",
      "geometry": {
        "type": "Point",
        "coordinates": [
          4970.210772885311,
          6542.153682221484
        ]
      },
      "properties": {
        "elevation_m": 1624.404296875,
        "kind": "tree"
      }
    },
    {
      "type": "Feature",
      "geometry": {
        "type": "Point",
        "coordinates": [
          3028.7270243910184,
          4728.828342566641
        ]
      },
      "properties": {
        "elevation_m": 1854.7008056640625,
        "kind": "tree"
      }
    },
    {
      "type": "Feature",
      "geometry": {
        "type": "Point",
        "coordinates": [
          1440.1893242442309,
          411.92148726744114
        ]
      },
      "properties": {
        "elevation_m": 1772.0257568359375,
        "kind": "tree"
      }
    },
    {
      "type": "Feature",
      "geometry": {
        "type": "Point",
        "coordinates": [
          6144.4639301602265,
          3668.4165070696204
        ]
      },
      "properties": {
        "elevation_m": 1671.94921875,
        "kind": "tree"
      }
    },
    {
      "type": "Feature",
      "geometry": {
        "type": "Point",
        "coordinates": [
          5104.198676019048,
          3807.7209920514983
        ]
      },
      "properties": {
        "elevation_m": 1774.90625,
        "kind": "tree"
      }
    },
    {
      "type": "Feature",
      "geometry": {
        "type": "Point",
        "coordinates": [
          5799.9302066150685,
          5454.484965351633
        ]
      },
      "properties": {
        "elevation_m": 1627.2022705078125,
        "kind": "tree"
      }
    },
    {
      "type": "Feature",
      "geometry": {
        "type": "Point",
        "coordinates": [
          1164.871980581477,
          3463.623066848418
        ]
      },
      "properties": {
        "elevation_m": 1783.726806640625,
        "kind": "tree"
      }
    },
    {
      "type": "Feature",
      "geometry": {
        "type": "Point",
        "coordinates": [
          3660.596197804632,
          1608.260776131375
        ]
      },
      "properties": {
        "elevation_m": 1790.4447021484375,
        "kind": "tree"
      }
    },
    {
      "type": "Feature",
      "geometry": {
        "type": "Point",
        "coordinates": [
          1562.2504825793956,
          5272.3674986177775
        ]
      },
      "properties": {
        "elevation_m": 1784.7213134765625,
        "kind": "tree"
      }
    }
  ]
}