{"type": "FeatureCollection", "features": [{"type": "Feature", "properties": {"name": "Pal-Arinsal", "winter_sports_id": "987243867", "source": "ski_areas_1000ft_buffer", "buffer_ft": 1000, "coordinate_space": "game local meters (east, north) from scene origin"}, "geometry": {"type": "Polygon", "coordinates": [[[842.2372456768644, 3363.470031535253], [418.6358204205171, 5125.360851175152], [408.5976940902183, 5167.132162901573], [402.76148189470405, 5198.608145713806], [400.256550316466, 5230.522471411154], [401.1104946367559, 5262.523559610359], [405.3139074794599, 5294.258874124847], [412.8204824459972, 5325.378806631081], [423.54752424464095, 5355.540528086014], [593.1215167155606, 5763.192455586977], [605.6304602689925, 5789.615700960159], [620.6117289298563, 5814.719946700148], [637.9276831979514, 5838.274549066089], [657.4192337900749, 5860.063101573847], [678.9073032632587, 5879.8854232132435], [702.1944712781115, 5897.5593976015225], [727.0667883857968, 5912.922646169551], [753.2957416765275, 5925.83401999902], [1172.4010865301243, 6107.736088507809], [1197.8787800208665, 6117.464864193462], [1224.1236649004277, 6124.878902204335], [1250.9259056778974, 6129.918925148435], [1278.071210639784, 6132.544636577368], [1628.9870839547948, 6150.704900063574], [1659.292302714137, 6150.76562195085], [1689.453949944058, 6147.818588260561], [1719.1742480842513, 6141.892894236371], [1748.1597768906504, 6133.047042608261], [1775.329318731092, 6121.7003983790055], [2335.7236546114436, 6303.450282478705], [2695.4046255768044, 6521.902204841375], [2725.4124611240695, 6537.908900566399], [2757.0158409121213, 6550.475160480477], [2837.7493568355567, 6577.469125481322], [2845.760392675933, 6600.79408356268], [2857.9540637771715, 6627.57001277525], [2872.6709235527087, 6653.04647325445], [2889.7740255511017, 6676.986396024004], [2909.104218352819, 6699.167010227218], [2930.4816265398986, 6719.381916099228], [2953.7073245102074, 6737.443005600013], [2978.5651875630138, 6753.182212842628], [3004.8239030278637, 6766.453078011982], [3032.2391227253247, 6777.132110230625], [3060.555736726441, 6785.119936699979], [3086.1559034314123, 6791.024853086099], [3106.2550470721326, 6806.84155335743], [3131.8567706610193, 6823.149044151418], [3158.9526532645687, 6836.8309903834015], [3187.274318938609, 6847.751876803115], [3216.5412507540314, 6855.803535567597], [3246.4635692268494, 6860.906217603013], [3276.744903480285, 6863.009382494725], [3307.085326702858, 6862.09219907783], [3337.184326825489, 6858.163751756772], [3366.7437829969567, 6851.262950529344], [3395.470918374369, 6841.45814559795], [3517.897004638391, 6792.7451493721455], [3542.584962053981, 6781.628478088416], [3566.189770529105, 6768.366176680662], [3588.525414372736, 6753.062757588923], [3633.367027739412, 6719.319742695428], [3655.28177677287, 6710.39037328586], [3669.102541031956, 6703.755271489732], [3706.1201377926045, 6702.792910603806], [3735.584511017194, 6700.595317644998], [3764.6979951425456, 6695.557089146227], [3793.1873791861, 6687.725505579263], [3820.785308935854, 6677.174061231315], [3847.2327958945534, 6664.001774493605], [3872.2816477171727, 6648.332258651964], [3895.696797333483, 6630.312561850995], [3917.258508898609, 6610.111787145957], [3936.7644398697303, 6587.9195055747405], [3954.0315398590756, 6563.943977171555], [3968.8977684412384, 6538.41019656416], [3981.2236157963052, 6511.557781565934], [4008.200855243602, 6444.381610148586], [4017.9586749668815, 6416.1614935956895], [4024.9102952547255, 6387.122468140908], [4028.9890889069065, 6357.542855798267], [4030.155963080353, 6327.7061597900465], [4028.3997339709895, 6297.898347335868], [4023.7372340040747, 6268.405108820647], [4016.2131505050347, 6239.509119627997], [4005.8995973980636, 6211.487330850214], [3992.895424036018, 6184.6083148848265], [3977.3252677879063, 6159.129691327922], [3959.3383594624465, 6135.295657827519], [3939.1070930184214, 6113.334649606608], [3916.825373270083, 6093.457150040194], [3892.7067574228276, 6075.853673290461], [3866.9824082535342, 6060.692938355729], [3266.12640631455, 5745.137892273255], [3127.168128320365, 5600.527145509608], [3106.2990647629485, 5580.763760711998], [3083.662302609009, 5563.05257239379], [3059.458867790352, 5547.55086489208], [3033.9036990868626, 5534.396301236935], [3007.2237393608666, 5523.705700623803], [2067.0396795450943, 5197.490932001732], [1833.1239354042918, 5107.5935260420665], [1842.6566909964895, 5095.534593068995], [1858.9000964230509, 5070.205704490654], [1872.5686661370564, 5043.399529486895], [1883.5293656404247, 5015.376969238743], [1891.6755158010055, 4986.410763859749], [1896.9278311469243, 4956.782837844454], [1899.2351915429463, 4926.7815561322495], [1898.5751397356507, 4896.698917482048], [1894.9540999276214, 4866.827712498605], [1888.407315251301, 4837.458673924208], [1878.9985047521186, 4808.877646976151], [1866.8192432185751, 4781.362807253376], [1851.9880698964116, 4755.181953287683], [1834.6493347609066, 4730.589900094084], [1758.8796065817005, 4633.655574582517], [1739.855850303662, 4611.578717451543], [1718.811910787248, 4591.418272681534], [1695.9399130188394, 4573.358299211599], [1671.4486716190004, 4557.563679290935], [1645.5617844274966, 4544.178613164462], [1618.5155911199981, 4533.325302550569], [1590.5570154967136, 4525.102834988385], [1561.9413111400208, 4519.586279192008], [1532.9297310247202, 4516.825999694876], [1503.7871423551114, 4516.8471970381215], [1474.779608405137, 4519.6496776929125], [1446.171959438594, 4525.207855838351], [1418.2253748870571, 4533.470986940898], [1391.194998858089, 4544.363631037064], [1289.545978882932, 4591.088327256031], [1334.7903838894563, 4407.062631834298], [1692.1354453011882, 2953.921711327508], [1800.7395030902117, 2612.0823049023747], [1809.0379011997138, 2580.026094582863], [1813.812282325176, 2547.259200984612], [1815.0063719472964, 2514.1678398577496], [1809.0813855153392, 2189.3895868323743], [1807.216608535091, 2160.8237071326002], [1802.6818637493416, 2132.5584817472845], [1795.5170991704217, 2104.8429080611095], [1785.7854314930737, 2077.921141394414], [1773.5725900800317, 2052.030344169587], [1758.9861617438728, 2027.3985966751352], [1742.1546429813025, 2004.2428878238425], [1731.1609190588351, 1991.769643698819], [1751.2745634695166, 1672.7206706581637], [1956.0628599952324, 1564.7505781389773], [2302.673194106552, 1896.4289091620594], [2326.4453690952505, 1916.9401409793645], [2352.2002886790433, 1934.89873367548], [2379.6650166211766, 1950.1143721239641], [2408.548497092095, 1962.425809497945], [2438.5446391162695, 1971.7025760700926], [2469.3355603530654, 1977.8463618541136], [2500.59495583619, 1980.792058441788], [2731.4948873698595, 1990.6023843567818], [3022.7627630091156, 2002.9867536611855], [3051.502773343469, 2002.8534136628732], [3080.1026359379175, 2000.0154860485345], [3108.308401237766, 1994.498169905506], [3135.8696190344053, 1986.350455678068], [3162.5415623133886, 1975.644690161571], [3188.0874002822675, 1962.4759341059253], [3212.2803012853255, 1946.96111813467], [3234.9054469322436, 1929.23800446745], [3236.10349488043, 1928.1021352009848], [3243.727229840646, 1937.928986415267], [3263.9969812393538, 1959.3986063599586], [3286.247741921805, 1978.8076519640163], [3310.270983235503, 1995.974226434715], [3335.8415652766707, 2010.7374488590285], [3356.8459173921146, 2020.288095306605], [3372.197595646314, 2042.7846011864021], [3392.339602816559, 2066.6386782685295], [3414.8146410126355, 2088.308706057258], [3439.3872164226486, 2107.5676256548613], [3641.472132442519, 2249.8803677372634], [3669.9772407848504, 2269.949564471841], [3775.000780314964, 2343.913131598383], [3801.2657333696843, 2360.477082340978], [3829.078741281992, 2374.2846459914], [3858.151519803796, 2385.1927059534937], [3888.182727054809, 2393.0881992364302], [3918.8610869573895, 2397.8892883639783], [3949.868615640735, 2399.546209629625], [4207.731562509434, 2400.180238054134], [4295.326249061909, 2400.404943522997], [4306.289876747702, 2400.2359698768705], [4332.842943871336, 2399.3491065725684], [4574.858303607558, 2537.184045652859], [4602.629991127353, 2551.176429035142], [4631.682120337966, 2562.268192139454], [4661.7126760720275, 2570.344029107131], [4692.409471802937, 2575.3199865324423], [4723.4533950201, 2577.144336202182], [4754.521724603896, 2575.798112856224], [4785.291485715716, 2571.295311331749], [4815.442807323358, 2563.6827410887927], [4960.942954006721, 2518.9432533392683], [4988.012981013977, 2509.199942068197], [5014.04452998325, 2496.949352898635], [5038.805977221637, 2482.300489211455], [5062.077000155521, 2465.383693760261], [5083.650537719368, 2446.3494889242575], [5103.33463274379, 2425.3672373834997], [5120.954139954585, 2402.6236351542175], [5136.352284380817, 2378.3210504148155], [5149.392056308512, 2352.6757228728384], [5159.957430366194, 2325.915839693509], [5167.95439789712, 2298.2795051503927], [5173.311803429213, 2270.0126220062375], [5176.883789475483, 2244.688460099511], [5204.623130610969, 2048.219913745299], [5207.387043507246, 2017.4584096800536], [5207.025757581287, 1986.5750999590382], [5203.54297757952, 1955.8866723291576], [5196.9744170886115, 1925.7078161556274], [5187.387432316726, 1896.3479954842478], [5174.880331399967, 1868.1082756994292], [5159.581366318511, 1841.2782362988219], [5141.647417758533, 1816.1330014420673], [5121.2623864038615, 1792.9304187512025], [5098.635307158809, 1771.9084152374417], [4592.237428057415, 1347.1133060222492], [4570.776145670505, 1330.6741729872301], [4547.943503306829, 1316.1999828806147], [4523.918880914396, 1303.804449188523], [4498.891022986558, 1293.5849548680708], [3396.205789107131, 899.3884108224884], [2571.133094924211, 563.7882040822878], [2540.0644195693894, 553.0628239633515], [2508.0220186785446, 545.7429255917668], [2475.377999634191, 541.913514717482], [2442.5114563918323, 541.6190621647984], [2050.729313377349, 559.2411672277376], [1824.0458560745465, 467.9002059577033], [1798.12214208144, 458.7888801107183], [1771.4836049617734, 452.04769727867097], [1744.34646149748, 447.7313735578209], [1716.930975504045, 445.8749432154], [1689.4596700175316, 446.49347432516515], [1654.2063560804236, 448.8792902119458], [1623.7190348882577, 452.4912146823481], [1593.7492678845883, 459.1497293524444], [1564.600706639234, 468.78737061843276], [1443.494879454549, 515.7143628783524], [1417.475757998589, 527.2193937581033], [1392.6418042719015, 541.0987006276846], [1369.2090851289686, 557.2315271124244], [1347.3814760370879, 575.4775101831183], [1327.3488872651942, 595.6779013667256], [1309.285611577856, 617.656947940588], [1293.3488078067894, 641.2234220607206], [1279.6771334973746, 666.1722845286131], [1268.38953852345, 692.2864687331021], [1259.5842301686062, 719.3387692188844], [1232.7975576929748, 816.8762295553461], [1210.6776566470508, 861.9523056549951], [1116.3943288287264, 1054.1001570206136], [1090.8414797764271, 1101.0295152412727], [1059.9679752451484, 1138.0054459599778], [1040.7612053389894, 1163.6319180456921], [1024.3474033197272, 1191.1310668513179], [1010.9075340820127, 1220.1997096939012], [1000.5897744171671, 1250.5173599552363], [947.6690241473261, 1437.7207795698196], [940.8939073754591, 1467.201431571506], [937.0723326681764, 1497.2082077497616], [926.2245362972608, 1637.6892599733546], [925.3648999095312, 1666.447246009484], [927.218827043369, 1695.1582837766036], [931.7698209707742, 1723.5668949680403], [938.9773857598193, 1751.420292345807], [948.7773866174975, 1778.4706291034818], [961.0826205775375, 1804.4772042874247], [975.7835924558458, 1829.2086045984179], [992.749489166541, 1852.4447635821998], [1001.7700572640751, 1863.6486825756729], [1015.5468875957886, 1929.1564297443256], [994.9938702063519, 2032.8688242258504], [725.8407524005161, 2200.032147350721], [707.1866343299043, 2212.593714689836], [689.5088297548937, 2226.4956685220823], [496.8613073832239, 2389.8415005598217], [474.23891088715754, 2411.093745189719], [453.8936534676468, 2434.5351876690984], [436.0362445694045, 2459.923052337952], [420.8516277714516, 2486.9944050516933], [408.49706538318424, 2515.468876304105], [399.1005097293528, 2545.05156493932], [392.75927798758494, 2575.4360923347995], [389.5390443041688, 2606.3077754769474], [389.4731596286874, 2637.346886035055], [392.56230630812934, 2668.231961682439], [458.7290673312382, 3104.274299272336], [464.91624516871525, 3134.5884463377297], [474.14269046270056, 3164.119809142314], [486.3134629491251, 3192.5645095082], [501.3033251918969, 3219.629851033911], [518.9580312775797, 3245.0373309338465], [539.095914008969, 3268.525505851954], [561.5097542629228, 3289.852682106197], [585.968913277844, 3308.799402723089], [612.221705931297, 3325.1707056574523], [639.9979905827204, 3338.7981299497187], [669.0119488355122, 3349.541449194774], [698.9650266124518, 3357.290114471689], [729.5490062825265, 3361.9643918946385], [760.4491782237892, 3363.5161830764264], [842.2372456768644, 3363.470031535253]]]}}]}