{"type": "FeatureCollection", "features": [{"type": "Feature", "properties": {"name": "Montage Mountain Ski Area", "winter_sports_id": "45096232", "source": "ski_areas_1000ft_buffer", "buffer_ft": 1000, "coordinate_space": "game local meters (east, north) from scene origin"}, "geometry": {"type": "Polygon", "coordinates": [[[117.10676598147256, 969.6165433106944], [126.77187266940018, 996.730390441604], [138.89687146770302, 1025.8790163211524], [153.9699853307684, 1053.6181443715468], [171.82972283795243, 1079.6505811121315], [192.28473704040516, 1103.6974183358252], [228.02332713553915, 1141.553175563924], [219.16769451840082, 1153.276929992251], [203.69441908050794, 1175.7915245741606], [190.29783567978302, 1199.6003627479076], [179.08542361162836, 1224.5124288517982], [170.14713881281205, 1250.3278561560437], [162.78285944758682, 1275.1400419035926], [145.18041461025132, 1324.1443055588752], [135.69654707511654, 1355.8613542113453], [129.7060289963265, 1388.419434803538], [127.27943385473918, 1421.4349849997088], [128.44534904079046, 1454.519053076394], [133.212693727226, 1507.6294934675097], [137.08385111333337, 1535.8637966541573], [143.57337314635515, 1563.6135325040668], [152.62460256565828, 1590.6364298695698], [164.15851693367586, 1616.6965633174405], [173.15896984469146, 1634.7082029422745], [171.46309454733273, 1656.0060096941888], [172.09698141069384, 1686.5504177762195], [175.78339531633537, 1716.878177832812], [182.48534877359634, 1746.6849974794313], [192.13559799647192, 1775.6718111643568], [204.63731759152142, 1803.5477808294818], [219.86507204332156, 1830.0332140335813], [237.6660742793465, 1854.8623702218756], [257.86171864322387, 1877.786127032712], [280.24937293096446, 1898.574479855597], [290.76751292392146, 1906.5399964042008], [294.9362913972582, 1913.0569020090625], [313.3797134462511, 1936.4858263581991], [334.02271605160786, 1958.0018844660372], [356.668006402615, 1977.3994394140318], [381.09915509202983, 1994.493101595901], [407.08266459725564, 2009.1195005653426], [434.3702009152621, 2021.1388464216143], [462.70096697227564, 2030.4362658299506], [491.80419516476104, 2036.9228999186307], [521.4017351837829, 2040.5367535250261], [551.2107123968308, 2041.2432877179235], [580.9462313895347, 2039.035749886185], [609.18483755138, 2035.5446771839634], [708.6864352737321, 2122.7086147507653], [732.367363078869, 2141.464395207353], [757.7875226448523, 2157.7855817377567], [784.6975448358571, 2171.5120651889592], [812.8334451084374, 2182.5091901784763], [841.9192131889286, 2190.66907604225], [871.6695206972654, 2195.9116751486436], [901.7925201884937, 2198.1855581337586], [931.9927081490168, 2197.468418445438], [961.9738238541177, 2193.767291150987], [991.4417556537082, 2187.1184839233756], [1020.107426184928, 2177.5872208764777], [1047.689628175809, 2165.267002718523], [1073.9177830746048, 2150.2786895111203], [1580.77141549089, 1826.3219257825986], [1604.7477495386847, 1809.316294242628], [1626.9756931826705, 1790.0815699193627], [1647.2487837492372, 1768.7964131832123], [2153.2090566483093, 1183.5223420737311], [2170.419208887208, 1161.6754822498187], [2185.567779111676, 1138.3517723344266], [2198.5288115609437, 1113.745141884312], [2340.125362685125, 812.3447411954403], [2351.1213580190088, 785.7447501318529], [2359.5609148953226, 758.2266593994573], [2365.368871460203, 730.035542386584], [2368.493502624624, 701.4224663907662], [2368.90698073362, 672.6422566324472], [2366.6056233915733, 643.9512268099934], [2361.609926259902, 615.6048963936046], [2353.964380523248, 587.8557149963453], [2343.737076653575, 560.9508140776306], [2331.0190980060725, 535.1298060221598], [2315.923709640105, 510.62265016976744], [2157.3858232721104, 278.52712665870786], [2089.0528374249116, 178.49791675433517], [2070.2643315719906, 153.79394153133035], [2049.062469990342, 131.12732710596174], [2025.6668026208063, 110.73279125802219], [2000.3195967497304, 92.82152389548719], [1973.2833282685606, 77.5790001321584], [1944.8379636877798, 65.16305965557694], [1915.278061016812, 55.70227225963026], [1884.909719552379, 49.294606481678784], [1854.0474101512227, 46.006415110081434], [1823.0107188186375, 45.87174809165299], [1792.1210373237263, 48.891999929212034], [1761.6982351139304, 55.0358952563256], [1383.8512309889193, 151.5854917773977], [1137.70027998375, 214.49366364628077], [1133.8631892073317, 215.50092814676464], [800.9483819131274, 305.2118026027456], [771.0655405457364, 314.9412064412609], [754.9998459499911, 322.07422424759716], [741.2010226926068, 316.30865090247244], [691.6049173281062, 295.6432412909344], [664.143234111194, 285.7151401778683], [635.857970730809, 278.4587559364736], [607.0084033141611, 273.94060401804745], [577.858980671037, 272.2020999509841], [548.6769002213841, 273.25917968153954], [519.7296587493038, 277.1021535200998], [491.2826003842056, 283.69579494651407], [463.5964843482361, 292.9796635173261], [436.9250946996617, 304.86865889281034], [411.5129140369245, 319.25380091089755], [387.592882452358, 336.0032285358757], [321.9801300058607, 386.7960776556283], [308.4022154054255, 393.25601760763675], [281.29498143150704, 409.8108438588679], [256.05641450040275, 429.0950121115893], [253.42316066089552, 431.58098305016756], [231.75173377268948, 436.2923940708861], [203.2394138885429, 445.49950166326016], [175.7680500462302, 457.4597434718162], [149.6027503517107, 472.0576990544796], [124.99601893289946, 489.1524931238964], [102.18531920487294, 508.57915504463017], [81.39078225998674, 530.1502108518034], [62.81308252416784, 553.6574924448505], [46.63150118186604, 578.874146479182], [33.002196055080276, 605.5568235786632], [22.056694622850046, 633.4480267381296], [13.900624732952565, 662.2785962689668], [8.612695263291243, 691.7703072614968], [6.243936549988575, 721.6385545739904], [6.8172079284559, 751.5950993569568], [10.326977133052424, 781.3508506594226], [16.73937368573388, 810.618655254133], [25.992515755118802, 839.1160687748343], [37.997107341419905, 866.5680813826621], [52.637300009664614, 892.7097717272118], [69.77181087236386, 917.2888635089621], [89.23528600856662, 940.0681600533426], [117.10676598147256, 969.6165433106944]]]}}]}