{"type":"FeatureCollection","features":[{"type":"Feature","properties":{"kind":"building","osm_type":"way","osm_id":"45096266","addr:city":"Scranton","addr:state":"PA","building":"yes","name":"Montage Mountain Ski Lodge"},"geometry":{"type":"Polygon","coordinates":[[[-75.6621045,41.3504323],[-75.6625487,41.3506108],[-75.6621693,41.3511429],[-75.6619093,41.3510384],[-75.6621526,41.3506971],[-75.6619685,41.3506232],[-75.6621045,41.3504323]]]}},{"type":"Feature","properties":{"kind":"road","osm_type":"way","osm_id":"10900232","highway":"tertiary","lanes":"2","name":"Montage Mountain Road","name:etymology:wikidata":"Q7548935","oneway":"yes","surface":"asphalt","tiger:cfcc":"A41","tiger:name_base":"Montage Mountain","tiger:name_type":"Rd","tiger:reviewed":"no"},"geometry":{"type":"Polygon","coordinates":[[[-75.6630281,41.3509818],[-75.6629899,41.3510357],[-75.6629769,41.3510959],[-75.6629906,41.3511561],[-75.6630295,41.3512097],[-75.6630894,41.351251],[-75.6631639,41.3512755],[-75.6632449,41.3512806],[-75.6633244,41.3512655],[-75.663393,41.3512318],[-75.6634432,41.3511831],[-75.6634695,41.3511248],[-75.663469,41.3510632],[-75.6634418,41.3510052],[-75.6633909,41.3509569],[-75.6633217,41.3509238],[-75.6632427,41.3509095],[-75.6631617,41.3509151],[-75.6630875,41.3509401],[-75.6630281,41.3509818]]]}},{"type":"Feature","properties":{"kind":"parking","osm_type":"way","osm_id":"262152878","access":"customers","amenity":"parking","fee":"no","operator":"Montage Mountain Ski Area","parking":"surface","surface":"gravel"},"geometry":{"type":"Polygon","coordinates":[[[-75.6631958,41.3514604],[-75.6631315,41.3518229],[-75.6631707,41.3518438],[-75.6632428,41.3518823],[-75.663766,41.3521948],[-75.6638154,41.3521749],[-75.6641293,41.3519252],[-75.6653872,41.351454],[-75.6659761,41.3509827],[-75.6663692,41.350696],[-75.6664144,41.3505916],[-75.6663637,41.3505255],[-75.666267,41.3504594],[-75.6661826,41.3503625],[-75.6662053,41.3502882],[-75.6663528,41.350246],[-75.666542,41.350276],[-75.6666788,41.3503404],[-75.6667539,41.350425],[-75.6667122,41.3506366],[-75.666554,41.3508903],[-75.6662032,41.3511413],[-75.6662133,41.3511903],[-75.6663757,41.3513189],[-75.6668812,41.3515285],[-75.6673805,41.3513798],[-75.6677356,41.351176],[-75.6678978,41.3510171],[-75.6680012,41.3508116],[-75.6679755,41.3507071],[-75.6678375,41.3505901],[-75.6678206,41.3505472],[-75.6677851,41.3504574],[-75.6677544,41.3503847],[-75.6679207,41.3501954],[-75.668146,41.3499256],[-75.668225,41.3497527],[-75.6682545,41.3496177],[-75.6681687,41.3495473],[-75.6679836,41.349513],[-75.6673425,41.3495211],[-75.6669751,41.3494667],[-75.6667283,41.3494466],[-75.6663099,41.3494486],[-75.6658298,41.3495614],[-75.6654999,41.3496983],[-75.6647891,41.3500285],[-75.6642514,41.3503021],[-75.6638315,41.3505802],[-75.6637587,41.3506473],[-75.6637751,41.3506943],[-75.6638319,41.350748],[-75.6637696,41.3507659],[-75.6637053,41.3507821],[-75.6636665,41.3507684],[-75.663574,41.3507916],[-75.6635022,41.3509311],[-75.663511,41.3509891],[-75.663549,41.3510752],[-75.6635434,41.351167],[-75.6635092,41.3512347],[-75.6634348,41.3513007],[-75.6633366,41.3513609],[-75.6632877,41.3513954],[-75.6631958,41.3514604]]]}},{"type":"Feature","properties":{"kind":"lift","osm_type":"way","osm_id":"44670021","aerialway":"chair_lift","aerialway:bubble":"no","aerialway:heating":"no","aerialway:occupancy":"4","name":"Phoebe Snow"},"geometry":{"type":"LineString","coordinates":[[-75.665771,41.3580572],[-75.6656161,41.3577312],[-75.6654601,41.357403],[-75.665025,41.3564871],[-75.6645618,41.3555123],[-75.664236,41.3548265],[-75.6639958,41.3543209],[-75.6638263,41.3539643],[-75.6636554,41.3536045],[-75.66332,41.3528988],[-75.6631095,41.3524556]]}},{"type":"Feature","properties":{"kind":"trail","osm_type":"way","osm_id":"44670024","lit":"yes","name":"Smoke","piste:difficulty":"expert","piste:type":"downhill","route":"ski"},"geometry":{"type":"LineString","coordinates":[[-75.6631547,41.352395],[-75.663419,41.352488],[-75.663483,41.35253],[-75.6636129,41.3526793],[-75.663671,41.352746],[-75.663694,41.352851],[-75.663649,41.353064],[-75.663492,41.353459],[-75.66342,41.353769],[-75.663369,41.354487],[-75.663433,41.354852],[-75.663709,41.355378],[-75.663999,41.355697],[-75.664445,41.356097],[-75.664538,41.356201],[-75.664607,41.356353],[-75.664616,41.356433],[-75.664581,41.356601],[-75.66443,41.356873],[-75.664325,41.357251]]}},{"type":"Feature","properties":{"kind":"snap","osm_type":"way","osm_id":"44670024","lit":"yes","name":"Smoke","piste:difficulty":"expert","piste:type":"downhill","route":"ski"},"geometry":{"type":"LineString","coordinates":[[-75.6631547,41.352395],[-75.663419,41.352488],[-75.663483,41.35253],[-75.6636129,41.3526793],[-75.663671,41.352746],[-75.663694,41.352851],[-75.663649,41.353064],[-75.663492,41.353459],[-75.66342,41.353769],[-75.663369,41.354487],[-75.663433,41.354852],[-75.663709,41.355378],[-75.663999,41.355697],[-75.664445,41.356097],[-75.664538,41.356201],[-75.664607,41.356353],[-75.664616,41.356433],[-75.664581,41.356601],[-75.66443,41.356873],[-75.664325,41.357251]]}},{"type":"Feature","properties":{"kind":"snap","osm_type":"way","osm_id":"44670028","lit":"yes","name":"Cannonball","oneway":"yes","piste:difficulty":"advanced","piste:type":"downhill","route":"ski"},"geometry":{"type":"LineString","coordinates":[[-75.6631547,41.352395],[-75.66263,41.352375],[-75.6622525,41.3523526],[-75.6621073,41.3523694],[-75.661932,41.352436],[-75.661754,41.352472],[-75.661648,41.352527],[-75.661538,41.352654],[-75.661483,41.352791],[-75.661428,41.353039],[-75.6614133,41.3531346],[-75.661434,41.35337],[-75.661495,41.353581],[-75.661736,41.354011],[-75.662207,41.354677],[-75.662398,41.355112],[-75.662552,41.355404],[-75.662655,41.355525],[-75.66279,41.355638],[-75.663119,41.355861],[-75.663271,41.355987],[-75.663657,41.356503],[-75.663901,41.356746],[-75.664251,41.357152],[-75.664325,41.357251],[-75.6644095,41.3574154],[-75.664543,41.357672],[-75.664635,41.357817],[-75.664773,41.357974],[-75.664874,41.358032],[-75.664981,41.358052],[-75.66508,41.358072],[-75.665708,41.35811]]}},{"type":"Feature","properties":{"kind":"snap-node","osm_type":"node","note":"Smoke and Cannonball share this node","trails":"Smoke; Cannonball"},"geometry":{"type":"Point","coordinates":[-75.6631547,41.352395]}},{"type":"Feature","properties":{"kind":"pistepoly","osm_type":"way","osm_id":"419774830","area":"yes","lit":"yes","name":"Boomer","natural":"grassland","piste:difficulty":"expert","piste:grooming":"mogul","piste:type":"downhill"},"geometry":{"type":"Polygon","coordinates":[[[-75.6636292,41.352373],[-75.6635483,41.3523324],[-75.6633219,41.3522909],[-75.663093,41.3522849],[-75.6631254,41.3523681],[-75.6631688,41.3524286],[-75.6632477,41.3525387],[-75.6633765,41.3525709],[-75.6634624,41.3526596],[-75.6634988,41.3526937],[-75.663534,41.3527267],[-75.6638525,41.352904],[-75.6641316,41.3529443],[-75.6642819,41.3530088],[-75.664332,41.353213],[-75.6643965,41.3534279],[-75.6645325,41.3535837],[-75.6645537,41.353598],[-75.6647722,41.3537449],[-75.6650549,41.3539678],[-75.6652518,41.3540887],[-75.6653313,41.3542677],[-75.6653313,41.3544994],[-75.6653313,41.3549522],[-75.6652564,41.3552752],[-75.6651068,41.355549],[-75.6650694,41.3557701],[-75.6651629,41.3560264],[-75.6655136,41.3566126],[-75.665827,41.3570865],[-75.6660047,41.3572304],[-75.6660561,41.3574726],[-75.6660889,41.3577745],[-75.6659579,41.3580272],[-75.6658818,41.3580538],[-75.665786,41.3580774],[-75.6658087,41.3582289],[-75.6662853,41.3581185],[-75.6663686,41.3580769],[-75.6664256,41.3579956],[-75.6664536,41.3578341],[-75.6663866,41.357496],[-75.6663891,41.357435],[-75.6663507,41.3573146],[-75.6662572,41.35709],[-75.6661917,41.3569531],[-75.6660889,41.3569065],[-75.6659018,41.3567004],[-75.6657475,41.3562826],[-75.6656306,41.3560369],[-75.6656119,41.3558333],[-75.6656539,41.3555806],[-75.6657381,41.3553559],[-75.6657147,41.3547802],[-75.6656493,41.3543379],[-75.6656083,41.3541873],[-75.6655847,41.3539044],[-75.6647748,41.3534498],[-75.6646672,41.3532392],[-75.664555,41.3529794],[-75.6644521,41.3529057],[-75.6642416,41.3528179],[-75.6640219,41.3527618],[-75.6638114,41.3526951],[-75.663601,41.3525441],[-75.6636292,41.352373]]]}},{"type":"Feature","properties":{"kind":"pistepoly","osm_type":"way","osm_id":"419774825","area":"yes","lit":"yes","name":"White Lightning","natural":"grassland","piste:difficulty":"expert","piste:grooming":"mogul","piste:type":"downhill"},"geometry":{"type":"Polygon","coordinates":[[[-75.6669476,41.3577102],[-75.6668138,41.3577586],[-75.6666623,41.3577871],[-75.6664536,41.3578341],[-75.6663866,41.357496],[-75.6663891,41.357435],[-75.6666436,41.3572677],[-75.6667616,41.3570059],[-75.6669923,41.3566798],[-75.6671693,41.3564664],[-75.6672659,41.3561684],[-75.6672068,41.3557577],[-75.667121,41.3554033],[-75.6669064,41.355057],[-75.6666114,41.3547188],[-75.6661608,41.3544047],[-75.6656083,41.3541873],[-75.6655847,41.3539044],[-75.6661177,41.3541081],[-75.6664747,41.3542718],[-75.6674617,41.3551416],[-75.667582,41.3554386],[-75.6678324,41.3559514],[-75.6677803,41.3564301],[-75.6669476,41.3577102]]]}},{"type":"Feature","properties":{"kind":"pistepoly-wood","osm_type":"way","osm_id":"1219914249","natural":"wood"},"geometry":{"type":"Polygon","coordinates":[[[-75.6658818,41.3580538],[-75.6659579,41.3580272],[-75.6660889,41.3577745],[-75.6660561,41.3574726],[-75.6660047,41.3572304],[-75.665827,41.3570865],[-75.6655136,41.3566126],[-75.6651629,41.3560264],[-75.6650694,41.3557701],[-75.6651068,41.355549],[-75.6652564,41.3552752],[-75.6653313,41.3549522],[-75.6653313,41.3544994],[-75.6653313,41.3542677],[-75.6652518,41.3540887],[-75.6650549,41.3539678],[-75.6647722,41.3537449],[-75.6645537,41.353598],[-75.6645325,41.3535837],[-75.6643965,41.3534279],[-75.664332,41.353213],[-75.6642819,41.3530088],[-75.6641316,41.3529443],[-75.6638525,41.352904],[-75.663853,41.3529543],[-75.6638496,41.3531282],[-75.6637455,41.3533172],[-75.6636985,41.3534659],[-75.6639403,41.3539837],[-75.6640521,41.3542813],[-75.6641004,41.3544472],[-75.6641766,41.3545826],[-75.6642478,41.3546399],[-75.6644638,41.3551758],[-75.6645476,41.3553742],[-75.6645934,41.3554028],[-75.6646213,41.3554963],[-75.6646264,41.3555897],[-75.6647643,41.3558735],[-75.6648566,41.3560823],[-75.6649753,41.3562738],[-75.6650046,41.3563869],[-75.665238,41.3567998],[-75.6655652,41.3574838],[-75.6658818,41.3580538]]]}},{"type":"Feature","properties":{"kind":"nordic","osm_type":"way","osm_id":"44670035","lit":"yes","name":"Nordic","piste:difficulty":"intermediate","piste:grooming":"classic","piste:type":"nordic","route":"ski"},"geometry":{"type":"LineString","coordinates":[[-75.6518447,41.350242],[-75.6517326,41.3503431],[-75.651687,41.350473],[-75.6516576,41.350632]]}}]}