{"type":"FeatureCollection","features":[{"type":"Feature","properties":{"kind":"point","osm_type":"node","osm_id":"4197751666","natural":"tree"},"geometry":{"type":"Point","coordinates":[-75.6635194,41.3521972]}},{"type":"Feature","properties":{"kind":"line","osm_type":"way","osm_id":"418589994","denotation":"avenue","leaf_cycle":"evergreen","leaf_type":"needleleaved","natural":"tree_row"},"geometry":{"type":"LineString","coordinates":[[-75.6633151,41.3513165],[-75.6633605,41.3513071],[-75.6634404,41.3512683],[-75.6634921,41.35122],[-75.6635172,41.351153],[-75.6635266,41.3510766],[-75.663489,41.3510049],[-75.6634686,41.3509224],[-75.6635129,41.3508249],[-75.6635907,41.3507561]]}},{"type":"Feature","properties":{"kind":"polygon","osm_type":"way","osm_id":"1219906134","natural":"wood"},"geometry":{"type":"Polygon","coordinates":[[[-75.6559381,41.3530744],[-75.6554645,41.3527661],[-75.6554434,41.3527913],[-75.6554397,41.3528165],[-75.6554614,41.3528667],[-75.6555275,41.3529401],[-75.6556743,41.3530323],[-75.6557634,41.3530533],[-75.6559381,41.3530744]]]}}]}