{"type": "FeatureCollection", "features": [{"type": "Feature", "properties": {"name": "Cerro Perito Moreno", "winter_sports_id": "934096931", "source": "ski_areas_1000ft_buffer", "buffer_ft": 1000, "coordinate_space": "game local meters (east, north) from scene origin"}, "geometry": {"type": "Polygon", "coordinates": [[[84.24230278050527, 1418.4345901263878], [83.82582417951198, 1419.3427060013637], [73.29733175726142, 1451.0807993775234], [66.30650583631359, 1483.780708805658], [50.72995823936071, 1582.9667271627113], [47.58348446019227, 1612.0362557778135], [47.235063522239216, 1641.2734990473837], [49.687897558207624, 1670.4097547503188], [54.919444019615185, 1699.1772487824783], [62.88162285555154, 1727.3115961058065], [73.50125838583335, 1754.5542305679992], [86.6807518171845, 1780.6547812130302], [102.29897821659688, 1805.3733733128756], [120.21239969535964, 1828.4828328946605], [140.25638458528556, 1849.7707745721564], [162.24672046897467, 1869.0415534591302], [185.98130716662854, 1886.118063217029], [211.24201411975082, 1900.8433637376875], [237.796685101639, 1913.0821234863251], [265.40127182914875, 1922.7218632576987], [293.8020768582355, 1929.6739899003878], [322.7380851788912, 1933.8746105274186], [1102.0352528485237, 2009.0834313416854], [1126.0465085849282, 2010.4481154922396], [2024.4743192087044, 2026.026299676858], [1991.6520434289705, 2146.3173208842054], [1963.936872831313, 2215.8255807887763], [1954.3762753600022, 2243.6292913956568], [1947.5372215305688, 2272.2243729680777], [1943.4832644662238, 2301.3451006300747], [1942.2520762823988, 2330.7208648445085], [1943.8550980150467, 2360.078686097637], [1948.27743330074, 2389.145751620643], [1955.4779868018813, 2417.6519505362958], [1965.3898460944183, 2445.332383930683], [1977.9209034641972, 2471.9298264514655], [1992.9547118350747, 2497.1971166376024], [2010.3515668687178, 2520.8994537023827], [2060.0268287765794, 2582.1551110967994], [2079.161373562645, 2603.6004373943433], [2100.2295575438184, 2623.1494641732424], [2123.044301852933, 2640.628602203913], [2147.4030187172466, 2655.8826422234997], [2173.0894103701576, 2668.7761331414804], [2199.875389710476, 2679.1945847999305], [2227.5231056421762, 2687.0454846201465], [2255.7870551191736, 2692.2591190719977], [2284.416263133462, 2694.7891927147284], [2313.15651129873, 2694.6132392920554], [2341.7525952243013, 2691.732821211219], [2637.591968705412, 2647.770447433926], [2665.5598221526598, 2642.267803357914], [2692.8918475290993, 2634.1782850092277], [2719.349327050615, 2623.572546204552], [2744.7011812159326, 2610.5432174168527], [2768.7259870459093, 2595.204096743837], [2791.213912002044, 2577.6891559949145], [2811.968546649092, 2558.151370579377], [2816.4172827840084, 2553.1005193153396], [2821.2383380922256, 2551.5057369060814], [3235.974096064514, 2388.5336487619206], [3264.3915245503886, 2375.6522452011704], [3291.34425577987, 2359.9350228440017], [3316.5502369038295, 2341.546458057128], [3339.7456943280995, 2320.6789820650592], [3360.687894029659, 2297.5509672136977], [3379.1576817039168, 2272.4044417534024], [3394.9617761470145, 2245.502557097003], [3554.735616100661, 1938.5948935337365], [3621.458368500229, 1854.2177132247016], [3638.089808849385, 1831.0341080324724], [3652.4820683647413, 1806.3978091245517], [3664.5091968860943, 1780.5244147339836], [3674.065942095709, 1753.6403492158279], [3681.0686705941334, 1725.980881552212], [3684.1619093012996, 1706.1042971732095], [3711.2007147415425, 1696.4211128484458], [3738.7516929857666, 1683.3170603560284], [3764.8557060909225, 1667.5261422730982], [3789.251567276311, 1649.2063564937562], [3811.695180878858, 1628.5410037897527], [3831.9619846817222, 1605.736853780225], [3849.849196792231, 1581.022076076828], [3865.1778446013923, 1554.6439572973177], [3877.794555518194, 1526.8664268162102], [3878.4141404210823, 1525.2984186857939], [3898.487482200493, 1528.9217137731612], [3928.0315250862623, 1531.3305714540184], [3957.6698746135226, 1530.8601434351876], [3985.553162729251, 1527.6931298794225], [3992.050185693195, 1529.13305858057], [4021.6417519102106, 1532.7112887818366], [4059.238138083718, 1535.4022356765345], [4081.2315031231265, 1539.7058012802154], [4110.531621358707, 1542.5473925871775], [4139.96920882829, 1542.5510932318866], [4169.7228135654, 1541.117307833396], [4199.637529714208, 1538.1929878080264], [4229.119145263918, 1532.3383969282731], [4257.881340128137, 1523.6103939162567], [4285.644781093986, 1512.0937435496598], [4312.139834670117, 1497.9002934470773], [4337.10918571509, 1481.167887811549], [4360.310336428112, 1462.0590287279338], [4381.517961451551, 1440.7592979613692], [4383.992171944701, 1438.0163708087057], [4401.9517568718875, 1427.6032892558724], [4426.213268511405, 1410.1558294752613], [4448.650888207601, 1390.4178452268243], [4469.0492160663125, 1368.5788200572133], [4487.212429279578, 1344.8484073830768], [4502.9661620166735, 1319.4544178452343], [4516.159179323702, 1292.6406323201954], [4526.66482897196, 1264.6644616536796], [4534.3822573117795, 1235.794475515373], [4539.237377462792, 1206.3078241599724], [4539.617594576615, 1200.4820354087278], [4540.251071090403, 1199.4545191414654], [4553.522038955125, 1172.1919250730425], [4564.020512346353, 1143.7463686550036], [4585.248109583743, 1076.0444753728807], [4592.200807885791, 1071.5374986771494], [4615.966209618491, 1054.4586936132982], [4637.985331280273, 1035.180774036795], [4658.055443116697, 1013.8812314867973], [4675.991759884171, 990.7561705624685], [4691.629142157617, 966.0185033809394], [4704.823616776383, 939.8959893072024], [4715.453702390951, 912.6291379714385], [4723.421527947707, 884.4689948996529], [4728.653733786661, 855.6748301442713], [4731.102147059981, 826.5117511833087], [4730.744225261093, 797.2482620896772], [4727.5832637705025, 768.1537914052606], [4721.648365517205, 739.4962115241215], [4712.994173027808, 711.5393723910674], [4701.700365334167, 684.5406722407788], [4676.483873680001, 631.5540590379387], [4661.704502412467, 604.1887457268313], [4644.215119331726, 578.4708207091317], [4624.197582098423, 554.667703460902], [4601.860036557191, 533.0269029457122], [4577.434752404923, 513.773443990387], [4551.175708010676, 497.10752741713077], [4523.355949501274, 483.20244833640754], [4494.264751581242, 472.20279419142753], [4464.204609607463, 464.22294130176306], [4433.4880941800075, 459.3458655718714], [3795.848279072903, 391.2085163053125], [3779.615692248277, 389.91111994255334], [3597.7354963207617, 380.2520276475698], [3568.439485948882, 380.10520301386714], [3539.264535883791, 382.76979866437614], [3510.4798233517213, 388.22123019583523], [3482.350925127859, 396.4092009989545], [3455.13736723247, 407.25816629175097], [3429.0902304742485, 420.6680301204324], [3404.4498338915873, 436.5150688830763], [3392.834243632504, 445.6727114384994], [3383.7165571582736, 433.9127343073487], [3362.199666874367, 411.35396621283144], [3338.492393364373, 391.10946650989354], [3146.1144540769747, 243.14158863481134], [3121.73153219471, 226.20990568585694], [3095.818116723909, 211.72875705361366], [3068.619680699776, 199.83532000426203], [3040.393869916443, 190.64225888531655], [3011.408062306582, 184.23665788210928], [2981.936835107743, 180.6791960755363], [2952.2593638553517, 180.00357264839113], [2922.6567777881282, 182.21618765871972], [2893.409496776876, 187.2960814135149], [2864.7945749546634, 195.19513300526887], [2837.083076223673, 205.83851616922766], [2810.5375065336702, 219.12540808785707], [2432.2167747775675, 432.1134465057403], [2278.6757049349835, 420.66501716244966], [1841.5468953927048, 148.0489491885528], [1814.4458949208492, 133.00370048638433], [1785.9577794181532, 120.78686741925776], [1756.3767929858877, 111.52463351842016], [1726.0084676181432, 105.31266526598483], [1695.1664674729109, 102.21512397751212], [1298.8698393144878, 82.67774111311883], [1267.6680916397017, 82.73742440529168], [1236.6357124900678, 85.98458692803979], [1206.0974710586597, 92.3852455150336], [1176.372965141898, 101.87241411395371], [1147.77327638946, 114.34680481441319], [1120.5977146843215, 129.67786694783717], [1095.130685719545, 147.70515336934477], [944.904608130164, 266.0294229965657], [863.8538422203274, 291.1406364068389], [835.3237708010711, 301.5632236171514], [807.9718500176095, 314.7718468904495], [782.0693483838113, 330.63550688512623], [757.8731594901765, 348.99687236733735], [735.6232542059151, 369.6738405721262], [715.5403007181012, 392.461343254894], [697.8234760046471, 417.1333804903552], [689.9807751190383, 430.73182620014995], [689.4834304231335, 430.94811841938645], [662.5704130158992, 446.0535018732771], [637.3217021074961, 463.8013387164101], [559.6234850574983, 524.5150764845312], [537.6633477746509, 543.4218311505392], [517.5966121514793, 564.327311841771], [470.28924740711227, 618.5483169713989], [453.802363780851, 618.3967974418774], [423.5682159527205, 621.1369994347915], [393.75624229200184, 626.869244045578], [364.6617944196332, 635.5367410834879], [336.57311532541644, 647.0536203738302], [309.76848369673826, 661.3057824941352], [284.51345697476063, 678.1520291725174], [261.0582404358429, 697.4254621574655], [239.63520837191027, 718.935136702843], [220.456601923157, 742.467953289859], [174.67084020609036, 804.737415918149], [157.49019095953554, 830.8000201405957], [143.0634672945598, 858.4822110189125], [131.54178870213218, 887.4940184419975], [123.0458444156684, 917.5315446062014], [117.66462919162586, 948.2801473420113], [115.45451109868009, 979.4177359687164], [116.43864105432294, 1010.618145192042], [120.6067103286041, 1041.5545516749844], [124.43980055575958, 1062.0234816167504], [112.29008144803811, 1080.2878132462502], [96.37457883625757, 1107.0889248549938], [83.27764643239789, 1135.374489522539], [73.13607559446245, 1164.849077694118], [66.05579030595254, 1195.2048410223797], [62.11074085126165, 1226.124727692455], [61.34213143773377, 1257.2857938874513], [62.871205166040454, 1315.0586390532553], [65.40128398244269, 1347.0080897789448], [71.27001331723295, 1378.5156557988375], [80.41259150521364, 1409.2334350887686], [84.24230278050527, 1418.4345901263878]]]}}]}