{"type": "FeatureCollection", "features": [{"type": "Feature", "properties": {"name": "\u767d\u99ac\u30b3\u30eb\u30c1\u30ca", "winter_sports_id": "773558919", "source": "ski_areas_1000ft_buffer", "buffer_ft": 1000, "coordinate_space": "game local meters (east, north) from scene origin"}, "geometry": {"type": "Polygon", "coordinates": [[[1741.4005949590355, 1961.369633907918], [1740.8152224386577, 1961.616214149166], [1712.7522797349375, 1977.085444957018], [1686.4672139617614, 1995.4135974105448], [1662.2501641691197, 2016.398362225853], [1624.5258513970766, 2052.7280141068622], [1606.837944828556, 2071.255290665198], [1569.7392475456, 2113.5349795203656], [1550.0279180007055, 2138.5159025751054], [1431.710253363126, 2305.7137550734915], [1377.5616626668489, 2358.84835192468], [1320.9307372889016, 2414.0190361584537], [1291.354324261658, 2447.382456609048], [1271.4059842347633, 2473.5066903196275], [1256.986356224399, 2494.097462481819], [1244.3113284506835, 2515.805738347117], [1188.680079314392, 2620.795080594253], [1177.5217442502035, 2644.208891675342], [1161.7862364994362, 2681.200077642221], [1151.002116844058, 2710.6775648412295], [1143.3046769176144, 2741.107302057557], [1138.7754396190867, 2772.16701065097], [1137.4623736992944, 2803.5277400165796], [1139.3793857261771, 2834.8573514628224], [1142.7892839692067, 2865.014945022296], [1148.3485837893095, 2897.9265944529325], [1157.4709060457535, 2930.0336921000853], [1169.5917543137912, 2965.2398538137786], [1184.3118459063116, 3000.6058629048057], [1257.5416750751901, 3149.4377869702876], [1270.3179280809127, 3172.7756095593795], [1285.0794662359403, 3194.911182635464], [1301.7139595755143, 3215.676062490791], [1320.094825621345, 3234.912235903088], [1523.6031709979288, 3430.088007934857], [1547.5090814806754, 3450.747526317369], [1688.6228310363367, 3560.461445568595], [1714.9311295375228, 3578.7816086220555], [1743.017074110452, 3594.239120116923], [1772.5703667944763, 3606.663203014061], [1831.6873221856076, 3627.933925905265], [1857.6441194524523, 3635.986563077662], [1884.214693182963, 3641.6966332481243], [1911.1880782271037, 3645.0187995764427], [1938.350111182779, 3645.9266847088], [1985.1642502583563, 3645.4044421790168], [2028.2971254251897, 3647.681014908012], [2037.0021554458654, 3647.8109431155026], [2051.4214218235575, 3651.720417303499], [2079.745650990284, 3657.9708978631534], [2108.535548457876, 3661.502507778816], [2137.530734573258, 3662.2833067001775], [2166.4689730209066, 3660.30623297859], [2195.08854252554, 3655.589167531114], [2223.130603892496, 3648.174772122875], [2303.128714325838, 3622.8966484298], [2304.9499102639966, 3622.4589863251895], [2332.8319572615437, 3621.8624777998775], [2364.519806861994, 3617.843211082276], [2395.613536114106, 3610.531965055503], [2425.772116978769, 3600.0089275874197], [2454.664777878672, 3586.3895126516], [2481.9746315344237, 3569.823094493244], [2616.510588376317, 3478.2449437063187], [2633.3980540549383, 3469.5341564156115], [2966.719600550132, 3382.1241214475594], [2968.6649368882645, 3381.6071110460907], [3265.464583778288, 3301.677442372311], [3434.5790015675593, 3286.142239115201], [3464.4551743619377, 3281.898690197151], [3493.765789260855, 3274.7236457690597], [3522.223933572881, 3264.6873401473276], [3549.551039191778, 3251.8880156795494], [3677.3809602777474, 3184.112063992303], [3693.6693283818895, 3177.153087408282], [3717.944132658071, 3165.4890011204407], [3741.095358898514, 3151.7289954819717], [3762.942496718606, 3135.980357422959], [3776.4525730836904, 3125.3043767344207], [3798.9510020954767, 3105.661813768558], [3819.420410493971, 3083.912953848485], [3837.6645186913665, 3060.2663451288827], [3853.5083853342803, 3034.9487331211567], [3858.825992863509, 3025.4464966203086], [3873.513457112713, 2995.4577981866896], [3884.834570616018, 2964.043215123471], [3892.653632905218, 2931.5792981591076], [3896.876920837327, 2898.4551758477464], [3897.907943175989, 2884.1693031718023], [3898.648299640976, 2856.6441230112687], [3896.903222600813, 2829.1643417794257], [3892.686934992671, 2801.953928527888], [3882.161660559359, 2749.73176342668], [3876.7765302888583, 2727.393782395404], [3869.724989964743, 2705.524607658852], [3858.555226860335, 2674.886310514994], [3854.4793581584236, 2664.3201890494674], [3817.338458028971, 2573.11746543739], [3804.3988218717277, 2545.4081346937455], [3788.7493680478074, 2519.1338927596807], [3770.5474307580153, 2494.5588917834684], [3745.127222686424, 2463.6116739134304], [3720.9503126199124, 2437.4548216955736], [3711.0844254718395, 2427.95895993663], [3724.829034950235, 2373.8448841469362], [3732.536077519064, 2330.723097778391], [3734.716601142194, 2310.02988985274], [3735.608559855493, 2299.9694047104567], [3739.3371957689524, 2248.1787314321846], [3739.9585838026833, 2236.3382230089046], [3741.347310113255, 2194.262130923569], [3741.2376371496357, 2171.236580475699], [3740.6788363596424, 2158.102204686962], [3737.7789836974116, 2127.169296605978], [3731.7473140286747, 2096.6918802298605], [3722.6464136856375, 2066.9861979307607], [3710.570716206217, 2038.3604843476787], [3698.1678420916433, 2012.694534488488], [3697.613465144881, 2011.5533960280009], [3684.184723442886, 1984.0571003980003], [3670.312341478537, 1958.7615826167166], [3654.112012181431, 1934.8899355893955], [3635.7286819084547, 1912.6557418950833], [3615.326828585705, 1892.257933626417], [3593.088990123477, 1873.879012498539], [3569.214131224435, 1857.6834169956855], [3543.915863206261, 1843.8160511185415], [3517.4205328047974, 1832.4009879045188], [3489.9651970273117, 1823.5403593429364], [3461.7955021617236, 1817.31344257202], [3449.2171949843178, 1815.1511884713545], [3453.099037719425, 1786.0774025181308], [3454.0932207244914, 1755.5537370438688], [3452.029897822067, 1725.0836656233296], [3446.9297562008724, 1694.9726857459173], [3438.8439306379296, 1665.5226945956238], [3427.853490830632, 1637.0289621856064], [3414.068628572626, 1609.7771709356457], [3397.6275529521517, 1584.040551379323], [3378.695104648825, 1560.0771427098662], [3367.3372542513534, 1547.0942449034192], [3363.6498330158647, 1542.955734861549], [3335.7009136474226, 1512.1558741815388], [3314.61334293033, 1491.085141189862], [3291.569522507256, 1472.1736693261191], [3287.972219204181, 1469.767977122683], [3275.684985512402, 1449.7283863811754], [3257.693963645026, 1423.5506232511252], [3129.1136746052653, 1255.8857284993865], [3108.440673442441, 1231.660924070049], [3085.3543713659747, 1209.7238143426366], [3060.106469035032, 1190.3135707923211], [3032.9722341643646, 1173.6418154928833], [3004.247500395868, 1159.890313877724], [2850.772939645103, 1096.0384235908277], [2822.907034439966, 1086.0026022596285], [2794.1991057471605, 1078.7169167776592], [2764.919869531179, 1074.2500712121837], [2735.3454291874077, 1072.6441879458725], [2705.7546718911035, 1073.9144104700536], [2676.4266386816744, 1078.0487605752423], [2647.6378931143554, 1085.0082513140514], [2619.659913253272, 1094.7272546412423], [2592.75653164112, 1107.1141202882864], [2567.181447350653, 1122.0520400288515], [2543.17583359906, 1139.4001491768286], [2520.9660634811735, 1158.9948549466208], [2120.8226681000087, 1548.1660411437042], [2110.539014539332, 1558.661450128071], [1824.2611925012898, 1865.2720128986984], [1815.790655784309, 1874.7314627910964], [1741.4005949590355, 1961.369633907918]]]}}]}